<?xml version='1.0' encoding='utf-8'?>
<kml xmlns="http://www.opengis.net/kml/2.2">
  <Document>
    <name>Season 12: Hide + Seek Japan</name>
    <Folder>
      <name>Adam Chase</name>
      <Placemark>
        <name>Placeholder</name>
        <description>&lt;b&gt;Team:&lt;/b&gt; Adam Chase</description>
        <Style>
          <IconStyle>
            <color>ff2f2fd3</color>
            <scale>1.2</scale>
            <Icon>
              <href>https://maps.google.com/mapfiles/kml/pushpin/wht-blank.png</href>
            </Icon>
          </IconStyle>
        </Style>
        <Point>
          <coordinates>0.0,0.0</coordinates>
        </Point>
      </Placemark>
    </Folder>
    <Folder>
      <name>Ben Doyle</name>
      <Placemark>
        <name>Placeholder</name>
        <description>&lt;b&gt;Team:&lt;/b&gt; Ben Doyle</description>
        <Style>
          <IconStyle>
            <color>ff58eeff</color>
            <scale>1.2</scale>
            <Icon>
              <href>https://maps.google.com/mapfiles/kml/pushpin/wht-blank.png</href>
            </Icon>
          </IconStyle>
        </Style>
        <Point>
          <coordinates>0.0,0.0</coordinates>
        </Point>
      </Placemark>
    </Folder>
    <Folder>
      <name>Sam Denby</name>
      <Placemark>
        <name>Placeholder</name>
        <description>&lt;b&gt;Team:&lt;/b&gt; Sam Denby</description>
        <Style>
          <IconStyle>
            <color>ff007cf5</color>
            <scale>1.2</scale>
            <Icon>
              <href>https://maps.google.com/mapfiles/kml/pushpin/wht-blank.png</href>
            </Icon>
          </IconStyle>
        </Style>
        <Point>
          <coordinates>0.0,0.0</coordinates>
        </Point>
      </Placemark>
    </Folder>
  </Document>
</kml>