<?xml version='1.0' encoding='utf-8'?>
<kml xmlns="http://www.opengis.net/kml/2.2">
  <Document>
    <name>Season 20: Hide + Seek Italy</name>
    <Folder>
      <name>Adam Chase</name>
      <Placemark>
        <name>Narni Amelia Station</name>
        <description>&lt;b&gt;Team:&lt;/b&gt; Adam Chase&lt;br&gt;&lt;b&gt;Notes:&lt;/b&gt;&lt;ul&gt;&lt;li&gt;Game start, Day 1 (Tue 15 Sep 2026) 7:00; start video location per doc&lt;/li&gt;&lt;li&gt;Seeker (Sam is the first hider); movements after leaving Narni Amelia not given in doc&lt;/li&gt;&lt;/ul&gt;</description>
        <TimeSpan>
          <begin>2026-09-15T07:00:00</begin>
        </TimeSpan>
        <Style>
          <IconStyle>
            <color>ff2f2fd3</color>
            <scale>1.2</scale>
            <Icon>
              <href>https://maps.google.com/mapfiles/kml/pushpin/wht-blank.png</href>
            </Icon>
          </IconStyle>
        </Style>
        <Point>
          <coordinates>12.519139,42.5307121</coordinates>
        </Point>
      </Placemark>
      <Placemark>
        <name>Villa Comunale, Vietri sul Mare</name>
        <description>&lt;b&gt;Team:&lt;/b&gt; Adam Chase&lt;br&gt;&lt;b&gt;Notes:&lt;/b&gt;&lt;ul&gt;&lt;li&gt;Day 2 (Wed 16 Sep 2026) ~10:30 (±15 min) per doc timeline; timeline only says &amp;#x27;Vietri sul Mare&amp;#x27;, Villa Comunale is the located Day-2 clip site (S19E06 stinger)&lt;/li&gt;&lt;li&gt;Coordinates from doc extract (maps search query, lower confidence than a place pin)&lt;/li&gt;&lt;li&gt;Movements after 10:30 unknown; Days 3-6 not covered by source doc&lt;/li&gt;&lt;/ul&gt;</description>
        <TimeSpan>
          <begin>2026-09-16T10:30:00</begin>
        </TimeSpan>
        <Style>
          <IconStyle>
            <color>ff2f2fd3</color>
            <scale>1.2</scale>
            <Icon>
              <href>https://maps.google.com/mapfiles/kml/pushpin/wht-blank.png</href>
            </Icon>
          </IconStyle>
        </Style>
        <Point>
          <coordinates>14.732163,40.670683</coordinates>
        </Point>
      </Placemark>
    </Folder>
    <Folder>
      <name>Ben Doyle</name>
      <Placemark>
        <name>Narni Amelia Station</name>
        <description>&lt;b&gt;Team:&lt;/b&gt; Ben Doyle&lt;br&gt;&lt;b&gt;Notes:&lt;/b&gt;&lt;ul&gt;&lt;li&gt;Game start, Day 1 (Tue 15 Sep 2026) 7:00; start video location per doc&lt;/li&gt;&lt;li&gt;Seeker (Sam is the first hider); movements after leaving Narni Amelia not given in doc&lt;/li&gt;&lt;/ul&gt;</description>
        <TimeSpan>
          <begin>2026-09-15T07:00:00</begin>
        </TimeSpan>
        <Style>
          <IconStyle>
            <color>ff58eeff</color>
            <scale>1.2</scale>
            <Icon>
              <href>https://maps.google.com/mapfiles/kml/pushpin/wht-blank.png</href>
            </Icon>
          </IconStyle>
        </Style>
        <Point>
          <coordinates>12.519139,42.5307121</coordinates>
        </Point>
      </Placemark>
      <Placemark>
        <name>Villa Comunale, Vietri sul Mare</name>
        <description>&lt;b&gt;Team:&lt;/b&gt; Ben Doyle&lt;br&gt;&lt;b&gt;Notes:&lt;/b&gt;&lt;ul&gt;&lt;li&gt;Day 2 (Wed 16 Sep 2026) ~10:30 (±15 min) per doc timeline; timeline only says &amp;#x27;Vietri sul Mare&amp;#x27;, Villa Comunale is the located Day-2 clip site (S19E06 stinger)&lt;/li&gt;&lt;li&gt;Coordinates from doc extract (maps search query, lower confidence than a place pin)&lt;/li&gt;&lt;li&gt;Movements after 10:30 unknown; Days 3-6 not covered by source doc&lt;/li&gt;&lt;/ul&gt;</description>
        <TimeSpan>
          <begin>2026-09-16T10:30:00</begin>
        </TimeSpan>
        <Style>
          <IconStyle>
            <color>ff58eeff</color>
            <scale>1.2</scale>
            <Icon>
              <href>https://maps.google.com/mapfiles/kml/pushpin/wht-blank.png</href>
            </Icon>
          </IconStyle>
        </Style>
        <Point>
          <coordinates>14.732163,40.670683</coordinates>
        </Point>
      </Placemark>
    </Folder>
    <Folder>
      <name>Sam Denby</name>
      <Placemark>
        <name>Narni Amelia Station</name>
        <description>&lt;b&gt;Team:&lt;/b&gt; Sam Denby&lt;br&gt;&lt;b&gt;Notes:&lt;/b&gt;&lt;ul&gt;&lt;li&gt;Day 0 (Mon 14 Sep 2026) departure on Sam&amp;#x27;s pre-game hide run; no time given in doc&lt;/li&gt;&lt;li&gt;Game start point per doc&lt;/li&gt;&lt;/ul&gt;</description>
        <Style>
          <IconStyle>
            <color>ff007cf5</color>
            <scale>1.2</scale>
            <Icon>
              <href>https://maps.google.com/mapfiles/kml/pushpin/wht-blank.png</href>
            </Icon>
          </IconStyle>
        </Style>
        <Point>
          <coordinates>12.519139,42.5307121</coordinates>
        </Point>
      </Placemark>
      <Placemark>
        <name>Roma Termini</name>
        <description>&lt;b&gt;Team:&lt;/b&gt; Sam Denby&lt;br&gt;&lt;b&gt;Notes:&lt;/b&gt;&lt;ul&gt;&lt;li&gt;Day 0 (Mon 14 Sep 2026) on Sam&amp;#x27;s hide run; no time given in doc&lt;/li&gt;&lt;li&gt;Coordinates from Nominatim (Roma Termini station)&lt;/li&gt;&lt;/ul&gt;</description>
        <Style>
          <IconStyle>
            <color>ff007cf5</color>
            <scale>1.2</scale>
            <Icon>
              <href>https://maps.google.com/mapfiles/kml/pushpin/wht-blank.png</href>
            </Icon>
          </IconStyle>
        </Style>
        <Point>
          <coordinates>12.5016713,41.901195</coordinates>
        </Point>
      </Placemark>
      <Placemark>
        <name>Salerno Station</name>
        <description>&lt;b&gt;Team:&lt;/b&gt; Sam Denby&lt;br&gt;&lt;b&gt;Notes:&lt;/b&gt;&lt;ul&gt;&lt;li&gt;Day 0 (Mon 14 Sep 2026) on Sam&amp;#x27;s hide run; no time given in doc&lt;/li&gt;&lt;li&gt;Coordinates from Nominatim (Salerno railway station)&lt;/li&gt;&lt;/ul&gt;</description>
        <Style>
          <IconStyle>
            <color>ff007cf5</color>
            <scale>1.2</scale>
            <Icon>
              <href>https://maps.google.com/mapfiles/kml/pushpin/wht-blank.png</href>
            </Icon>
          </IconStyle>
        </Style>
        <Point>
          <coordinates>14.7726212,40.6754966</coordinates>
        </Point>
      </Placemark>
      <Placemark>
        <name>Vietri sul Mare</name>
        <description>&lt;b&gt;Team:&lt;/b&gt; Sam Denby&lt;br&gt;&lt;b&gt;Notes:&lt;/b&gt;&lt;ul&gt;&lt;li&gt;Day 0 (Mon 14 Sep 2026) arrival at hiding area; no time given in doc&lt;/li&gt;&lt;li&gt;Coordinates from Nominatim (town)&lt;/li&gt;&lt;/ul&gt;</description>
        <Style>
          <IconStyle>
            <color>ff007cf5</color>
            <scale>1.2</scale>
            <Icon>
              <href>https://maps.google.com/mapfiles/kml/pushpin/wht-blank.png</href>
            </Icon>
          </IconStyle>
        </Style>
        <Point>
          <coordinates>14.7286002,40.6715477</coordinates>
        </Point>
      </Placemark>
      <Placemark>
        <name>Crestarella (Beach), Vietri sul Mare</name>
        <description>&lt;b&gt;Team:&lt;/b&gt; Sam Denby&lt;br&gt;&lt;b&gt;Notes:&lt;/b&gt;&lt;ul&gt;&lt;li&gt;Start video location, Day 1 (Tue 15 Sep 2026) 7:00, located by SeaOwl per doc&lt;/li&gt;&lt;li&gt;Coordinates from Nominatim (Spiaggia della Crestarella)&lt;/li&gt;&lt;li&gt;No travel between Day 0 arrival and this Day 1 sighting documented; Sam was hiding in Vietri sul Mare&lt;/li&gt;&lt;/ul&gt;</description>
        <TimeSpan>
          <begin>2026-09-15T07:00:00</begin>
        </TimeSpan>
        <Style>
          <IconStyle>
            <color>ff007cf5</color>
            <scale>1.2</scale>
            <Icon>
              <href>https://maps.google.com/mapfiles/kml/pushpin/wht-blank.png</href>
            </Icon>
          </IconStyle>
        </Style>
        <Point>
          <coordinates>14.7316602,40.6692866</coordinates>
        </Point>
      </Placemark>
      <Placemark>
        <name>Villa Comunale, Vietri sul Mare</name>
        <description>&lt;b&gt;Team:&lt;/b&gt; Sam Denby&lt;br&gt;&lt;b&gt;Notes:&lt;/b&gt;&lt;ul&gt;&lt;li&gt;S19E06 stinger, Day 2 (Wed 16 Sep 2026) ~10:30 (±15 min), located by anotherdoofus; clothing changes from the start of the game&lt;/li&gt;&lt;li&gt;Coordinates from doc extract (maps search query, lower confidence than a place pin)&lt;/li&gt;&lt;/ul&gt;</description>
        <TimeSpan>
          <begin>2026-09-16T10:30:00</begin>
        </TimeSpan>
        <Style>
          <IconStyle>
            <color>ff007cf5</color>
            <scale>1.2</scale>
            <Icon>
              <href>https://maps.google.com/mapfiles/kml/pushpin/wht-blank.png</href>
            </Icon>
          </IconStyle>
        </Style>
        <Point>
          <coordinates>14.732163,40.670683</coordinates>
        </Point>
      </Placemark>
      <Placemark>
        <name>Vietri sul Mare</name>
        <description>&lt;b&gt;Team:&lt;/b&gt; Sam Denby&lt;br&gt;&lt;b&gt;Notes:&lt;/b&gt;&lt;ul&gt;&lt;li&gt;Day 2 (Wed 16 Sep 2026) 14:30 sighting per doc timeline; exact spot within Vietri sul Mare not given in doc&lt;/li&gt;&lt;li&gt;Coordinates from Nominatim (town); same-town sighting, no travel leg between the two Day 2 Vietri stops&lt;/li&gt;&lt;li&gt;Movements after 14:30 unknown; Days 3-6 not covered by source doc&lt;/li&gt;&lt;/ul&gt;</description>
        <TimeSpan>
          <begin>2026-09-16T14:30:00</begin>
        </TimeSpan>
        <Style>
          <IconStyle>
            <color>ff007cf5</color>
            <scale>1.2</scale>
            <Icon>
              <href>https://maps.google.com/mapfiles/kml/pushpin/wht-blank.png</href>
            </Icon>
          </IconStyle>
        </Style>
        <Point>
          <coordinates>14.7286002,40.6715477</coordinates>
        </Point>
      </Placemark>
      <Placemark>
        <name>Narni Amelia Station to Roma Termini (train)</name>
        <description>&lt;b&gt;Mode:&lt;/b&gt; train&lt;br&gt;Day 0 hide run: Narni Amelia to Roma Termini per doc timeline; travel is train-based per doc; specific train/time not documented</description>
        <Style>
          <LineStyle>
            <color>ff007cf5</color>
            <width>3</width>
          </LineStyle>
        </Style>
        <LineString>
          <coordinates>12.519139,42.5307121 12.5190119,42.5304352 12.5184065,42.5295597 12.5179306,42.52887 12.5173817,42.5281959 12.5170725,42.5278849 12.5168041,42.5276552 12.5163719,42.5273261 12.5160596,42.5270965 12.5154012,42.5266986 12.5148593,42.5264333 12.5140484,42.5261066 12.5129233,42.5257063 12.5109375,42.5249834 12.5105463,42.5248417 12.5095727,42.5244411 12.508646,42.5240226 12.5082545,42.5238185 12.507551,42.5233745 12.5070053,42.5229067 12.5023059,42.5181488 12.4962975,42.5120353 12.4857851,42.5032472 12.4849436,42.5026211 12.4833323,42.5016759 12.482701,42.5013276 12.4825575,42.5012305 12.4823333,42.5010787 12.4821519,42.5009736 12.4813439,42.5005178 12.4798163,42.499685 12.4782773,42.4988677 12.4765811,42.4979179 12.4758107,42.4974866 12.4732292,42.4960148 12.4727915,42.4957709 12.4718215,42.4952247 12.4682254,42.4931998 12.4668731,42.4924282 12.4634902,42.4906456 12.4627676,42.4902159 12.4622253,42.4898399 12.4615709,42.4893429 12.460973,42.4888083 12.4584709,42.4862763 12.4560566,42.4837802 12.4554481,42.483241 12.4546159,42.4826077 12.4538902,42.4821333 12.4530031,42.4816715 12.452364,42.4813894 12.4514856,42.4810465 12.4505264,42.480757 12.4493452,42.4804516 12.4430444,42.478842 12.4420551,42.4785894 12.4410778,42.4783062 12.4404234,42.4780681 12.4396903,42.4777913 12.4388885,42.477412 12.4383405,42.4771105 12.4373475,42.4764687 12.4368457,42.476068 12.436245,42.4755289 12.4359965,42.4752659 12.4356099,42.4748157 12.4349914,42.4739925 12.4338647,42.47237 12.4332268,42.4716061 12.4326399,42.4710408 12.4318925,42.4704401 12.4301243,42.469162 12.4293884,42.4685761 12.4290086,42.4682365 12.4284751,42.4676931 12.4280308,42.4671912 12.4272394,42.4661264 12.4264847,42.4651302 12.4259835,42.4645434 12.4255598,42.4641197 12.4252443,42.4638375 12.4248491,42.4635126 12.424131,42.4630112 12.423538,42.4626461 12.4221357,42.4618593 12.4181334,42.4596462 12.4158827,42.4584074 12.4144818,42.4575959 12.4141554,42.4573662 12.4138934,42.4571777 12.4137569,42.4570774 12.4136375,42.4569886 12.4135784,42.456942 12.4134069,42.4568031 12.4133486,42.4567548 12.4129617,42.4564201 12.412786,42.4562649 12.4127194,42.4561996 12.4126391,42.4561209 12.4125696,42.4560453 12.4123073,42.4557485 12.4118112,42.4551245 12.4113763,42.4544727 12.4109734,42.453629 12.4106365,42.4526145 12.4090661,42.4451715 12.4089548,42.4445461 12.4088619,42.4440886 12.4088088,42.443826 12.408611,42.4428879 12.408447,42.4421168 12.4084105,42.4419405 12.408381,42.4417878 12.4083571,42.4416348 12.4083469,42.4415272 12.4083359,42.4414152 12.4083333,42.4412926 12.4083334,42.4411696 12.4083358,42.4410474 12.4083492,42.4409257 12.4083659,42.4408122 12.4083882,42.4406792 12.4084147,42.4405558 12.4084434,42.4404306 12.4084867,42.4402756 12.4086953,42.4395426 12.4088632,42.4389473 12.4089068,42.4387705 12.4091857,42.4376133 12.4092124,42.4375002 12.4096269,42.4357335 12.4096642,42.435538 12.4096898,42.435369 12.4097131,42.435176 12.4097225,42.4350846 12.4097291,42.4350119 12.4097451,42.4345976 12.41004,42.4331777 12.4103134,42.4320241 12.4103648,42.4318044 12.4104542,42.4311898 12.4106859,42.4302053 12.4107422,42.4299857 12.4108039,42.4297189 12.4109456,42.4291252 12.4110476,42.4286954 12.411286,42.4278513 12.4114567,42.4273768 12.4115287,42.4271642 12.4116072,42.4269605 12.4119002,42.4260613 12.4120631,42.4255631 12.4121634,42.4252447 12.4122817,42.4248371 12.4123541,42.4245476 12.4124302,42.4241749 12.412566,42.4234335 12.4139551,42.4151655 12.4144185,42.4124387 12.4145466,42.4118753 12.4146714,42.4114968 12.4149009,42.4109541 12.4151709,42.4104223 12.4155557,42.4097641 12.4159861,42.4091454 12.4165856,42.4083712 12.4171001,42.4077707 12.4190831,42.4056216 12.420483,42.4041422 12.4221726,42.4022705 12.4235828,42.4006544 12.4250675,42.3988474 12.426182,42.3974297 12.4281008,42.3948559 12.4294954,42.3929827 12.4301653,42.3920974 12.4305537,42.3915913 12.4306773,42.391427 12.4310667,42.3909058 12.431521,42.3902989 12.4319828,42.3897078 12.4324135,42.3891648 12.4329141,42.3885578 12.4333079,42.388101 12.4338043,42.3875585 12.4342813,42.3870622 12.4347515,42.3865988 12.4351759,42.3861859 12.4355333,42.3858402 12.4359809,42.3854291 12.4369963,42.3845035 12.4386284,42.3830048 12.4404614,42.3813235 12.4420032,42.3799154 12.4425133,42.379442 12.4432684,42.3787154 12.4437495,42.3782348 12.4440773,42.3778791 12.4441589,42.3777867 12.444932,42.376949 12.4460766,42.375521 12.4467801,42.3745939 12.4473736,42.3736959 12.4483072,42.3720769 12.4487873,42.371124 12.4492274,42.3701104 12.449344,42.3698049 12.449484,42.3694381 12.4496791,42.3689169 12.4498991,42.3681859 12.4501755,42.3671838 12.4502677,42.3668161 12.45035,42.3664556 12.4504737,42.3658589 12.4505722,42.3652225 12.4507073,42.364116 12.4508348,42.3629981 12.4509377,42.3619758 12.450995,42.3613536 12.4510856,42.3605164 12.4512237,42.3595943 12.4514783,42.3583418 12.4516447,42.3576289 12.4519382,42.3566341 12.4521999,42.3558543 12.4525014,42.355074 12.4535581,42.3527732 12.4536441,42.3526199 12.4540516,42.3518999 12.4541359,42.3517418 12.4547751,42.3505217 12.4551577,42.3497127 12.4554596,42.349024 12.4557981,42.3481722 12.4561619,42.3471505 12.4564534,42.3461656 12.4565029,42.3459751 12.4566913,42.3452259 12.4568705,42.344587 12.4570445,42.3439694 12.4573218,42.3429783 12.457633,42.3420064 12.4579248,42.3411817 12.4582244,42.3404426 12.4585761,42.3397088 12.4591695,42.3385325 12.4598922,42.3373318 12.4601763,42.3368602 12.4606777,42.3360443 12.461652,42.334391 12.4626762,42.3327506 12.4634375,42.3316643 12.4638203,42.3311614 12.4643551,42.3304865 12.464876,42.3298769 12.4655713,42.3291241 12.4662214,42.3284085 12.467454,42.3272222 12.4730067,42.3216883 12.474559,42.3200765 12.475586,42.318903 12.4759961,42.3183865 12.4765396,42.3176637 12.4770811,42.3168795 12.4780819,42.3152163 12.4783995,42.3146369 12.4784448,42.3145554 12.478679,42.3140975 12.4807112,42.3101432 12.4818148,42.3080618 12.4823682,42.3071465 12.4827419,42.306545 12.483162,42.3059333 12.483863,42.3050023 12.4847128,42.3039866 12.4862491,42.3022981 12.487888,42.3005728 12.4882442,42.3002219 12.4888797,42.299582 12.4889666,42.2994951 12.4910915,42.2973636 12.4928884,42.2955397 12.4944951,42.2939089 12.4947701,42.2936298 12.4970647,42.2913295 12.49897,42.2894197 12.5007379,42.2877219 12.5018238,42.2867382 12.5036248,42.2853128 12.504782,42.2845397 12.5054838,42.2840687 12.5067197,42.2833459 12.5079376,42.2826687 12.5085251,42.2823803 12.5113787,42.2809425 12.5154434,42.2790063 12.5187479,42.2772091 12.5212112,42.2755134 12.5230566,42.2738177 12.5262409,42.2687431 12.5272436,42.2655673 12.5278955,42.2636247 12.5282694,42.2624393 12.5285261,42.2611011 12.5286192,42.2600787 12.5286379,42.2598747 12.5287189,42.2588679 12.5287232,42.2587529 12.5287114,42.2577251 12.5287117,42.2570709 12.5285831,42.2548333 12.5285657,42.2545663 12.5285081,42.2535695 12.5283767,42.2516758 12.5281364,42.2496545 12.5280245,42.2489632 12.5274348,42.2460675 12.5269361,42.2437512 12.5244127,42.2340292 12.5222584,42.2228372 12.5220953,42.2192205 12.5235544,42.2098758 12.5285033,42.1923952 12.5292081,42.1901766 12.5293539,42.1897263 12.5293981,42.1896016 12.5331002,42.1781767 12.5339431,42.1755964 12.5359177,42.170627 12.5372441,42.167289 12.5451971,42.1546717 12.5481158,42.1490352 12.5485177,42.1480984 12.5488819,42.1471115 12.5489638,42.1468713 12.5490515,42.1466142 12.5498234,42.1441111 12.5498793,42.1439298 12.5501058,42.1431984 12.5501126,42.1431759 12.5502114,42.1426632 12.5507426,42.1409041 12.5511114,42.1395482 12.5512645,42.1388905 12.551388,42.1382348 12.5517983,42.1362199 12.5518269,42.1360554 12.5518324,42.1358755 12.5518324,42.1345359 12.5514978,42.131691 12.5514565,42.1296579 12.5515,42.1278565 12.5516218,42.1266324 12.552068,42.123882 12.552388,42.1222423 12.5529847,42.118664 12.5530458,42.1179985 12.5531077,42.1163984 12.5530498,42.114856 12.552845,42.1133613 12.5526813,42.1124081 12.5523241,42.1109285 12.5519721,42.109762 12.5515683,42.1086094 12.5479509,42.1006153 12.5473014,42.0995586 12.5463103,42.0980022 12.5461282,42.0977273 12.5458094,42.0972462 12.5457577,42.0971681 12.5424156,42.0918878 12.5416426,42.0904969 12.5415029,42.0902366 12.5412505,42.0897715 12.5409448,42.0890024 12.5315179,42.0662235 12.5307511,42.0634298 12.5306654,42.0623284 12.5306495,42.0616321 12.5305067,42.0460307 12.5304888,42.0438854 12.5303589,42.0409724 12.5303445,42.0408165 12.5301275,42.0392944 12.5299866,42.0382399 12.5299773,42.0381783 12.5297504,42.0368131 12.5292282,42.0338511 12.5291987,42.0337305 12.5289074,42.0326251 12.528561,42.0315196 12.5280064,42.0301413 12.527361,42.0287799 12.5262674,42.0268596 12.5251078,42.0249559 12.5235044,42.0224126 12.5231538,42.0218564 12.522048,42.0195984 12.5213946,42.0178453 12.5207813,42.0155507 12.5204735,42.0137209 12.5204361,42.013379 12.5204064,42.0130073 12.5203656,42.0122632 12.5203247,42.0114548 12.5202434,42.0098275 12.5202357,42.0096906 12.5201631,42.0084127 12.5201204,42.0077713 12.5200901,42.007408 12.5200643,42.0070319 12.5200233,42.0065179 12.5199987,42.0062734 12.5199193,42.0052615 12.5199008,42.0050422 12.5198963,42.0049882 12.5199013,42.0045134 12.5199004,42.0045032 12.5198732,42.0041804 12.5198408,42.0037794 12.5198514,42.0033633 12.519854,42.0030248 12.5198622,42.0027507 12.5198453,42.0025564 12.5197912,42.0019416 12.5197686,42.0016915 12.5197496,42.0014919 12.5197314,42.0013132 12.519709,42.0010938 12.5196713,42.0007088 12.5196814,42.0002984 12.5196545,42.0000283 12.5196229,41.9996771 12.5195755,41.9991873 12.5195089,41.9984426 12.519483,41.9981659 12.5194604,41.997938 12.5194323,41.9976581 12.5193867,41.9973691 12.5193487,41.9971615 12.5193017,41.9969481 12.5192236,41.9966253 12.5191451,41.9963841 12.5190746,41.9961793 12.5190055,41.9959868 12.518827,41.9955663 12.5186727,41.9952555 12.5185174,41.9949666 12.5184229,41.9948055 12.5183274,41.9946498 12.5181683,41.994394 12.5179653,41.9940891 12.5177903,41.993828 12.5175987,41.9935528 12.5173992,41.993254 12.5170137,41.9926743 12.5162297,41.9915278 12.5160368,41.9912396 12.515856,41.9909869 12.5157587,41.9908577 12.5155808,41.9906383 12.5153174,41.9903451 12.515012,41.9900343 12.5146238,41.9896605 12.5138589,41.9889274 12.5133702,41.9884637 12.5131271,41.9882392 12.5128285,41.9879585 12.5122521,41.9874293 12.5118879,41.9870965 12.5115178,41.986759 12.5107988,41.9861033 12.5104976,41.9858299 12.5101846,41.9855426 12.5100169,41.9853844 12.5098629,41.9852317 12.5097458,41.9851096 12.5096025,41.984952 12.5094814,41.9848052 12.5093545,41.9846416 12.5092305,41.9844592 12.5091473,41.9843263 12.5090695,41.9841935 12.5090074,41.9840742 12.5089326,41.9839198 12.5088624,41.9837548 12.50881,41.9836113 12.5087688,41.9834835 12.5087212,41.9833189 12.5086755,41.9831188 12.5086439,41.9829352 12.5086229,41.982761 12.5086042,41.9825341 12.5085919,41.9822463 12.5085023,41.979176 12.5084852,41.978579 12.5084823,41.9782802 12.5084881,41.9779856 12.5085189,41.977424 12.5085292,41.9771422 12.5085294,41.9768598 12.5085227,41.9765442 12.5085033,41.9761369 12.5084881,41.9758149 12.5084742,41.9754595 12.5084791,41.9751113 12.5084909,41.974901 12.5085088,41.9746638 12.5085299,41.9744914 12.5085561,41.9743077 12.5085994,41.9740542 12.5086394,41.9738184 12.5087169,41.9733769 12.5088712,41.9725088 12.5089268,41.9721993 12.5089895,41.9718406 12.5090172,41.9716428 12.509042,41.9713287 12.5090635,41.9711796 12.5091534,41.9706595 12.5092201,41.9702218 12.5092948,41.9697274 12.5093645,41.9692479 12.5094496,41.9686757 12.5095142,41.9682404 12.5095576,41.9679453 12.509617,41.9675537 12.5096962,41.9670122 12.5097618,41.9665215 12.5097962,41.9662318 12.5098369,41.9658464 12.5098748,41.9655166 12.5099064,41.9652289 12.5099425,41.9649057 12.5099637,41.9647168 12.5099849,41.9645309 12.5100091,41.964306 12.5100338,41.9640898 12.5100604,41.9638527 12.510092,41.9635688 12.510119,41.9633178 12.5101472,41.9630799 12.5101624,41.9629541 12.5102034,41.9626309 12.5102761,41.9620945 12.5103193,41.9617723 12.5103469,41.9615359 12.5103596,41.9614195 12.5104006,41.9609937 12.5104364,41.9606011 12.5104854,41.9600795 12.5105121,41.9597231 12.5105201,41.9595477 12.5105231,41.9594178 12.5105255,41.9592418 12.5105228,41.9590606 12.5105121,41.9587896 12.5104974,41.9585208 12.5104734,41.9581672 12.5104608,41.9579702 12.5104589,41.9578299 12.510464,41.9574694 12.5104588,41.9573053 12.5104473,41.9571317 12.5104397,41.9570173 12.5104071,41.9565293 12.5103709,41.9559831 12.5103343,41.9554295 12.510312,41.9550865 12.5102946,41.9548215 12.5102917,41.9547766 12.5102713,41.9544702 12.5102621,41.9543421 12.5102528,41.9542026 12.5102292,41.9538368 12.5101771,41.9529084 12.510134,41.9521067 12.5101273,41.9520189 12.5100781,41.9510459 12.5100524,41.9505491 12.5100269,41.9500728 12.5100088,41.9497547 12.5099982,41.9494361 12.5100014,41.9491188 12.5100015,41.9490055 12.5100113,41.9487965 12.5100398,41.9484058 12.5100591,41.9482168 12.510085,41.9480031 12.510102,41.947829 12.510135,41.9475702 12.5101651,41.9472904 12.5102181,41.9468875 12.510265,41.9464774 12.5102957,41.9462174 12.510321,41.9459998 12.510355,41.9457373 12.5103969,41.9454064 12.5104118,41.9452919 12.5104309,41.9451572 12.5104482,41.9450628 12.5104731,41.9449422 12.5104906,41.9448641 12.5105182,41.9447579 12.5105518,41.9446467 12.5105957,41.9445146 12.5106504,41.944372 12.5106984,41.9442572 12.5107655,41.9441161 12.5108061,41.9440372 12.5108515,41.9439574 12.5109713,41.9437577 12.5110596,41.9436216 12.511208,41.9434093 12.5114105,41.9431316 12.5115269,41.9429758 12.5116345,41.9428361 12.511749,41.9426872 12.511846,41.9425617 12.5119503,41.9424378 12.5120604,41.9423157 12.5122363,41.9421399 12.512469,41.9419249 12.5126132,41.9418044 12.5127194,41.9417239 12.5128299,41.9416585 12.5131253,41.9414591 12.5134291,41.9412779 12.5145504,41.9406704 12.5159478,41.9399105 12.5172393,41.9392105 12.5178933,41.9388553 12.518199,41.9386839 12.5183496,41.9385938 12.5185049,41.938498 12.5187434,41.9383371 12.5189674,41.9381684 12.5191767,41.9379919 12.5193709,41.9378078 12.5195415,41.9376288 12.5196304,41.9375247 12.5197632,41.9373581 12.5198613,41.9372211 12.5199856,41.9370297 12.5200998,41.9368325 12.5201918,41.9366545 12.5202954,41.9364436 12.5204803,41.9360509 12.5206637,41.9356582 12.5208087,41.9353453 12.520962,41.9350312 12.5210635,41.9348438 12.5211854,41.9346352 12.5213213,41.9344311 12.5214714,41.9342328 12.521602,41.934075 12.5218405,41.9338188 12.522054,41.9336181 12.5222897,41.9334201 12.5225286,41.9332384 12.5228328,41.9330247 12.5231248,41.9328274 12.5232946,41.9327129 12.5234748,41.9325915 12.5238546,41.9323351 12.5240913,41.9321778 12.5241946,41.9321078 12.524299,41.932037 12.5250803,41.9315116 12.5252291,41.9314132 12.5254635,41.9312536 12.5257,41.9310949 12.5259377,41.9309299 12.5261625,41.9307715 12.5264184,41.9305757 12.5265873,41.9304433 12.5267997,41.9302666 12.5269906,41.930086 12.5271185,41.9299566 12.5271909,41.9298787 12.5273395,41.9297088 12.5274346,41.929589 12.5276177,41.9293325 12.5277724,41.9290812 12.5278803,41.9288734 12.5279622,41.9286923 12.5280378,41.9284961 12.5281069,41.9282828 12.5281692,41.9280361 12.5282071,41.9278217 12.5282344,41.9275693 12.5282442,41.9273747 12.5282414,41.9271872 12.52823,41.9270128 12.5282136,41.9268658 12.5281813,41.9266894 12.5281431,41.9265191 12.5280791,41.9262907 12.5280092,41.9260732 12.527857,41.9256216 12.5277313,41.9252505 12.5276091,41.9248874 12.5275412,41.9246896 12.5274757,41.9244999 12.5273914,41.9242522 12.5273193,41.9240358 12.5272113,41.9237189 12.5271252,41.9234657 12.52705,41.9232434 12.5269779,41.9230328 12.5269303,41.922881 12.5268943,41.9227511 12.5268641,41.9226213 12.5268341,41.9224648 12.5268173,41.9223391 12.5268038,41.9221976 12.5267958,41.9220434 12.5267967,41.9218455 12.5268064,41.9216896 12.5268771,41.9211762 12.5269536,41.9206927 12.5270383,41.9201649 12.5271483,41.9196378 12.5272659,41.9191201 12.5272993,41.9189783 12.5273354,41.9188042 12.5273728,41.9186518 12.5274618,41.9182611 12.5274956,41.9181081 12.5275563,41.9178574 12.5276108,41.9176613 12.527662,41.9174364 12.527687,41.9172519 12.5276955,41.9171684 12.5277134,41.9170048 12.5277226,41.9169094 12.5277342,41.9168089 12.5277463,41.9167262 12.5277621,41.9166257 12.5277796,41.9165278 12.5278048,41.9164046 12.5278486,41.9162181 12.5278992,41.9160355 12.5279411,41.9159021 12.5279958,41.9157458 12.5280707,41.9155508 12.5281538,41.9153605 12.5283592,41.9148805 12.5284251,41.9147385 12.5285119,41.9145685 12.5285545,41.914491 12.5286793,41.9142869 12.5288049,41.9141008 12.5288937,41.9139582 12.5289541,41.9138509 12.5290303,41.913705 12.5291281,41.9135064 12.5291721,41.9134149 12.52927,41.9132295 12.5293526,41.913081 12.5294273,41.9129531 12.5295701,41.9127298 12.5299423,41.9121788 12.5308079,41.9109028 12.5309649,41.9106719 12.5311735,41.910365 12.5312732,41.9102138 12.5314109,41.9100131 12.5314852,41.9099018 12.5315623,41.9097874 12.5316107,41.9097177 12.5316871,41.9095883 12.531892,41.9092094 12.5305106,41.90078 12.5224952,41.8960297 12.5206535,41.8949793 12.509272,41.8975558 12.502422,41.9007701 12.5016713,41.901195</coordinates>
        </LineString>
      </Placemark>
      <Placemark>
        <name>Roma Termini to Salerno Station (train)</name>
        <description>&lt;b&gt;Mode:&lt;/b&gt; train&lt;br&gt;Day 0 hide run: Roma Termini to Salerno; doc notes the Roma-Salerno train is delay prone; specific train/time not documented</description>
        <Style>
          <LineStyle>
            <color>ff007cf5</color>
            <width>3</width>
          </LineStyle>
        </Style>
        <LineString>
          <coordinates>12.5016713,41.901195 14.7726212,40.6754966</coordinates>
        </LineString>
      </Placemark>
      <Placemark>
        <name>Salerno Station to Vietri sul Mare (train)</name>
        <description>&lt;b&gt;Mode:&lt;/b&gt; train&lt;br&gt;Day 0 hide run: Salerno to Vietri sul Mare; travel is train-based per doc; specific service not documented</description>
        <Style>
          <LineStyle>
            <color>ff007cf5</color>
            <width>3</width>
          </LineStyle>
        </Style>
        <LineString>
          <coordinates>14.7726212,40.6754966 14.7725785,40.6754792 14.7723415,40.6756571 14.7716106,40.6762052 14.7709031,40.6767362 14.7707705,40.6768349 14.7705967,40.6769495 14.7704688,40.6770278 14.7702881,40.6771494 14.7701812,40.6772283 14.7699921,40.6773471 14.7697251,40.6775074 14.7695404,40.6776236 14.7693114,40.6777962 14.7682271,40.6786204 14.7685065,40.6783535 14.7681883,40.678606 14.7677393,40.6789394 14.7671277,40.6793835 14.7664776,40.6797744 14.7656961,40.6801074 14.7623398,40.6813931 14.7605598,40.6820346 14.760551,40.6820378 14.7605416,40.6820411 14.7604737,40.6820656 14.7602731,40.6821254 14.7600374,40.6821862 14.7597875,40.6822414 14.7595463,40.6822879 14.758967,40.6823712 14.7589435,40.6823746 14.7579784,40.6825113 14.7567042,40.6824738 14.7556279,40.6823519 14.7547001,40.6821736 14.7534521,40.6815774 14.7528271,40.6812529 14.7523321,40.6810061 14.7519871,40.6808316 14.7513566,40.6804846 14.7510186,40.6802899 14.7505676,40.6800276 14.7502058,40.6798418 14.7494179,40.6795422 14.7488587,40.6793769 14.7480265,40.6792059 14.7474003,40.6791079 14.7469635,40.6790767 14.7456547,40.6789695 14.7447126,40.6788941 14.7437641,40.6787809 14.7429128,40.6786272 14.7426688,40.6785673 14.7421872,40.6784459 14.7417737,40.678329 14.7409469,40.678078 14.740513,40.6779509 14.7401906,40.677841 14.739609,40.6776342 14.7388996,40.6773237 14.7379789,40.6768951 14.7378558,40.676813 14.7374201,40.6764748 14.7371406,40.6762291 14.7368996,40.6759638 14.7366771,40.6757313 14.7365914,40.6756191 14.7364647,40.6753859 14.7363099,40.6750803 14.7361879,40.6747571 14.73604,40.6744028 14.7359077,40.674129 14.7356223,40.6737445 14.7355225,40.6736336 14.7354413,40.6735433 14.7354257,40.673526 14.7351731,40.6732025 14.7351208,40.6731353 14.7347934,40.6727107 14.7344962,40.672489 14.7341124,40.6722542 14.7337773,40.6721039 14.7333811,40.6719527 14.7329217,40.671841 14.7324403,40.671769 14.7322483,40.6717552 14.7319498,40.6717459 14.7314924,40.6717609 14.7313086,40.6717848 14.7307681,40.6718843 14.7305545,40.6719274 14.7304324,40.6719659 14.7299961,40.6721806 14.7298238,40.6722868 14.729531,40.6724917 14.7286002,40.6715477</coordinates>
        </LineString>
      </Placemark>
    </Folder>
  </Document>
</kml>