<?xml version='1.0' encoding='utf-8'?>
<kml xmlns="http://www.opengis.net/kml/2.2">
  <Document>
    <name>Season 7: Tag Eur It 2</name>
    <Folder>
      <name>Adam Chase</name>
      <Placemark>
        <name>Place Ducale</name>
        <description>&lt;b&gt;Team:&lt;/b&gt; Adam Chase&lt;br&gt;&lt;b&gt;Notes:&lt;/b&gt;&lt;ul&gt;&lt;li&gt;The starting point of Jet Lag: Tag 2 (Season 7)
Members who visited: 
1) Sam
2) Adam
3) Ben&lt;/li&gt;&lt;/ul&gt;</description>
        <Style>
          <IconStyle>
            <color>ff2f2fd3</color>
            <scale>1.2</scale>
            <Icon>
              <href>https://maps.google.com/mapfiles/kml/pushpin/wht-blank.png</href>
            </Icon>
          </IconStyle>
        </Style>
        <Point>
          <coordinates>4.720068572865392,49.77353025804793</coordinates>
        </Point>
      </Placemark>
      <Placemark>
        <name>Charleville-Mézières</name>
        <description>&lt;b&gt;Team:&lt;/b&gt; Adam Chase&lt;br&gt;&lt;b&gt;Notes:&lt;/b&gt;&lt;ul&gt;&lt;li&gt;Present in Jet Lag: Tag 2 (Season 7)
Members who visited: 
1) Sam
2) Adam
3) Ben&lt;/li&gt;&lt;/ul&gt;</description>
        <Style>
          <IconStyle>
            <color>ff2f2fd3</color>
            <scale>1.2</scale>
            <Icon>
              <href>https://maps.google.com/mapfiles/kml/pushpin/wht-blank.png</href>
            </Icon>
          </IconStyle>
        </Style>
        <Point>
          <coordinates>4.724986276875763,49.76783813820218</coordinates>
        </Point>
      </Placemark>
      <Placemark>
        <name>Sam and Adam discuss</name>
        <description>&lt;b&gt;Team:&lt;/b&gt; Adam Chase&lt;br&gt;&lt;b&gt;Notes:&lt;/b&gt;&lt;ul&gt;&lt;li&gt;Present in Jet Lag: Tag 2 (Season 7)
Members who visited: 
1) Sam
2) Adam&lt;/li&gt;&lt;/ul&gt;</description>
        <Style>
          <IconStyle>
            <color>ff2f2fd3</color>
            <scale>1.2</scale>
            <Icon>
              <href>https://maps.google.com/mapfiles/kml/pushpin/wht-blank.png</href>
            </Icon>
          </IconStyle>
        </Style>
        <Point>
          <coordinates>4.724228,49.7682253</coordinates>
        </Point>
      </Placemark>
      <Placemark>
        <name>Champagne-Ardenne TGV</name>
        <description>&lt;b&gt;Team:&lt;/b&gt; Adam Chase&lt;br&gt;&lt;b&gt;Notes:&lt;/b&gt;&lt;ul&gt;&lt;li&gt;Present in Jet Lag: Tag 2 (Season 7)
Members who visited: 
1) Sam
2) Adam
3) Ben
Challenge: Do a taste test (Ben)&lt;/li&gt;&lt;/ul&gt;</description>
        <Style>
          <IconStyle>
            <color>ff2f2fd3</color>
            <scale>1.2</scale>
            <Icon>
              <href>https://maps.google.com/mapfiles/kml/pushpin/wht-blank.png</href>
            </Icon>
          </IconStyle>
        </Style>
        <Point>
          <coordinates>3.9946139,49.2147266</coordinates>
        </Point>
      </Placemark>
      <Placemark>
        <name>Sacrée Pizza</name>
        <description>&lt;b&gt;Team:&lt;/b&gt; Adam Chase&lt;br&gt;&lt;b&gt;Notes:&lt;/b&gt;&lt;ul&gt;&lt;li&gt;Present in Jet Lag: Tag 2 (Season 7)
Members who visited: 
1) Sam
2) Adam
3) Ben&lt;/li&gt;&lt;/ul&gt;</description>
        <Style>
          <IconStyle>
            <color>ff2f2fd3</color>
            <scale>1.2</scale>
            <Icon>
              <href>https://maps.google.com/mapfiles/kml/pushpin/wht-blank.png</href>
            </Icon>
          </IconStyle>
        </Style>
        <Point>
          <coordinates>3.993898227805215,49.21510180409656</coordinates>
        </Point>
      </Placemark>
      <Placemark>
        <name>Meuse TGV</name>
        <description>&lt;b&gt;Team:&lt;/b&gt; Adam Chase&lt;br&gt;&lt;b&gt;Notes:&lt;/b&gt;&lt;ul&gt;&lt;li&gt;Present in Jet Lag: Tag 2 (Season 7)
Members who visited: 
1) Sam
2) Adam
3) Ben&lt;/li&gt;&lt;/ul&gt;</description>
        <Style>
          <IconStyle>
            <color>ff2f2fd3</color>
            <scale>1.2</scale>
            <Icon>
              <href>https://maps.google.com/mapfiles/kml/pushpin/wht-blank.png</href>
            </Icon>
          </IconStyle>
        </Style>
        <Point>
          <coordinates>5.270868,48.9785309</coordinates>
        </Point>
      </Placemark>
      <Placemark>
        <name>Ben Tag Spot</name>
        <description>&lt;b&gt;Team:&lt;/b&gt; Adam Chase&lt;br&gt;&lt;b&gt;Notes:&lt;/b&gt;&lt;ul&gt;&lt;li&gt;Present in Jet Lag: Tag 2 (Season 7)
Members who visited: 
1) Adam
2) Ben (Tagged)&lt;/li&gt;&lt;/ul&gt;</description>
        <Style>
          <IconStyle>
            <color>ff2f2fd3</color>
            <scale>1.2</scale>
            <Icon>
              <href>https://maps.google.com/mapfiles/kml/pushpin/wht-blank.png</href>
            </Icon>
          </IconStyle>
        </Style>
        <Point>
          <coordinates>5.270564067948542,48.97857729041672</coordinates>
        </Point>
      </Placemark>
      <Placemark>
        <name>Strasbourg</name>
        <description>&lt;b&gt;Team:&lt;/b&gt; Adam Chase&lt;br&gt;&lt;b&gt;Notes:&lt;/b&gt;&lt;ul&gt;&lt;li&gt;Present in Jet Lag: Tag 2 (Season 7)
Members who visited: 
1) Sam
2) Adam
3) Ben
Challenge: Make a putt (Adam)&lt;/li&gt;&lt;/ul&gt;</description>
        <Style>
          <IconStyle>
            <color>ff2f2fd3</color>
            <scale>1.2</scale>
            <Icon>
              <href>https://maps.google.com/mapfiles/kml/pushpin/wht-blank.png</href>
            </Icon>
          </IconStyle>
        </Style>
        <Point>
          <coordinates>7.734067,48.585339</coordinates>
        </Point>
      </Placemark>
      <Placemark>
        <name>Trivia Corner Spot</name>
        <description>&lt;b&gt;Team:&lt;/b&gt; Adam Chase&lt;br&gt;&lt;b&gt;Notes:&lt;/b&gt;&lt;ul&gt;&lt;li&gt;Present in Jet Lag: Tag 2 (Season 7)
Members who visited: 
1) Adam
Challenge: Amy&amp;#x27;s Trivia Corner&lt;/li&gt;&lt;/ul&gt;</description>
        <Style>
          <IconStyle>
            <color>ff2f2fd3</color>
            <scale>1.2</scale>
            <Icon>
              <href>https://maps.google.com/mapfiles/kml/pushpin/wht-blank.png</href>
            </Icon>
          </IconStyle>
        </Style>
        <Point>
          <coordinates>7.735275378705973,48.58473474330049</coordinates>
        </Point>
      </Placemark>
      <Placemark>
        <name>Card Pull</name>
        <description>&lt;b&gt;Team:&lt;/b&gt; Adam Chase&lt;br&gt;&lt;b&gt;Notes:&lt;/b&gt;&lt;ul&gt;&lt;li&gt;Present in Jet Lag: Tag 2 (Season 7)
Members who visited: 
1) Adam
Challenge: Cut an orange in half&lt;/li&gt;&lt;/ul&gt;</description>
        <Style>
          <IconStyle>
            <color>ff2f2fd3</color>
            <scale>1.2</scale>
            <Icon>
              <href>https://maps.google.com/mapfiles/kml/pushpin/wht-blank.png</href>
            </Icon>
          </IconStyle>
        </Style>
        <Point>
          <coordinates>7.735276515311941,48.58428194631242</coordinates>
        </Point>
      </Placemark>
      <Placemark>
        <name>Cut Orange Spot</name>
        <description>&lt;b&gt;Team:&lt;/b&gt; Adam Chase&lt;br&gt;&lt;b&gt;Notes:&lt;/b&gt;&lt;ul&gt;&lt;li&gt;Present in Jet Lag: Tag 2 (Season 7)
Members who visited: 
1) Adam
Challenge: Cut an orange in half&lt;/li&gt;&lt;/ul&gt;</description>
        <Style>
          <IconStyle>
            <color>ff2f2fd3</color>
            <scale>1.2</scale>
            <Icon>
              <href>https://maps.google.com/mapfiles/kml/pushpin/wht-blank.png</href>
            </Icon>
          </IconStyle>
        </Style>
        <Point>
          <coordinates>7.736478944103737,48.58426534195925</coordinates>
        </Point>
      </Placemark>
      <Placemark>
        <name>Fight on streets</name>
        <description>&lt;b&gt;Team:&lt;/b&gt; Adam Chase&lt;br&gt;&lt;b&gt;Notes:&lt;/b&gt;&lt;ul&gt;&lt;li&gt;Present in Jet Lag: Tag 2 (Season 7)
Members who visited: 
1) Adam
Challenge: Fight them on the beaches&lt;/li&gt;&lt;/ul&gt;</description>
        <Style>
          <IconStyle>
            <color>ff2f2fd3</color>
            <scale>1.2</scale>
            <Icon>
              <href>https://maps.google.com/mapfiles/kml/pushpin/wht-blank.png</href>
            </Icon>
          </IconStyle>
        </Style>
        <Point>
          <coordinates>7.73646166111166,48.58424738404798</coordinates>
        </Point>
      </Placemark>
      <Placemark>
        <name>Fight on beaches</name>
        <description>&lt;b&gt;Team:&lt;/b&gt; Adam Chase&lt;br&gt;&lt;b&gt;Notes:&lt;/b&gt;&lt;ul&gt;&lt;li&gt;Present in Jet Lag: Tag 2 (Season 7)
Members who visited: 
1) Adam
Challenge: Fight them on the beaches&lt;/li&gt;&lt;/ul&gt;</description>
        <Style>
          <IconStyle>
            <color>ff2f2fd3</color>
            <scale>1.2</scale>
            <Icon>
              <href>https://maps.google.com/mapfiles/kml/pushpin/wht-blank.png</href>
            </Icon>
          </IconStyle>
        </Style>
        <Point>
          <coordinates>7.738555422852045,48.58308474555744</coordinates>
        </Point>
      </Placemark>
      <Placemark>
        <name>Fight on fields</name>
        <description>&lt;b&gt;Team:&lt;/b&gt; Adam Chase&lt;br&gt;&lt;b&gt;Notes:&lt;/b&gt;&lt;ul&gt;&lt;li&gt;Present in Jet Lag: Tag 2 (Season 7)
Members who visited: 
1) Adam
Challenge: Fight them on the beaches
Challenge: Answer a riddle under a bridge&lt;/li&gt;&lt;/ul&gt;</description>
        <Style>
          <IconStyle>
            <color>ff2f2fd3</color>
            <scale>1.2</scale>
            <Icon>
              <href>https://maps.google.com/mapfiles/kml/pushpin/wht-blank.png</href>
            </Icon>
          </IconStyle>
        </Style>
        <Point>
          <coordinates>7.7415373,48.58538429999999</coordinates>
        </Point>
      </Placemark>
      <Placemark>
        <name>Riddle Spot</name>
        <description>&lt;b&gt;Team:&lt;/b&gt; Adam Chase&lt;br&gt;&lt;b&gt;Notes:&lt;/b&gt;&lt;ul&gt;&lt;li&gt;Present in Jet Lag: Tag 2 (Season 7)
Members who visited: 
1) Adam
Challenge: Answer a riddle under a bridge&lt;/li&gt;&lt;/ul&gt;</description>
        <Style>
          <IconStyle>
            <color>ff2f2fd3</color>
            <scale>1.2</scale>
            <Icon>
              <href>https://maps.google.com/mapfiles/kml/pushpin/wht-blank.png</href>
            </Icon>
          </IconStyle>
        </Style>
        <Point>
          <coordinates>7.741005304181467,48.58451459087609</coordinates>
        </Point>
      </Placemark>
      <Placemark>
        <name>Card Pull</name>
        <description>&lt;b&gt;Team:&lt;/b&gt; Adam Chase&lt;br&gt;&lt;b&gt;Notes:&lt;/b&gt;&lt;ul&gt;&lt;li&gt;Present in Jet Lag: Tag 2 (Season 7)
Members who visited: 
1) Adam
Challenge: Make a putt&lt;/li&gt;&lt;/ul&gt;</description>
        <Style>
          <IconStyle>
            <color>ff2f2fd3</color>
            <scale>1.2</scale>
            <Icon>
              <href>https://maps.google.com/mapfiles/kml/pushpin/wht-blank.png</href>
            </Icon>
          </IconStyle>
        </Style>
        <Point>
          <coordinates>7.734431000999377,48.58441993372154</coordinates>
        </Point>
      </Placemark>
      <Placemark>
        <name>Offenburg</name>
        <description>&lt;b&gt;Team:&lt;/b&gt; Adam Chase&lt;br&gt;&lt;b&gt;Notes:&lt;/b&gt;&lt;ul&gt;&lt;li&gt;Present in Jet Lag: Tag 2 (Season 7)
Members who visited: 
1) Sam
2) Adam
3) Ben&lt;/li&gt;&lt;/ul&gt;</description>
        <Style>
          <IconStyle>
            <color>ff2f2fd3</color>
            <scale>1.2</scale>
            <Icon>
              <href>https://maps.google.com/mapfiles/kml/pushpin/wht-blank.png</href>
            </Icon>
          </IconStyle>
        </Style>
        <Point>
          <coordinates>7.946719999999999,48.47664999999999</coordinates>
        </Point>
      </Placemark>
      <Placemark>
        <name>Karlsruhe</name>
        <description>&lt;b&gt;Team:&lt;/b&gt; Adam Chase&lt;br&gt;&lt;b&gt;Notes:&lt;/b&gt;&lt;ul&gt;&lt;li&gt;Present in Jet Lag: Tag 2 (Season 7)
Members who visited: 
1) Sam
2) Adam
3) Ben&lt;/li&gt;&lt;/ul&gt;</description>
        <Style>
          <IconStyle>
            <color>ff2f2fd3</color>
            <scale>1.2</scale>
            <Icon>
              <href>https://maps.google.com/mapfiles/kml/pushpin/wht-blank.png</href>
            </Icon>
          </IconStyle>
        </Style>
        <Point>
          <coordinates>8.4009743,48.9939401</coordinates>
        </Point>
      </Placemark>
      <Placemark>
        <name>Adam view of castle</name>
        <description>&lt;b&gt;Team:&lt;/b&gt; Adam Chase&lt;br&gt;&lt;b&gt;Notes:&lt;/b&gt;&lt;ul&gt;&lt;li&gt;Present in Jet Lag: Tag 2 (Season 7)
Members who visited: 
1) Adam&lt;/li&gt;&lt;/ul&gt;</description>
        <Style>
          <IconStyle>
            <color>ff2f2fd3</color>
            <scale>1.2</scale>
            <Icon>
              <href>https://maps.google.com/mapfiles/kml/pushpin/wht-blank.png</href>
            </Icon>
          </IconStyle>
        </Style>
        <Point>
          <coordinates>7.7195397,50.1487348</coordinates>
        </Point>
      </Placemark>
      <Placemark>
        <name>Münster</name>
        <description>&lt;b&gt;Team:&lt;/b&gt; Adam Chase&lt;br&gt;&lt;b&gt;Notes:&lt;/b&gt;&lt;ul&gt;&lt;li&gt;Present in Jet Lag: Tag 2 (Season 7)
Members who visited: 
1) Sam
2) Adam
3) Ben&lt;/li&gt;&lt;/ul&gt;</description>
        <Style>
          <IconStyle>
            <color>ff2f2fd3</color>
            <scale>1.2</scale>
            <Icon>
              <href>https://maps.google.com/mapfiles/kml/pushpin/wht-blank.png</href>
            </Icon>
          </IconStyle>
        </Style>
        <Point>
          <coordinates>7.634642999999999,51.9566768</coordinates>
        </Point>
      </Placemark>
      <Placemark>
        <name>Adam disguise spot</name>
        <description>&lt;b&gt;Team:&lt;/b&gt; Adam Chase&lt;br&gt;&lt;b&gt;Notes:&lt;/b&gt;&lt;ul&gt;&lt;li&gt;Present in Jet Lag: Tag 2 (Season 7)
Members who visited: 
1) Adam&lt;/li&gt;&lt;/ul&gt;</description>
        <Style>
          <IconStyle>
            <color>ff2f2fd3</color>
            <scale>1.2</scale>
            <Icon>
              <href>https://maps.google.com/mapfiles/kml/pushpin/wht-blank.png</href>
            </Icon>
          </IconStyle>
        </Style>
        <Point>
          <coordinates>7.6388291,51.957228</coordinates>
        </Point>
      </Placemark>
      <Placemark>
        <name>Day 1 rest spot</name>
        <description>&lt;b&gt;Team:&lt;/b&gt; Adam Chase&lt;br&gt;&lt;b&gt;Notes:&lt;/b&gt;&lt;ul&gt;&lt;li&gt;Present in Jet Lag: Tag 2 (Season 7)
Members who visited: 
1) Adam&lt;/li&gt;&lt;/ul&gt;</description>
        <Style>
          <IconStyle>
            <color>ff2f2fd3</color>
            <scale>1.2</scale>
            <Icon>
              <href>https://maps.google.com/mapfiles/kml/pushpin/wht-blank.png</href>
            </Icon>
          </IconStyle>
        </Style>
        <Point>
          <coordinates>7.6255506,51.9652889</coordinates>
        </Point>
      </Placemark>
      <Placemark>
        <name>Emden</name>
        <description>&lt;b&gt;Team:&lt;/b&gt; Adam Chase&lt;br&gt;&lt;b&gt;Notes:&lt;/b&gt;&lt;ul&gt;&lt;li&gt;Present in Jet Lag: Tag 2 (Season 7)
Members who visited: 
1) Sam
2) Adam
3) Ben&lt;/li&gt;&lt;/ul&gt;</description>
        <Style>
          <IconStyle>
            <color>ff2f2fd3</color>
            <scale>1.2</scale>
            <Icon>
              <href>https://maps.google.com/mapfiles/kml/pushpin/wht-blank.png</href>
            </Icon>
          </IconStyle>
        </Style>
        <Point>
          <coordinates>7.195206199999999,53.3691237</coordinates>
        </Point>
      </Placemark>
      <Placemark>
        <name>Pissoir</name>
        <description>&lt;b&gt;Team:&lt;/b&gt; Adam Chase&lt;br&gt;&lt;b&gt;Notes:&lt;/b&gt;&lt;ul&gt;&lt;li&gt;Present in Jet Lag: Tag 2 (Season 7)
Members who visited: 
1) Adam&lt;/li&gt;&lt;/ul&gt;</description>
        <Style>
          <IconStyle>
            <color>ff2f2fd3</color>
            <scale>1.2</scale>
            <Icon>
              <href>https://maps.google.com/mapfiles/kml/pushpin/wht-blank.png</href>
            </Icon>
          </IconStyle>
        </Style>
        <Point>
          <coordinates>7.195630636958928,53.36875293237955</coordinates>
        </Point>
      </Placemark>
      <Placemark>
        <name>Knight curse spot</name>
        <description>&lt;b&gt;Team:&lt;/b&gt; Adam Chase&lt;br&gt;&lt;b&gt;Notes:&lt;/b&gt;&lt;ul&gt;&lt;li&gt;Present in Jet Lag: Tag 2 (Season 7)
Members who visited: 
1) Adam
Curse: Go to a castle (Adam)&lt;/li&gt;&lt;/ul&gt;</description>
        <Style>
          <IconStyle>
            <color>ff2f2fd3</color>
            <scale>1.2</scale>
            <Icon>
              <href>https://maps.google.com/mapfiles/kml/pushpin/wht-blank.png</href>
            </Icon>
          </IconStyle>
        </Style>
        <Point>
          <coordinates>7.196318699999999,53.3689325</coordinates>
        </Point>
      </Placemark>
      <Placemark>
        <name>Card Pull Spot</name>
        <description>&lt;b&gt;Team:&lt;/b&gt; Adam Chase&lt;br&gt;&lt;b&gt;Notes:&lt;/b&gt;&lt;ul&gt;&lt;li&gt;Present in Jet Lag: Tag 2 (Season 7)
Members who visited: 
1) Adam
Challenge: Find an american flag&lt;/li&gt;&lt;/ul&gt;</description>
        <Style>
          <IconStyle>
            <color>ff2f2fd3</color>
            <scale>1.2</scale>
            <Icon>
              <href>https://maps.google.com/mapfiles/kml/pushpin/wht-blank.png</href>
            </Icon>
          </IconStyle>
        </Style>
        <Point>
          <coordinates>7.1887975,53.3558044</coordinates>
        </Point>
      </Placemark>
      <Placemark>
        <name>Pizza shop</name>
        <description>&lt;b&gt;Team:&lt;/b&gt; Adam Chase&lt;br&gt;&lt;b&gt;Notes:&lt;/b&gt;&lt;ul&gt;&lt;li&gt;Present in Jet Lag: Tag 2 (Season 7)
Members who visited: 
1) Adam
Challenge: Find an american flag&lt;/li&gt;&lt;/ul&gt;</description>
        <Style>
          <IconStyle>
            <color>ff2f2fd3</color>
            <scale>1.2</scale>
            <Icon>
              <href>https://maps.google.com/mapfiles/kml/pushpin/wht-blank.png</href>
            </Icon>
          </IconStyle>
        </Style>
        <Point>
          <coordinates>7.197305699999999,53.3642871</coordinates>
        </Point>
      </Placemark>
      <Placemark>
        <name>Wine shop</name>
        <description>&lt;b&gt;Team:&lt;/b&gt; Adam Chase&lt;br&gt;&lt;b&gt;Notes:&lt;/b&gt;&lt;ul&gt;&lt;li&gt;Present in Jet Lag: Tag 2 (Season 7)
Members who visited: 
1) Adam
Challenge: Find an american flag&lt;/li&gt;&lt;/ul&gt;</description>
        <Style>
          <IconStyle>
            <color>ff2f2fd3</color>
            <scale>1.2</scale>
            <Icon>
              <href>https://maps.google.com/mapfiles/kml/pushpin/wht-blank.png</href>
            </Icon>
          </IconStyle>
        </Style>
        <Point>
          <coordinates>7.2007704,53.3668255</coordinates>
        </Point>
      </Placemark>
      <Placemark>
        <name>Domino's</name>
        <description>&lt;b&gt;Team:&lt;/b&gt; Adam Chase&lt;br&gt;&lt;b&gt;Notes:&lt;/b&gt;&lt;ul&gt;&lt;li&gt;Present in Jet Lag: Tag 2 (Season 7)
Members who visited: 
1) Adam
Challenge: Find an american flag&lt;/li&gt;&lt;/ul&gt;</description>
        <Style>
          <IconStyle>
            <color>ff2f2fd3</color>
            <scale>1.2</scale>
            <Icon>
              <href>https://maps.google.com/mapfiles/kml/pushpin/wht-blank.png</href>
            </Icon>
          </IconStyle>
        </Style>
        <Point>
          <coordinates>7.201021555091924,53.36680726081288</coordinates>
        </Point>
      </Placemark>
      <Placemark>
        <name>American shop</name>
        <description>&lt;b&gt;Team:&lt;/b&gt; Adam Chase&lt;br&gt;&lt;b&gt;Notes:&lt;/b&gt;&lt;ul&gt;&lt;li&gt;Present in Jet Lag: Tag 2 (Season 7)
Members who visited: 
1) Adam
Challenge: Find an american flag
Curse: Wet hat syndrome (Adam)&lt;/li&gt;&lt;/ul&gt;</description>
        <Style>
          <IconStyle>
            <color>ff2f2fd3</color>
            <scale>1.2</scale>
            <Icon>
              <href>https://maps.google.com/mapfiles/kml/pushpin/wht-blank.png</href>
            </Icon>
          </IconStyle>
        </Style>
        <Point>
          <coordinates>7.203715699999999,53.36665649999999</coordinates>
        </Point>
      </Placemark>
      <Placemark>
        <name>Cafe Sikken</name>
        <description>&lt;b&gt;Team:&lt;/b&gt; Adam Chase&lt;br&gt;&lt;b&gt;Notes:&lt;/b&gt;&lt;ul&gt;&lt;li&gt;Present in Jet Lag: Tag 2 (Season 7)
Members who visited: 
1) Adam
Curse: Wet hat syndrome (Adam)&lt;/li&gt;&lt;/ul&gt;</description>
        <Style>
          <IconStyle>
            <color>ff2f2fd3</color>
            <scale>1.2</scale>
            <Icon>
              <href>https://maps.google.com/mapfiles/kml/pushpin/wht-blank.png</href>
            </Icon>
          </IconStyle>
        </Style>
        <Point>
          <coordinates>7.2032,53.36667</coordinates>
        </Point>
      </Placemark>
      <Placemark>
        <name>Ben chase start</name>
        <description>&lt;b&gt;Team:&lt;/b&gt; Adam Chase&lt;br&gt;&lt;b&gt;Notes:&lt;/b&gt;&lt;ul&gt;&lt;li&gt;Present in Jet Lag: Tag 2 (Season 7)
Members who visited: 
1) Adam
2) Ben
Curse: Wet hat syndrome (Adam)&lt;/li&gt;&lt;/ul&gt;</description>
        <Style>
          <IconStyle>
            <color>ff2f2fd3</color>
            <scale>1.2</scale>
            <Icon>
              <href>https://maps.google.com/mapfiles/kml/pushpin/wht-blank.png</href>
            </Icon>
          </IconStyle>
        </Style>
        <Point>
          <coordinates>7.208744730878605,53.36584121612388</coordinates>
        </Point>
      </Placemark>
      <Placemark>
        <name>Adam Tag Spot</name>
        <description>&lt;b&gt;Team:&lt;/b&gt; Adam Chase&lt;br&gt;&lt;b&gt;Notes:&lt;/b&gt;&lt;ul&gt;&lt;li&gt;Present in Jet Lag: Tag 2 (Season 7)
Members who visited: 
1) Adam
2) Ben
Curse: Wet hat syndrome (Adam)&lt;/li&gt;&lt;/ul&gt;</description>
        <Style>
          <IconStyle>
            <color>ff2f2fd3</color>
            <scale>1.2</scale>
            <Icon>
              <href>https://maps.google.com/mapfiles/kml/pushpin/wht-blank.png</href>
            </Icon>
          </IconStyle>
        </Style>
        <Point>
          <coordinates>7.208774140054239,53.36449193542796</coordinates>
        </Point>
      </Placemark>
      <Placemark>
        <name>Card handover</name>
        <description>&lt;b&gt;Team:&lt;/b&gt; Adam Chase&lt;br&gt;&lt;b&gt;Notes:&lt;/b&gt;&lt;ul&gt;&lt;li&gt;Present in Jet Lag: Tag 2 (Season 7)
Members who visited: 
1) Sam
2) Adam
3) Ben&lt;/li&gt;&lt;/ul&gt;</description>
        <Style>
          <IconStyle>
            <color>ff2f2fd3</color>
            <scale>1.2</scale>
            <Icon>
              <href>https://maps.google.com/mapfiles/kml/pushpin/wht-blank.png</href>
            </Icon>
          </IconStyle>
        </Style>
        <Point>
          <coordinates>7.209602460763682,53.36513100959817</coordinates>
        </Point>
      </Placemark>
      <Placemark>
        <name>Glowworm vending machine</name>
        <description>&lt;b&gt;Team:&lt;/b&gt; Adam Chase&lt;br&gt;&lt;b&gt;Notes:&lt;/b&gt;&lt;ul&gt;&lt;li&gt;Present in Jet Lag: Tag 2 (Season 7)
Members who visited: 
1) Adam
2) Ben&lt;/li&gt;&lt;/ul&gt;</description>
        <Style>
          <IconStyle>
            <color>ff2f2fd3</color>
            <scale>1.2</scale>
            <Icon>
              <href>https://maps.google.com/mapfiles/kml/pushpin/wht-blank.png</href>
            </Icon>
          </IconStyle>
        </Style>
        <Point>
          <coordinates>7.1957583,53.3689824</coordinates>
        </Point>
      </Placemark>
      <Placemark>
        <name>Salzbergen</name>
        <description>&lt;b&gt;Team:&lt;/b&gt; Adam Chase&lt;br&gt;&lt;b&gt;Notes:&lt;/b&gt;&lt;ul&gt;&lt;li&gt;Present in Jet Lag: Tag 2 (Season 7)
Members who visited: 
1) Sam
2) Adam
3) Ben
Curse: Ratatouille (Sam)&lt;/li&gt;&lt;/ul&gt;</description>
        <Style>
          <IconStyle>
            <color>ff2f2fd3</color>
            <scale>1.2</scale>
            <Icon>
              <href>https://maps.google.com/mapfiles/kml/pushpin/wht-blank.png</href>
            </Icon>
          </IconStyle>
        </Style>
        <Point>
          <coordinates>7.3503052,52.3229209</coordinates>
        </Point>
      </Placemark>
      <Placemark>
        <name>Glitch in the Matrix</name>
        <description>&lt;b&gt;Team:&lt;/b&gt; Adam Chase&lt;br&gt;&lt;b&gt;Notes:&lt;/b&gt;&lt;ul&gt;&lt;li&gt;Present in Jet Lag: Tag 2 (Season 7)
Members who visited: 
1) Adam
2) Ben&lt;/li&gt;&lt;/ul&gt;</description>
        <Style>
          <IconStyle>
            <color>ff2f2fd3</color>
            <scale>1.2</scale>
            <Icon>
              <href>https://maps.google.com/mapfiles/kml/pushpin/wht-blank.png</href>
            </Icon>
          </IconStyle>
        </Style>
        <Point>
          <coordinates>7.30538,52.3982812</coordinates>
        </Point>
      </Placemark>
      <Placemark>
        <name>Hengelo</name>
        <description>&lt;b&gt;Team:&lt;/b&gt; Adam Chase&lt;br&gt;&lt;b&gt;Notes:&lt;/b&gt;&lt;ul&gt;&lt;li&gt;Present in Jet Lag: Tag 2 (Season 7)
Members who visited: 
1) Sam
2) Adam
3) Ben
Challenge: Find the town hall (Sam)&lt;/li&gt;&lt;/ul&gt;</description>
        <Style>
          <IconStyle>
            <color>ff2f2fd3</color>
            <scale>1.2</scale>
            <Icon>
              <href>https://maps.google.com/mapfiles/kml/pushpin/wht-blank.png</href>
            </Icon>
          </IconStyle>
        </Style>
        <Point>
          <coordinates>6.794052506474393,52.26178581353736</coordinates>
        </Point>
      </Placemark>
      <Placemark>
        <name>Bing Bong</name>
        <description>&lt;b&gt;Team:&lt;/b&gt; Adam Chase&lt;br&gt;&lt;b&gt;Notes:&lt;/b&gt;&lt;ul&gt;&lt;li&gt;Present in Jet Lag: Tag 2 (Season 7)
Members who visited: 
1) Adam
2) Ben&lt;/li&gt;&lt;/ul&gt;</description>
        <Style>
          <IconStyle>
            <color>ff2f2fd3</color>
            <scale>1.2</scale>
            <Icon>
              <href>https://maps.google.com/mapfiles/kml/pushpin/wht-blank.png</href>
            </Icon>
          </IconStyle>
        </Style>
        <Point>
          <coordinates>7.3477787,52.3229066</coordinates>
        </Point>
      </Placemark>
      <Placemark>
        <name>Zutphen</name>
        <description>&lt;b&gt;Team:&lt;/b&gt; Adam Chase&lt;br&gt;&lt;b&gt;Notes:&lt;/b&gt;&lt;ul&gt;&lt;li&gt;Present in Jet Lag: Tag 2 (Season 7)
Members who visited: 
1) Sam
2) Adam
3) Ben&lt;/li&gt;&lt;/ul&gt;</description>
        <Style>
          <IconStyle>
            <color>ff2f2fd3</color>
            <scale>1.2</scale>
            <Icon>
              <href>https://maps.google.com/mapfiles/kml/pushpin/wht-blank.png</href>
            </Icon>
          </IconStyle>
        </Style>
        <Point>
          <coordinates>6.194119584546096,52.14486618047006</coordinates>
        </Point>
      </Placemark>
      <Placemark>
        <name>'s-Hertogenbosch</name>
        <description>&lt;b&gt;Team:&lt;/b&gt; Adam Chase&lt;br&gt;&lt;b&gt;Notes:&lt;/b&gt;&lt;ul&gt;&lt;li&gt;Present in Jet Lag: Tag 2 (Season 7)
Members who visited: 
1) Sam
2) Adam
3) Ben&lt;/li&gt;&lt;/ul&gt;</description>
        <Style>
          <IconStyle>
            <color>ff2f2fd3</color>
            <scale>1.2</scale>
            <Icon>
              <href>https://maps.google.com/mapfiles/kml/pushpin/wht-blank.png</href>
            </Icon>
          </IconStyle>
        </Style>
        <Point>
          <coordinates>5.293695489070577,51.69076453140786</coordinates>
        </Point>
      </Placemark>
      <Placemark>
        <name>Eindhoven Centraal</name>
        <description>&lt;b&gt;Team:&lt;/b&gt; Adam Chase&lt;br&gt;&lt;b&gt;Notes:&lt;/b&gt;&lt;ul&gt;&lt;li&gt;Present in Jet Lag: Tag 2 (Season 7)
Members who visited: 
1) Sam
2) Adam
3) Ben
Challenge: Choose your own adventure, 50 burpees (Ben)&lt;/li&gt;&lt;/ul&gt;</description>
        <Style>
          <IconStyle>
            <color>ff2f2fd3</color>
            <scale>1.2</scale>
            <Icon>
              <href>https://maps.google.com/mapfiles/kml/pushpin/wht-blank.png</href>
            </Icon>
          </IconStyle>
        </Style>
        <Point>
          <coordinates>5.4805389,51.4431348</coordinates>
        </Point>
      </Placemark>
      <Placemark>
        <name>Breda Centraal</name>
        <description>&lt;b&gt;Team:&lt;/b&gt; Adam Chase&lt;br&gt;&lt;b&gt;Notes:&lt;/b&gt;&lt;ul&gt;&lt;li&gt;Present in Jet Lag: Tag 2 (Season 7)
Members who visited: 
1) Sam
2) Adam
3) Ben
Challenge: Choose your own adventure, 50 burpees (Ben)&lt;/li&gt;&lt;/ul&gt;</description>
        <Style>
          <IconStyle>
            <color>ff2f2fd3</color>
            <scale>1.2</scale>
            <Icon>
              <href>https://maps.google.com/mapfiles/kml/pushpin/wht-blank.png</href>
            </Icon>
          </IconStyle>
        </Style>
        <Point>
          <coordinates>4.779524308784222,51.59553436684932</coordinates>
        </Point>
      </Placemark>
      <Placemark>
        <name>Noorderkempen (Brecht)</name>
        <description>&lt;b&gt;Team:&lt;/b&gt; Adam Chase&lt;br&gt;&lt;b&gt;Notes:&lt;/b&gt;&lt;ul&gt;&lt;li&gt;Present in Jet Lag: Tag 2 (Season 7)
Members who visited: 
1) Sam
2) Adam&lt;/li&gt;&lt;/ul&gt;</description>
        <Style>
          <IconStyle>
            <color>ff2f2fd3</color>
            <scale>1.2</scale>
            <Icon>
              <href>https://maps.google.com/mapfiles/kml/pushpin/wht-blank.png</href>
            </Icon>
          </IconStyle>
        </Style>
        <Point>
          <coordinates>4.632696399999999,51.357161</coordinates>
        </Point>
      </Placemark>
      <Placemark>
        <name>Antwerp </name>
        <description>&lt;b&gt;Team:&lt;/b&gt; Adam Chase&lt;br&gt;&lt;b&gt;Notes:&lt;/b&gt;&lt;ul&gt;&lt;li&gt;Present in Jet Lag: Tag 2 (Season 7)
Members who visited: 
1) Sam
2) Adam&lt;/li&gt;&lt;/ul&gt;</description>
        <Style>
          <IconStyle>
            <color>ff2f2fd3</color>
            <scale>1.2</scale>
            <Icon>
              <href>https://maps.google.com/mapfiles/kml/pushpin/wht-blank.png</href>
            </Icon>
          </IconStyle>
        </Style>
        <Point>
          <coordinates>4.421241999999999,51.21686</coordinates>
        </Point>
      </Placemark>
      <Placemark>
        <name>Charleroi Central</name>
        <description>&lt;b&gt;Team:&lt;/b&gt; Adam Chase&lt;br&gt;&lt;b&gt;Notes:&lt;/b&gt;&lt;ul&gt;&lt;li&gt;Present in Jet Lag: Tag 2 (Season 7)
Members who visited: 
1) Sam
2) Adam
3) Ben&lt;/li&gt;&lt;/ul&gt;</description>
        <Style>
          <IconStyle>
            <color>ff2f2fd3</color>
            <scale>1.2</scale>
            <Icon>
              <href>https://maps.google.com/mapfiles/kml/pushpin/wht-blank.png</href>
            </Icon>
          </IconStyle>
        </Style>
        <Point>
          <coordinates>4.438732478418917,50.40465415197521</coordinates>
        </Point>
      </Placemark>
      <Placemark>
        <name>Namur</name>
        <description>&lt;b&gt;Team:&lt;/b&gt; Adam Chase&lt;br&gt;&lt;b&gt;Notes:&lt;/b&gt;&lt;ul&gt;&lt;li&gt;Present in Jet Lag: Tag 2 (Season 7)
Members who visited: 
1) Sam
2) Adam
2) Ben
Challenge: Become a French chef (Ben)&lt;/li&gt;&lt;/ul&gt;</description>
        <Style>
          <IconStyle>
            <color>ff2f2fd3</color>
            <scale>1.2</scale>
            <Icon>
              <href>https://maps.google.com/mapfiles/kml/pushpin/wht-blank.png</href>
            </Icon>
          </IconStyle>
        </Style>
        <Point>
          <coordinates>4.862490102224362,50.46913092651058</coordinates>
        </Point>
      </Placemark>
      <Placemark>
        <name>Luxembourg</name>
        <description>&lt;b&gt;Team:&lt;/b&gt; Adam Chase&lt;br&gt;&lt;b&gt;Notes:&lt;/b&gt;&lt;ul&gt;&lt;li&gt;Present in Jet Lag: Tag 2 (Season 7)
Members who visited: 
1) Sam
2) Adam
3) Ben
Curse: Ratatouille (Ben)&lt;/li&gt;&lt;/ul&gt;</description>
        <Style>
          <IconStyle>
            <color>ff2f2fd3</color>
            <scale>1.2</scale>
            <Icon>
              <href>https://maps.google.com/mapfiles/kml/pushpin/wht-blank.png</href>
            </Icon>
          </IconStyle>
        </Style>
        <Point>
          <coordinates>6.134396323934328,49.59955755059351</coordinates>
        </Point>
      </Placemark>
      <Placemark>
        <name>Howald</name>
        <description>&lt;b&gt;Team:&lt;/b&gt; Adam Chase&lt;br&gt;&lt;b&gt;Notes:&lt;/b&gt;&lt;ul&gt;&lt;li&gt;Present in Jet Lag: Tag 2 (Season 7)
Members who visited: 
1) Sam
2) Adam
3) Ben&lt;/li&gt;&lt;/ul&gt;</description>
        <Style>
          <IconStyle>
            <color>ff2f2fd3</color>
            <scale>1.2</scale>
            <Icon>
              <href>https://maps.google.com/mapfiles/kml/pushpin/wht-blank.png</href>
            </Icon>
          </IconStyle>
        </Style>
        <Point>
          <coordinates>6.132179381684031,49.58067274336568</coordinates>
        </Point>
      </Placemark>
      <Placemark>
        <name>Metz</name>
        <description>&lt;b&gt;Team:&lt;/b&gt; Adam Chase&lt;br&gt;&lt;b&gt;Notes:&lt;/b&gt;&lt;ul&gt;&lt;li&gt;Present in Jet Lag: Tag 2 (Season 7)
Members who visited: 
1) Sam
2) Adam
3) Ben
Curse: Triple veto time (Ben)&lt;/li&gt;&lt;/ul&gt;</description>
        <Style>
          <IconStyle>
            <color>ff2f2fd3</color>
            <scale>1.2</scale>
            <Icon>
              <href>https://maps.google.com/mapfiles/kml/pushpin/wht-blank.png</href>
            </Icon>
          </IconStyle>
        </Style>
        <Point>
          <coordinates>6.177268385970127,49.10908775292114</coordinates>
        </Point>
      </Placemark>
      <Placemark>
        <name>Bar-le-Duc</name>
        <description>&lt;b&gt;Team:&lt;/b&gt; Adam Chase&lt;br&gt;&lt;b&gt;Notes:&lt;/b&gt;&lt;ul&gt;&lt;li&gt;Present in Jet Lag: Tag 2 (Season 7)
Members who visited: 
1) Sam
2) Adam
3) Ben&lt;/li&gt;&lt;/ul&gt;</description>
        <Style>
          <IconStyle>
            <color>ff2f2fd3</color>
            <scale>1.2</scale>
            <Icon>
              <href>https://maps.google.com/mapfiles/kml/pushpin/wht-blank.png</href>
            </Icon>
          </IconStyle>
        </Style>
        <Point>
          <coordinates>5.167233579229416,48.77369788907227</coordinates>
        </Point>
      </Placemark>
      <Placemark>
        <name>Nancy</name>
        <description>&lt;b&gt;Team:&lt;/b&gt; Adam Chase&lt;br&gt;&lt;b&gt;Notes:&lt;/b&gt;&lt;ul&gt;&lt;li&gt;Present in Jet Lag: Tag 2 (Season 7)
Members who visited: 
1) Sam
2) Adam&lt;/li&gt;&lt;/ul&gt;</description>
        <Style>
          <IconStyle>
            <color>ff2f2fd3</color>
            <scale>1.2</scale>
            <Icon>
              <href>https://maps.google.com/mapfiles/kml/pushpin/wht-blank.png</href>
            </Icon>
          </IconStyle>
        </Style>
        <Point>
          <coordinates>6.174036523273925,48.68966314872433</coordinates>
        </Point>
      </Placemark>
      <Placemark>
        <name>Look at that</name>
        <description>&lt;b&gt;Team:&lt;/b&gt; Adam Chase&lt;br&gt;&lt;b&gt;Notes:&lt;/b&gt;&lt;ul&gt;&lt;li&gt;Present in Jet Lag: Tag 2 (Season 7)
Members who visited: 
1) Sam
2) Adam&lt;/li&gt;&lt;/ul&gt;</description>
        <Style>
          <IconStyle>
            <color>ff2f2fd3</color>
            <scale>1.2</scale>
            <Icon>
              <href>https://maps.google.com/mapfiles/kml/pushpin/wht-blank.png</href>
            </Icon>
          </IconStyle>
        </Style>
        <Point>
          <coordinates>6.1832796,48.693545</coordinates>
        </Point>
      </Placemark>
      <Placemark>
        <name>Look at that</name>
        <description>&lt;b&gt;Team:&lt;/b&gt; Adam Chase&lt;br&gt;&lt;b&gt;Notes:&lt;/b&gt;&lt;ul&gt;&lt;li&gt;Present in Jet Lag: Tag 2 (Season 7)
Members who visited: 
1) Sam
2) Adam&lt;/li&gt;&lt;/ul&gt;</description>
        <Style>
          <IconStyle>
            <color>ff2f2fd3</color>
            <scale>1.2</scale>
            <Icon>
              <href>https://maps.google.com/mapfiles/kml/pushpin/wht-blank.png</href>
            </Icon>
          </IconStyle>
        </Style>
        <Point>
          <coordinates>6.182269499999999,48.695037</coordinates>
        </Point>
      </Placemark>
      <Placemark>
        <name>Look at that</name>
        <description>&lt;b&gt;Team:&lt;/b&gt; Adam Chase&lt;br&gt;&lt;b&gt;Notes:&lt;/b&gt;&lt;ul&gt;&lt;li&gt;Present in Jet Lag: Tag 2 (Season 7)
Members who visited: 
1) Sam
2) Adam&lt;/li&gt;&lt;/ul&gt;</description>
        <Style>
          <IconStyle>
            <color>ff2f2fd3</color>
            <scale>1.2</scale>
            <Icon>
              <href>https://maps.google.com/mapfiles/kml/pushpin/wht-blank.png</href>
            </Icon>
          </IconStyle>
        </Style>
        <Point>
          <coordinates>6.1802637,48.69653899999999</coordinates>
        </Point>
      </Placemark>
      <Placemark>
        <name>Look at that</name>
        <description>&lt;b&gt;Team:&lt;/b&gt; Adam Chase&lt;br&gt;&lt;b&gt;Notes:&lt;/b&gt;&lt;ul&gt;&lt;li&gt;Present in Jet Lag: Tag 2 (Season 7)
Members who visited: 
1) Sam
2) Adam&lt;/li&gt;&lt;/ul&gt;</description>
        <Style>
          <IconStyle>
            <color>ff2f2fd3</color>
            <scale>1.2</scale>
            <Icon>
              <href>https://maps.google.com/mapfiles/kml/pushpin/wht-blank.png</href>
            </Icon>
          </IconStyle>
        </Style>
        <Point>
          <coordinates>6.179247799999999,48.6962131</coordinates>
        </Point>
      </Placemark>
      <Placemark>
        <name>Look at that</name>
        <description>&lt;b&gt;Team:&lt;/b&gt; Adam Chase&lt;br&gt;&lt;b&gt;Notes:&lt;/b&gt;&lt;ul&gt;&lt;li&gt;Present in Jet Lag: Tag 2 (Season 7)
Members who visited: 
1) Sam
2) Adam&lt;/li&gt;&lt;/ul&gt;</description>
        <Style>
          <IconStyle>
            <color>ff2f2fd3</color>
            <scale>1.2</scale>
            <Icon>
              <href>https://maps.google.com/mapfiles/kml/pushpin/wht-blank.png</href>
            </Icon>
          </IconStyle>
        </Style>
        <Point>
          <coordinates>6.1768757,48.69421029999999</coordinates>
        </Point>
      </Placemark>
      <Placemark>
        <name>Look at that</name>
        <description>&lt;b&gt;Team:&lt;/b&gt; Adam Chase&lt;br&gt;&lt;b&gt;Notes:&lt;/b&gt;&lt;ul&gt;&lt;li&gt;Present in Jet Lag: Tag 2 (Season 7)
Members who visited: 
1) Sam
2) Adam&lt;/li&gt;&lt;/ul&gt;</description>
        <Style>
          <IconStyle>
            <color>ff2f2fd3</color>
            <scale>1.2</scale>
            <Icon>
              <href>https://maps.google.com/mapfiles/kml/pushpin/wht-blank.png</href>
            </Icon>
          </IconStyle>
        </Style>
        <Point>
          <coordinates>6.176858999999999,48.6929469</coordinates>
        </Point>
      </Placemark>
      <Placemark>
        <name>Ben tag spot</name>
        <description>&lt;b&gt;Team:&lt;/b&gt; Adam Chase&lt;br&gt;&lt;b&gt;Notes:&lt;/b&gt;&lt;ul&gt;&lt;li&gt;Present in Jet Lag: Tag 2 (Season 7)
Members who visited: 
1) Sam
2) Adam
3) Ben
The final location for Season 7 (Ben is victorious)&lt;/li&gt;&lt;/ul&gt;</description>
        <Style>
          <IconStyle>
            <color>ff2f2fd3</color>
            <scale>1.2</scale>
            <Icon>
              <href>https://maps.google.com/mapfiles/kml/pushpin/wht-blank.png</href>
            </Icon>
          </IconStyle>
        </Style>
        <Point>
          <coordinates>5.165405199999999,48.7720432</coordinates>
        </Point>
      </Placemark>
    </Folder>
    <Folder>
      <name>Ben Doyle</name>
      <Placemark>
        <name>Place Ducale</name>
        <description>&lt;b&gt;Team:&lt;/b&gt; Ben Doyle&lt;br&gt;&lt;b&gt;Notes:&lt;/b&gt;&lt;ul&gt;&lt;li&gt;The starting point of Jet Lag: Tag 2 (Season 7)
Members who visited: 
1) Sam
2) Adam
3) Ben&lt;/li&gt;&lt;/ul&gt;</description>
        <Style>
          <IconStyle>
            <color>ff58eeff</color>
            <scale>1.2</scale>
            <Icon>
              <href>https://maps.google.com/mapfiles/kml/pushpin/wht-blank.png</href>
            </Icon>
          </IconStyle>
        </Style>
        <Point>
          <coordinates>4.720068572865392,49.77353025804793</coordinates>
        </Point>
      </Placemark>
      <Placemark>
        <name>Charleville-Mézières</name>
        <description>&lt;b&gt;Team:&lt;/b&gt; Ben Doyle&lt;br&gt;&lt;b&gt;Notes:&lt;/b&gt;&lt;ul&gt;&lt;li&gt;Present in Jet Lag: Tag 2 (Season 7)
Members who visited: 
1) Sam
2) Adam
3) Ben&lt;/li&gt;&lt;/ul&gt;</description>
        <Style>
          <IconStyle>
            <color>ff58eeff</color>
            <scale>1.2</scale>
            <Icon>
              <href>https://maps.google.com/mapfiles/kml/pushpin/wht-blank.png</href>
            </Icon>
          </IconStyle>
        </Style>
        <Point>
          <coordinates>4.724986276875763,49.76783813820218</coordinates>
        </Point>
      </Placemark>
      <Placemark>
        <name>Champagne-Ardenne TGV</name>
        <description>&lt;b&gt;Team:&lt;/b&gt; Ben Doyle&lt;br&gt;&lt;b&gt;Notes:&lt;/b&gt;&lt;ul&gt;&lt;li&gt;Present in Jet Lag: Tag 2 (Season 7)
Members who visited: 
1) Sam
2) Adam
3) Ben
Challenge: Do a taste test (Ben)&lt;/li&gt;&lt;/ul&gt;</description>
        <Style>
          <IconStyle>
            <color>ff58eeff</color>
            <scale>1.2</scale>
            <Icon>
              <href>https://maps.google.com/mapfiles/kml/pushpin/wht-blank.png</href>
            </Icon>
          </IconStyle>
        </Style>
        <Point>
          <coordinates>3.9946139,49.2147266</coordinates>
        </Point>
      </Placemark>
      <Placemark>
        <name>Sacrée Pizza</name>
        <description>&lt;b&gt;Team:&lt;/b&gt; Ben Doyle&lt;br&gt;&lt;b&gt;Notes:&lt;/b&gt;&lt;ul&gt;&lt;li&gt;Present in Jet Lag: Tag 2 (Season 7)
Members who visited: 
1) Sam
2) Adam
3) Ben&lt;/li&gt;&lt;/ul&gt;</description>
        <Style>
          <IconStyle>
            <color>ff58eeff</color>
            <scale>1.2</scale>
            <Icon>
              <href>https://maps.google.com/mapfiles/kml/pushpin/wht-blank.png</href>
            </Icon>
          </IconStyle>
        </Style>
        <Point>
          <coordinates>3.993898227805215,49.21510180409656</coordinates>
        </Point>
      </Placemark>
      <Placemark>
        <name>Fake Relay</name>
        <description>&lt;b&gt;Team:&lt;/b&gt; Ben Doyle&lt;br&gt;&lt;b&gt;Notes:&lt;/b&gt;&lt;ul&gt;&lt;li&gt;Present in Jet Lag: Tag 2 (Season 7)
Members who visited: 
1) Ben
Challenge: Do a taste test&lt;/li&gt;&lt;/ul&gt;</description>
        <Style>
          <IconStyle>
            <color>ff58eeff</color>
            <scale>1.2</scale>
            <Icon>
              <href>https://maps.google.com/mapfiles/kml/pushpin/wht-blank.png</href>
            </Icon>
          </IconStyle>
        </Style>
        <Point>
          <coordinates>3.998765399999999,49.2146602</coordinates>
        </Point>
      </Placemark>
      <Placemark>
        <name>Lorraine TGV</name>
        <description>&lt;b&gt;Team:&lt;/b&gt; Ben Doyle&lt;br&gt;&lt;b&gt;Notes:&lt;/b&gt;&lt;ul&gt;&lt;li&gt;Present in Jet Lag: Tag 2 (Season 7)
Members who visited: 
1) Ben
Challenge: Do a taste test&lt;/li&gt;&lt;/ul&gt;</description>
        <Style>
          <IconStyle>
            <color>ff58eeff</color>
            <scale>1.2</scale>
            <Icon>
              <href>https://maps.google.com/mapfiles/kml/pushpin/wht-blank.png</href>
            </Icon>
          </IconStyle>
        </Style>
        <Point>
          <coordinates>6.169785699999999,48.9477507</coordinates>
        </Point>
      </Placemark>
      <Placemark>
        <name>Haribo Spot</name>
        <description>&lt;b&gt;Team:&lt;/b&gt; Ben Doyle&lt;br&gt;&lt;b&gt;Notes:&lt;/b&gt;&lt;ul&gt;&lt;li&gt;Present in Jet Lag: Tag 2 (Season 7)
Members who visited: 
1) Ben
Challenge: Do a taste test&lt;/li&gt;&lt;/ul&gt;</description>
        <Style>
          <IconStyle>
            <color>ff58eeff</color>
            <scale>1.2</scale>
            <Icon>
              <href>https://maps.google.com/mapfiles/kml/pushpin/wht-blank.png</href>
            </Icon>
          </IconStyle>
        </Style>
        <Point>
          <coordinates>6.169562997675825,48.94832217645746</coordinates>
        </Point>
      </Placemark>
      <Placemark>
        <name>Meuse TGV</name>
        <description>&lt;b&gt;Team:&lt;/b&gt; Ben Doyle&lt;br&gt;&lt;b&gt;Notes:&lt;/b&gt;&lt;ul&gt;&lt;li&gt;Present in Jet Lag: Tag 2 (Season 7)
Members who visited: 
1) Sam
2) Adam
3) Ben&lt;/li&gt;&lt;/ul&gt;</description>
        <Style>
          <IconStyle>
            <color>ff58eeff</color>
            <scale>1.2</scale>
            <Icon>
              <href>https://maps.google.com/mapfiles/kml/pushpin/wht-blank.png</href>
            </Icon>
          </IconStyle>
        </Style>
        <Point>
          <coordinates>5.270868,48.9785309</coordinates>
        </Point>
      </Placemark>
      <Placemark>
        <name>Ben Tag Spot</name>
        <description>&lt;b&gt;Team:&lt;/b&gt; Ben Doyle&lt;br&gt;&lt;b&gt;Notes:&lt;/b&gt;&lt;ul&gt;&lt;li&gt;Present in Jet Lag: Tag 2 (Season 7)
Members who visited: 
1) Adam
2) Ben (Tagged)&lt;/li&gt;&lt;/ul&gt;</description>
        <Style>
          <IconStyle>
            <color>ff58eeff</color>
            <scale>1.2</scale>
            <Icon>
              <href>https://maps.google.com/mapfiles/kml/pushpin/wht-blank.png</href>
            </Icon>
          </IconStyle>
        </Style>
        <Point>
          <coordinates>5.270564067948542,48.97857729041672</coordinates>
        </Point>
      </Placemark>
      <Placemark>
        <name>Strasbourg</name>
        <description>&lt;b&gt;Team:&lt;/b&gt; Ben Doyle&lt;br&gt;&lt;b&gt;Notes:&lt;/b&gt;&lt;ul&gt;&lt;li&gt;Present in Jet Lag: Tag 2 (Season 7)
Members who visited: 
1) Sam
2) Adam
3) Ben
Challenge: Make a putt (Adam)&lt;/li&gt;&lt;/ul&gt;</description>
        <Style>
          <IconStyle>
            <color>ff58eeff</color>
            <scale>1.2</scale>
            <Icon>
              <href>https://maps.google.com/mapfiles/kml/pushpin/wht-blank.png</href>
            </Icon>
          </IconStyle>
        </Style>
        <Point>
          <coordinates>7.734067,48.585339</coordinates>
        </Point>
      </Placemark>
      <Placemark>
        <name>Choo Choo Chew: Derailed</name>
        <description>&lt;b&gt;Team:&lt;/b&gt; Ben Doyle&lt;br&gt;&lt;b&gt;Notes:&lt;/b&gt;&lt;ul&gt;&lt;li&gt;Present in Jet Lag: Tag 2 (Season 7)
Members who visited: 
1) Sam
2) Ben&lt;/li&gt;&lt;/ul&gt;</description>
        <Style>
          <IconStyle>
            <color>ff58eeff</color>
            <scale>1.2</scale>
            <Icon>
              <href>https://maps.google.com/mapfiles/kml/pushpin/wht-blank.png</href>
            </Icon>
          </IconStyle>
        </Style>
        <Point>
          <coordinates>3.994101997504089,49.21491706305684</coordinates>
        </Point>
      </Placemark>
      <Placemark>
        <name>Offenburg</name>
        <description>&lt;b&gt;Team:&lt;/b&gt; Ben Doyle&lt;br&gt;&lt;b&gt;Notes:&lt;/b&gt;&lt;ul&gt;&lt;li&gt;Present in Jet Lag: Tag 2 (Season 7)
Members who visited: 
1) Sam
2) Adam
3) Ben&lt;/li&gt;&lt;/ul&gt;</description>
        <Style>
          <IconStyle>
            <color>ff58eeff</color>
            <scale>1.2</scale>
            <Icon>
              <href>https://maps.google.com/mapfiles/kml/pushpin/wht-blank.png</href>
            </Icon>
          </IconStyle>
        </Style>
        <Point>
          <coordinates>7.946719999999999,48.47664999999999</coordinates>
        </Point>
      </Placemark>
      <Placemark>
        <name>Karlsruhe</name>
        <description>&lt;b&gt;Team:&lt;/b&gt; Ben Doyle&lt;br&gt;&lt;b&gt;Notes:&lt;/b&gt;&lt;ul&gt;&lt;li&gt;Present in Jet Lag: Tag 2 (Season 7)
Members who visited: 
1) Sam
2) Adam
3) Ben&lt;/li&gt;&lt;/ul&gt;</description>
        <Style>
          <IconStyle>
            <color>ff58eeff</color>
            <scale>1.2</scale>
            <Icon>
              <href>https://maps.google.com/mapfiles/kml/pushpin/wht-blank.png</href>
            </Icon>
          </IconStyle>
        </Style>
        <Point>
          <coordinates>8.4009743,48.9939401</coordinates>
        </Point>
      </Placemark>
      <Placemark>
        <name>Münster</name>
        <description>&lt;b&gt;Team:&lt;/b&gt; Ben Doyle&lt;br&gt;&lt;b&gt;Notes:&lt;/b&gt;&lt;ul&gt;&lt;li&gt;Present in Jet Lag: Tag 2 (Season 7)
Members who visited: 
1) Sam
2) Adam
3) Ben&lt;/li&gt;&lt;/ul&gt;</description>
        <Style>
          <IconStyle>
            <color>ff58eeff</color>
            <scale>1.2</scale>
            <Icon>
              <href>https://maps.google.com/mapfiles/kml/pushpin/wht-blank.png</href>
            </Icon>
          </IconStyle>
        </Style>
        <Point>
          <coordinates>7.634642999999999,51.9566768</coordinates>
        </Point>
      </Placemark>
      <Placemark>
        <name>Dortmund</name>
        <description>&lt;b&gt;Team:&lt;/b&gt; Ben Doyle&lt;br&gt;&lt;b&gt;Notes:&lt;/b&gt;&lt;ul&gt;&lt;li&gt;Present in Jet Lag: Tag 2 (Season 7)
Members who visited: 
1) Sam
2) Ben&lt;/li&gt;&lt;/ul&gt;</description>
        <Style>
          <IconStyle>
            <color>ff58eeff</color>
            <scale>1.2</scale>
            <Icon>
              <href>https://maps.google.com/mapfiles/kml/pushpin/wht-blank.png</href>
            </Icon>
          </IconStyle>
        </Style>
        <Point>
          <coordinates>7.459323399999999,51.5176562</coordinates>
        </Point>
      </Placemark>
      <Placemark>
        <name>Day 1 rest spot</name>
        <description>&lt;b&gt;Team:&lt;/b&gt; Ben Doyle&lt;br&gt;&lt;b&gt;Notes:&lt;/b&gt;&lt;ul&gt;&lt;li&gt;Present in Jet Lag: Tag 2 (Season 7)
Members who visited: 
1) Sam
2) Ben&lt;/li&gt;&lt;/ul&gt;</description>
        <Style>
          <IconStyle>
            <color>ff58eeff</color>
            <scale>1.2</scale>
            <Icon>
              <href>https://maps.google.com/mapfiles/kml/pushpin/wht-blank.png</href>
            </Icon>
          </IconStyle>
        </Style>
        <Point>
          <coordinates>7.459554534030939,51.51701301047245</coordinates>
        </Point>
      </Placemark>
      <Placemark>
        <name>Emden</name>
        <description>&lt;b&gt;Team:&lt;/b&gt; Ben Doyle&lt;br&gt;&lt;b&gt;Notes:&lt;/b&gt;&lt;ul&gt;&lt;li&gt;Present in Jet Lag: Tag 2 (Season 7)
Members who visited: 
1) Sam
2) Adam
3) Ben&lt;/li&gt;&lt;/ul&gt;</description>
        <Style>
          <IconStyle>
            <color>ff58eeff</color>
            <scale>1.2</scale>
            <Icon>
              <href>https://maps.google.com/mapfiles/kml/pushpin/wht-blank.png</href>
            </Icon>
          </IconStyle>
        </Style>
        <Point>
          <coordinates>7.195206199999999,53.3691237</coordinates>
        </Point>
      </Placemark>
      <Placemark>
        <name>Ben chase start</name>
        <description>&lt;b&gt;Team:&lt;/b&gt; Ben Doyle&lt;br&gt;&lt;b&gt;Notes:&lt;/b&gt;&lt;ul&gt;&lt;li&gt;Present in Jet Lag: Tag 2 (Season 7)
Members who visited: 
1) Adam
2) Ben
Curse: Wet hat syndrome (Adam)&lt;/li&gt;&lt;/ul&gt;</description>
        <Style>
          <IconStyle>
            <color>ff58eeff</color>
            <scale>1.2</scale>
            <Icon>
              <href>https://maps.google.com/mapfiles/kml/pushpin/wht-blank.png</href>
            </Icon>
          </IconStyle>
        </Style>
        <Point>
          <coordinates>7.208744730878605,53.36584121612388</coordinates>
        </Point>
      </Placemark>
      <Placemark>
        <name>Adam Tag Spot</name>
        <description>&lt;b&gt;Team:&lt;/b&gt; Ben Doyle&lt;br&gt;&lt;b&gt;Notes:&lt;/b&gt;&lt;ul&gt;&lt;li&gt;Present in Jet Lag: Tag 2 (Season 7)
Members who visited: 
1) Adam
2) Ben
Curse: Wet hat syndrome (Adam)&lt;/li&gt;&lt;/ul&gt;</description>
        <Style>
          <IconStyle>
            <color>ff58eeff</color>
            <scale>1.2</scale>
            <Icon>
              <href>https://maps.google.com/mapfiles/kml/pushpin/wht-blank.png</href>
            </Icon>
          </IconStyle>
        </Style>
        <Point>
          <coordinates>7.208774140054239,53.36449193542796</coordinates>
        </Point>
      </Placemark>
      <Placemark>
        <name>Card handover</name>
        <description>&lt;b&gt;Team:&lt;/b&gt; Ben Doyle&lt;br&gt;&lt;b&gt;Notes:&lt;/b&gt;&lt;ul&gt;&lt;li&gt;Present in Jet Lag: Tag 2 (Season 7)
Members who visited: 
1) Sam
2) Adam
3) Ben&lt;/li&gt;&lt;/ul&gt;</description>
        <Style>
          <IconStyle>
            <color>ff58eeff</color>
            <scale>1.2</scale>
            <Icon>
              <href>https://maps.google.com/mapfiles/kml/pushpin/wht-blank.png</href>
            </Icon>
          </IconStyle>
        </Style>
        <Point>
          <coordinates>7.209602460763682,53.36513100959817</coordinates>
        </Point>
      </Placemark>
      <Placemark>
        <name>Glowworm vending machine</name>
        <description>&lt;b&gt;Team:&lt;/b&gt; Ben Doyle&lt;br&gt;&lt;b&gt;Notes:&lt;/b&gt;&lt;ul&gt;&lt;li&gt;Present in Jet Lag: Tag 2 (Season 7)
Members who visited: 
1) Adam
2) Ben&lt;/li&gt;&lt;/ul&gt;</description>
        <Style>
          <IconStyle>
            <color>ff58eeff</color>
            <scale>1.2</scale>
            <Icon>
              <href>https://maps.google.com/mapfiles/kml/pushpin/wht-blank.png</href>
            </Icon>
          </IconStyle>
        </Style>
        <Point>
          <coordinates>7.1957583,53.3689824</coordinates>
        </Point>
      </Placemark>
      <Placemark>
        <name>Salzbergen</name>
        <description>&lt;b&gt;Team:&lt;/b&gt; Ben Doyle&lt;br&gt;&lt;b&gt;Notes:&lt;/b&gt;&lt;ul&gt;&lt;li&gt;Present in Jet Lag: Tag 2 (Season 7)
Members who visited: 
1) Sam
2) Adam
3) Ben
Curse: Ratatouille (Sam)&lt;/li&gt;&lt;/ul&gt;</description>
        <Style>
          <IconStyle>
            <color>ff58eeff</color>
            <scale>1.2</scale>
            <Icon>
              <href>https://maps.google.com/mapfiles/kml/pushpin/wht-blank.png</href>
            </Icon>
          </IconStyle>
        </Style>
        <Point>
          <coordinates>7.3503052,52.3229209</coordinates>
        </Point>
      </Placemark>
      <Placemark>
        <name>Glitch in the Matrix</name>
        <description>&lt;b&gt;Team:&lt;/b&gt; Ben Doyle&lt;br&gt;&lt;b&gt;Notes:&lt;/b&gt;&lt;ul&gt;&lt;li&gt;Present in Jet Lag: Tag 2 (Season 7)
Members who visited: 
1) Adam
2) Ben&lt;/li&gt;&lt;/ul&gt;</description>
        <Style>
          <IconStyle>
            <color>ff58eeff</color>
            <scale>1.2</scale>
            <Icon>
              <href>https://maps.google.com/mapfiles/kml/pushpin/wht-blank.png</href>
            </Icon>
          </IconStyle>
        </Style>
        <Point>
          <coordinates>7.30538,52.3982812</coordinates>
        </Point>
      </Placemark>
      <Placemark>
        <name>Hengelo</name>
        <description>&lt;b&gt;Team:&lt;/b&gt; Ben Doyle&lt;br&gt;&lt;b&gt;Notes:&lt;/b&gt;&lt;ul&gt;&lt;li&gt;Present in Jet Lag: Tag 2 (Season 7)
Members who visited: 
1) Sam
2) Adam
3) Ben
Challenge: Find the town hall (Sam)&lt;/li&gt;&lt;/ul&gt;</description>
        <Style>
          <IconStyle>
            <color>ff58eeff</color>
            <scale>1.2</scale>
            <Icon>
              <href>https://maps.google.com/mapfiles/kml/pushpin/wht-blank.png</href>
            </Icon>
          </IconStyle>
        </Style>
        <Point>
          <coordinates>6.794052506474393,52.26178581353736</coordinates>
        </Point>
      </Placemark>
      <Placemark>
        <name>Bing Bong</name>
        <description>&lt;b&gt;Team:&lt;/b&gt; Ben Doyle&lt;br&gt;&lt;b&gt;Notes:&lt;/b&gt;&lt;ul&gt;&lt;li&gt;Present in Jet Lag: Tag 2 (Season 7)
Members who visited: 
1) Adam
2) Ben&lt;/li&gt;&lt;/ul&gt;</description>
        <Style>
          <IconStyle>
            <color>ff58eeff</color>
            <scale>1.2</scale>
            <Icon>
              <href>https://maps.google.com/mapfiles/kml/pushpin/wht-blank.png</href>
            </Icon>
          </IconStyle>
        </Style>
        <Point>
          <coordinates>7.3477787,52.3229066</coordinates>
        </Point>
      </Placemark>
      <Placemark>
        <name>Zutphen</name>
        <description>&lt;b&gt;Team:&lt;/b&gt; Ben Doyle&lt;br&gt;&lt;b&gt;Notes:&lt;/b&gt;&lt;ul&gt;&lt;li&gt;Present in Jet Lag: Tag 2 (Season 7)
Members who visited: 
1) Sam
2) Adam
3) Ben&lt;/li&gt;&lt;/ul&gt;</description>
        <Style>
          <IconStyle>
            <color>ff58eeff</color>
            <scale>1.2</scale>
            <Icon>
              <href>https://maps.google.com/mapfiles/kml/pushpin/wht-blank.png</href>
            </Icon>
          </IconStyle>
        </Style>
        <Point>
          <coordinates>6.194119584546096,52.14486618047006</coordinates>
        </Point>
      </Placemark>
      <Placemark>
        <name>'s-Hertogenbosch</name>
        <description>&lt;b&gt;Team:&lt;/b&gt; Ben Doyle&lt;br&gt;&lt;b&gt;Notes:&lt;/b&gt;&lt;ul&gt;&lt;li&gt;Present in Jet Lag: Tag 2 (Season 7)
Members who visited: 
1) Sam
2) Adam
3) Ben&lt;/li&gt;&lt;/ul&gt;</description>
        <Style>
          <IconStyle>
            <color>ff58eeff</color>
            <scale>1.2</scale>
            <Icon>
              <href>https://maps.google.com/mapfiles/kml/pushpin/wht-blank.png</href>
            </Icon>
          </IconStyle>
        </Style>
        <Point>
          <coordinates>5.293695489070577,51.69076453140786</coordinates>
        </Point>
      </Placemark>
      <Placemark>
        <name>Eindhoven Centraal</name>
        <description>&lt;b&gt;Team:&lt;/b&gt; Ben Doyle&lt;br&gt;&lt;b&gt;Notes:&lt;/b&gt;&lt;ul&gt;&lt;li&gt;Present in Jet Lag: Tag 2 (Season 7)
Members who visited: 
1) Sam
2) Adam
3) Ben
Challenge: Choose your own adventure, 50 burpees (Ben)&lt;/li&gt;&lt;/ul&gt;</description>
        <Style>
          <IconStyle>
            <color>ff58eeff</color>
            <scale>1.2</scale>
            <Icon>
              <href>https://maps.google.com/mapfiles/kml/pushpin/wht-blank.png</href>
            </Icon>
          </IconStyle>
        </Style>
        <Point>
          <coordinates>5.4805389,51.4431348</coordinates>
        </Point>
      </Placemark>
      <Placemark>
        <name>Breda Centraal</name>
        <description>&lt;b&gt;Team:&lt;/b&gt; Ben Doyle&lt;br&gt;&lt;b&gt;Notes:&lt;/b&gt;&lt;ul&gt;&lt;li&gt;Present in Jet Lag: Tag 2 (Season 7)
Members who visited: 
1) Sam
2) Adam
3) Ben
Challenge: Choose your own adventure, 50 burpees (Ben)&lt;/li&gt;&lt;/ul&gt;</description>
        <Style>
          <IconStyle>
            <color>ff58eeff</color>
            <scale>1.2</scale>
            <Icon>
              <href>https://maps.google.com/mapfiles/kml/pushpin/wht-blank.png</href>
            </Icon>
          </IconStyle>
        </Style>
        <Point>
          <coordinates>4.779524308784222,51.59553436684932</coordinates>
        </Point>
      </Placemark>
      <Placemark>
        <name>Brussels Airport</name>
        <description>&lt;b&gt;Team:&lt;/b&gt; Ben Doyle&lt;br&gt;&lt;b&gt;Notes:&lt;/b&gt;&lt;ul&gt;&lt;li&gt;Present in Jet Lag: Tag 2 (Season 7)
Members who visited: 
1) Ben&lt;/li&gt;&lt;/ul&gt;</description>
        <Style>
          <IconStyle>
            <color>ff58eeff</color>
            <scale>1.2</scale>
            <Icon>
              <href>https://maps.google.com/mapfiles/kml/pushpin/wht-blank.png</href>
            </Icon>
          </IconStyle>
        </Style>
        <Point>
          <coordinates>4.482677955476964,50.89815575059779</coordinates>
        </Point>
      </Placemark>
      <Placemark>
        <name>Charleroi Central</name>
        <description>&lt;b&gt;Team:&lt;/b&gt; Ben Doyle&lt;br&gt;&lt;b&gt;Notes:&lt;/b&gt;&lt;ul&gt;&lt;li&gt;Present in Jet Lag: Tag 2 (Season 7)
Members who visited: 
1) Sam
2) Adam
3) Ben&lt;/li&gt;&lt;/ul&gt;</description>
        <Style>
          <IconStyle>
            <color>ff58eeff</color>
            <scale>1.2</scale>
            <Icon>
              <href>https://maps.google.com/mapfiles/kml/pushpin/wht-blank.png</href>
            </Icon>
          </IconStyle>
        </Style>
        <Point>
          <coordinates>4.438732478418917,50.40465415197521</coordinates>
        </Point>
      </Placemark>
      <Placemark>
        <name>Namur</name>
        <description>&lt;b&gt;Team:&lt;/b&gt; Ben Doyle&lt;br&gt;&lt;b&gt;Notes:&lt;/b&gt;&lt;ul&gt;&lt;li&gt;Present in Jet Lag: Tag 2 (Season 7)
Members who visited: 
1) Sam
2) Adam
2) Ben
Challenge: Become a French chef (Ben)&lt;/li&gt;&lt;/ul&gt;</description>
        <Style>
          <IconStyle>
            <color>ff58eeff</color>
            <scale>1.2</scale>
            <Icon>
              <href>https://maps.google.com/mapfiles/kml/pushpin/wht-blank.png</href>
            </Icon>
          </IconStyle>
        </Style>
        <Point>
          <coordinates>4.862490102224362,50.46913092651058</coordinates>
        </Point>
      </Placemark>
      <Placemark>
        <name>Shop &amp; Go</name>
        <description>&lt;b&gt;Team:&lt;/b&gt; Ben Doyle&lt;br&gt;&lt;b&gt;Notes:&lt;/b&gt;&lt;ul&gt;&lt;li&gt;Present in Jet Lag: Tag 2 (Season 7)
Members who visited: 
1) Ben
Challenge: Become a French chef&lt;/li&gt;&lt;/ul&gt;</description>
        <Style>
          <IconStyle>
            <color>ff58eeff</color>
            <scale>1.2</scale>
            <Icon>
              <href>https://maps.google.com/mapfiles/kml/pushpin/wht-blank.png</href>
            </Icon>
          </IconStyle>
        </Style>
        <Point>
          <coordinates>4.861599591153118,50.46807914437225</coordinates>
        </Point>
      </Placemark>
      <Placemark>
        <name>Mayonnaise spot</name>
        <description>&lt;b&gt;Team:&lt;/b&gt; Ben Doyle&lt;br&gt;&lt;b&gt;Notes:&lt;/b&gt;&lt;ul&gt;&lt;li&gt;Present in Jet Lag: Tag 2 (Season 7)
Members who visited: 
1) Ben
Challenge: Become a French chef&lt;/li&gt;&lt;/ul&gt;</description>
        <Style>
          <IconStyle>
            <color>ff58eeff</color>
            <scale>1.2</scale>
            <Icon>
              <href>https://maps.google.com/mapfiles/kml/pushpin/wht-blank.png</href>
            </Icon>
          </IconStyle>
        </Style>
        <Point>
          <coordinates>4.861458049866707,50.46850629365137</coordinates>
        </Point>
      </Placemark>
      <Placemark>
        <name>Luxembourg</name>
        <description>&lt;b&gt;Team:&lt;/b&gt; Ben Doyle&lt;br&gt;&lt;b&gt;Notes:&lt;/b&gt;&lt;ul&gt;&lt;li&gt;Present in Jet Lag: Tag 2 (Season 7)
Members who visited: 
1) Sam
2) Adam
3) Ben
Curse: Ratatouille (Ben)&lt;/li&gt;&lt;/ul&gt;</description>
        <Style>
          <IconStyle>
            <color>ff58eeff</color>
            <scale>1.2</scale>
            <Icon>
              <href>https://maps.google.com/mapfiles/kml/pushpin/wht-blank.png</href>
            </Icon>
          </IconStyle>
        </Style>
        <Point>
          <coordinates>6.134396323934328,49.59955755059351</coordinates>
        </Point>
      </Placemark>
      <Placemark>
        <name>Belval-Université</name>
        <description>&lt;b&gt;Team:&lt;/b&gt; Ben Doyle&lt;br&gt;&lt;b&gt;Notes:&lt;/b&gt;&lt;ul&gt;&lt;li&gt;Present in Jet Lag: Tag 2 (Season 7)
Members who visited: 
1) Ben
Curse: Ratatouille (Ben)&lt;/li&gt;&lt;/ul&gt;</description>
        <Style>
          <IconStyle>
            <color>ff58eeff</color>
            <scale>1.2</scale>
            <Icon>
              <href>https://maps.google.com/mapfiles/kml/pushpin/wht-blank.png</href>
            </Icon>
          </IconStyle>
        </Style>
        <Point>
          <coordinates>5.946257620760209,49.49958298060574</coordinates>
        </Point>
      </Placemark>
      <Placemark>
        <name>Howald</name>
        <description>&lt;b&gt;Team:&lt;/b&gt; Ben Doyle&lt;br&gt;&lt;b&gt;Notes:&lt;/b&gt;&lt;ul&gt;&lt;li&gt;Present in Jet Lag: Tag 2 (Season 7)
Members who visited: 
1) Sam
2) Adam
3) Ben&lt;/li&gt;&lt;/ul&gt;</description>
        <Style>
          <IconStyle>
            <color>ff58eeff</color>
            <scale>1.2</scale>
            <Icon>
              <href>https://maps.google.com/mapfiles/kml/pushpin/wht-blank.png</href>
            </Icon>
          </IconStyle>
        </Style>
        <Point>
          <coordinates>6.132179381684031,49.58067274336568</coordinates>
        </Point>
      </Placemark>
      <Placemark>
        <name>Metz</name>
        <description>&lt;b&gt;Team:&lt;/b&gt; Ben Doyle&lt;br&gt;&lt;b&gt;Notes:&lt;/b&gt;&lt;ul&gt;&lt;li&gt;Present in Jet Lag: Tag 2 (Season 7)
Members who visited: 
1) Sam
2) Adam
3) Ben
Curse: Triple veto time (Ben)&lt;/li&gt;&lt;/ul&gt;</description>
        <Style>
          <IconStyle>
            <color>ff58eeff</color>
            <scale>1.2</scale>
            <Icon>
              <href>https://maps.google.com/mapfiles/kml/pushpin/wht-blank.png</href>
            </Icon>
          </IconStyle>
        </Style>
        <Point>
          <coordinates>6.177268385970127,49.10908775292114</coordinates>
        </Point>
      </Placemark>
      <Placemark>
        <name>Photo booth</name>
        <description>&lt;b&gt;Team:&lt;/b&gt; Ben Doyle&lt;br&gt;&lt;b&gt;Notes:&lt;/b&gt;&lt;ul&gt;&lt;li&gt;Present in Jet Lag: Tag 2 (Season 7)
Members who visited: 
1) Ben&lt;/li&gt;&lt;/ul&gt;</description>
        <Style>
          <IconStyle>
            <color>ff58eeff</color>
            <scale>1.2</scale>
            <Icon>
              <href>https://maps.google.com/mapfiles/kml/pushpin/wht-blank.png</href>
            </Icon>
          </IconStyle>
        </Style>
        <Point>
          <coordinates>6.176297,49.1089666</coordinates>
        </Point>
      </Placemark>
      <Placemark>
        <name>Bar-le-Duc</name>
        <description>&lt;b&gt;Team:&lt;/b&gt; Ben Doyle&lt;br&gt;&lt;b&gt;Notes:&lt;/b&gt;&lt;ul&gt;&lt;li&gt;Present in Jet Lag: Tag 2 (Season 7)
Members who visited: 
1) Sam
2) Adam
3) Ben&lt;/li&gt;&lt;/ul&gt;</description>
        <Style>
          <IconStyle>
            <color>ff58eeff</color>
            <scale>1.2</scale>
            <Icon>
              <href>https://maps.google.com/mapfiles/kml/pushpin/wht-blank.png</href>
            </Icon>
          </IconStyle>
        </Style>
        <Point>
          <coordinates>5.167233579229416,48.77369788907227</coordinates>
        </Point>
      </Placemark>
      <Placemark>
        <name>Ben's Bench</name>
        <description>&lt;b&gt;Team:&lt;/b&gt; Ben Doyle&lt;br&gt;&lt;b&gt;Notes:&lt;/b&gt;&lt;ul&gt;&lt;li&gt;Present in Jet Lag: Tag 2 (Season 7)
Members who visited: 
1) Ben&lt;/li&gt;&lt;/ul&gt;</description>
        <Style>
          <IconStyle>
            <color>ff58eeff</color>
            <scale>1.2</scale>
            <Icon>
              <href>https://maps.google.com/mapfiles/kml/pushpin/wht-blank.png</href>
            </Icon>
          </IconStyle>
        </Style>
        <Point>
          <coordinates>5.1641256,48.77304659999999</coordinates>
        </Point>
      </Placemark>
      <Placemark>
        <name>Look at that</name>
        <description>&lt;b&gt;Team:&lt;/b&gt; Ben Doyle&lt;br&gt;&lt;b&gt;Notes:&lt;/b&gt;&lt;ul&gt;&lt;li&gt;Present in Jet Lag: Tag 2 (Season 7)
Members who visited: 
1) Ben&lt;/li&gt;&lt;/ul&gt;</description>
        <Style>
          <IconStyle>
            <color>ff58eeff</color>
            <scale>1.2</scale>
            <Icon>
              <href>https://maps.google.com/mapfiles/kml/pushpin/wht-blank.png</href>
            </Icon>
          </IconStyle>
        </Style>
        <Point>
          <coordinates>5.1667362,48.7709684</coordinates>
        </Point>
      </Placemark>
      <Placemark>
        <name>Ben tag spot</name>
        <description>&lt;b&gt;Team:&lt;/b&gt; Ben Doyle&lt;br&gt;&lt;b&gt;Notes:&lt;/b&gt;&lt;ul&gt;&lt;li&gt;Present in Jet Lag: Tag 2 (Season 7)
Members who visited: 
1) Sam
2) Adam
3) Ben
The final location for Season 7 (Ben is victorious)&lt;/li&gt;&lt;/ul&gt;</description>
        <Style>
          <IconStyle>
            <color>ff58eeff</color>
            <scale>1.2</scale>
            <Icon>
              <href>https://maps.google.com/mapfiles/kml/pushpin/wht-blank.png</href>
            </Icon>
          </IconStyle>
        </Style>
        <Point>
          <coordinates>5.165405199999999,48.7720432</coordinates>
        </Point>
      </Placemark>
    </Folder>
    <Folder>
      <name>Sam Denby</name>
      <Placemark>
        <name>Place Ducale</name>
        <description>&lt;b&gt;Team:&lt;/b&gt; Sam Denby&lt;br&gt;&lt;b&gt;Notes:&lt;/b&gt;&lt;ul&gt;&lt;li&gt;The starting point of Jet Lag: Tag 2 (Season 7)
Members who visited: 
1) Sam
2) Adam
3) Ben&lt;/li&gt;&lt;/ul&gt;</description>
        <Style>
          <IconStyle>
            <color>ff007cf5</color>
            <scale>1.2</scale>
            <Icon>
              <href>https://maps.google.com/mapfiles/kml/pushpin/wht-blank.png</href>
            </Icon>
          </IconStyle>
        </Style>
        <Point>
          <coordinates>4.720068572865392,49.77353025804793</coordinates>
        </Point>
      </Placemark>
      <Placemark>
        <name>Charleville-Mézières</name>
        <description>&lt;b&gt;Team:&lt;/b&gt; Sam Denby&lt;br&gt;&lt;b&gt;Notes:&lt;/b&gt;&lt;ul&gt;&lt;li&gt;Present in Jet Lag: Tag 2 (Season 7)
Members who visited: 
1) Sam
2) Adam
3) Ben&lt;/li&gt;&lt;/ul&gt;</description>
        <Style>
          <IconStyle>
            <color>ff007cf5</color>
            <scale>1.2</scale>
            <Icon>
              <href>https://maps.google.com/mapfiles/kml/pushpin/wht-blank.png</href>
            </Icon>
          </IconStyle>
        </Style>
        <Point>
          <coordinates>4.724986276875763,49.76783813820218</coordinates>
        </Point>
      </Placemark>
      <Placemark>
        <name>Sam and Adam discuss</name>
        <description>&lt;b&gt;Team:&lt;/b&gt; Sam Denby&lt;br&gt;&lt;b&gt;Notes:&lt;/b&gt;&lt;ul&gt;&lt;li&gt;Present in Jet Lag: Tag 2 (Season 7)
Members who visited: 
1) Sam
2) Adam&lt;/li&gt;&lt;/ul&gt;</description>
        <Style>
          <IconStyle>
            <color>ff007cf5</color>
            <scale>1.2</scale>
            <Icon>
              <href>https://maps.google.com/mapfiles/kml/pushpin/wht-blank.png</href>
            </Icon>
          </IconStyle>
        </Style>
        <Point>
          <coordinates>4.724228,49.7682253</coordinates>
        </Point>
      </Placemark>
      <Placemark>
        <name>Champagne-Ardenne TGV</name>
        <description>&lt;b&gt;Team:&lt;/b&gt; Sam Denby&lt;br&gt;&lt;b&gt;Notes:&lt;/b&gt;&lt;ul&gt;&lt;li&gt;Present in Jet Lag: Tag 2 (Season 7)
Members who visited: 
1) Sam
2) Adam
3) Ben
Challenge: Do a taste test (Ben)&lt;/li&gt;&lt;/ul&gt;</description>
        <Style>
          <IconStyle>
            <color>ff007cf5</color>
            <scale>1.2</scale>
            <Icon>
              <href>https://maps.google.com/mapfiles/kml/pushpin/wht-blank.png</href>
            </Icon>
          </IconStyle>
        </Style>
        <Point>
          <coordinates>3.9946139,49.2147266</coordinates>
        </Point>
      </Placemark>
      <Placemark>
        <name>Sacrée Pizza</name>
        <description>&lt;b&gt;Team:&lt;/b&gt; Sam Denby&lt;br&gt;&lt;b&gt;Notes:&lt;/b&gt;&lt;ul&gt;&lt;li&gt;Present in Jet Lag: Tag 2 (Season 7)
Members who visited: 
1) Sam
2) Adam
3) Ben&lt;/li&gt;&lt;/ul&gt;</description>
        <Style>
          <IconStyle>
            <color>ff007cf5</color>
            <scale>1.2</scale>
            <Icon>
              <href>https://maps.google.com/mapfiles/kml/pushpin/wht-blank.png</href>
            </Icon>
          </IconStyle>
        </Style>
        <Point>
          <coordinates>3.993898227805215,49.21510180409656</coordinates>
        </Point>
      </Placemark>
      <Placemark>
        <name>Meuse TGV</name>
        <description>&lt;b&gt;Team:&lt;/b&gt; Sam Denby&lt;br&gt;&lt;b&gt;Notes:&lt;/b&gt;&lt;ul&gt;&lt;li&gt;Present in Jet Lag: Tag 2 (Season 7)
Members who visited: 
1) Sam
2) Adam
3) Ben&lt;/li&gt;&lt;/ul&gt;</description>
        <Style>
          <IconStyle>
            <color>ff007cf5</color>
            <scale>1.2</scale>
            <Icon>
              <href>https://maps.google.com/mapfiles/kml/pushpin/wht-blank.png</href>
            </Icon>
          </IconStyle>
        </Style>
        <Point>
          <coordinates>5.270868,48.9785309</coordinates>
        </Point>
      </Placemark>
      <Placemark>
        <name>Strasbourg</name>
        <description>&lt;b&gt;Team:&lt;/b&gt; Sam Denby&lt;br&gt;&lt;b&gt;Notes:&lt;/b&gt;&lt;ul&gt;&lt;li&gt;Present in Jet Lag: Tag 2 (Season 7)
Members who visited: 
1) Sam
2) Adam
3) Ben
Challenge: Make a putt (Adam)&lt;/li&gt;&lt;/ul&gt;</description>
        <Style>
          <IconStyle>
            <color>ff007cf5</color>
            <scale>1.2</scale>
            <Icon>
              <href>https://maps.google.com/mapfiles/kml/pushpin/wht-blank.png</href>
            </Icon>
          </IconStyle>
        </Style>
        <Point>
          <coordinates>7.734067,48.585339</coordinates>
        </Point>
      </Placemark>
      <Placemark>
        <name>Choo Choo Chew: Derailed</name>
        <description>&lt;b&gt;Team:&lt;/b&gt; Sam Denby&lt;br&gt;&lt;b&gt;Notes:&lt;/b&gt;&lt;ul&gt;&lt;li&gt;Present in Jet Lag: Tag 2 (Season 7)
Members who visited: 
1) Sam
2) Ben&lt;/li&gt;&lt;/ul&gt;</description>
        <Style>
          <IconStyle>
            <color>ff007cf5</color>
            <scale>1.2</scale>
            <Icon>
              <href>https://maps.google.com/mapfiles/kml/pushpin/wht-blank.png</href>
            </Icon>
          </IconStyle>
        </Style>
        <Point>
          <coordinates>3.994101997504089,49.21491706305684</coordinates>
        </Point>
      </Placemark>
      <Placemark>
        <name>Offenburg</name>
        <description>&lt;b&gt;Team:&lt;/b&gt; Sam Denby&lt;br&gt;&lt;b&gt;Notes:&lt;/b&gt;&lt;ul&gt;&lt;li&gt;Present in Jet Lag: Tag 2 (Season 7)
Members who visited: 
1) Sam
2) Adam
3) Ben&lt;/li&gt;&lt;/ul&gt;</description>
        <Style>
          <IconStyle>
            <color>ff007cf5</color>
            <scale>1.2</scale>
            <Icon>
              <href>https://maps.google.com/mapfiles/kml/pushpin/wht-blank.png</href>
            </Icon>
          </IconStyle>
        </Style>
        <Point>
          <coordinates>7.946719999999999,48.47664999999999</coordinates>
        </Point>
      </Placemark>
      <Placemark>
        <name>Karlsruhe</name>
        <description>&lt;b&gt;Team:&lt;/b&gt; Sam Denby&lt;br&gt;&lt;b&gt;Notes:&lt;/b&gt;&lt;ul&gt;&lt;li&gt;Present in Jet Lag: Tag 2 (Season 7)
Members who visited: 
1) Sam
2) Adam
3) Ben&lt;/li&gt;&lt;/ul&gt;</description>
        <Style>
          <IconStyle>
            <color>ff007cf5</color>
            <scale>1.2</scale>
            <Icon>
              <href>https://maps.google.com/mapfiles/kml/pushpin/wht-blank.png</href>
            </Icon>
          </IconStyle>
        </Style>
        <Point>
          <coordinates>8.4009743,48.9939401</coordinates>
        </Point>
      </Placemark>
      <Placemark>
        <name>Münster</name>
        <description>&lt;b&gt;Team:&lt;/b&gt; Sam Denby&lt;br&gt;&lt;b&gt;Notes:&lt;/b&gt;&lt;ul&gt;&lt;li&gt;Present in Jet Lag: Tag 2 (Season 7)
Members who visited: 
1) Sam
2) Adam
3) Ben&lt;/li&gt;&lt;/ul&gt;</description>
        <Style>
          <IconStyle>
            <color>ff007cf5</color>
            <scale>1.2</scale>
            <Icon>
              <href>https://maps.google.com/mapfiles/kml/pushpin/wht-blank.png</href>
            </Icon>
          </IconStyle>
        </Style>
        <Point>
          <coordinates>7.634642999999999,51.9566768</coordinates>
        </Point>
      </Placemark>
      <Placemark>
        <name>Dortmund</name>
        <description>&lt;b&gt;Team:&lt;/b&gt; Sam Denby&lt;br&gt;&lt;b&gt;Notes:&lt;/b&gt;&lt;ul&gt;&lt;li&gt;Present in Jet Lag: Tag 2 (Season 7)
Members who visited: 
1) Sam
2) Ben&lt;/li&gt;&lt;/ul&gt;</description>
        <Style>
          <IconStyle>
            <color>ff007cf5</color>
            <scale>1.2</scale>
            <Icon>
              <href>https://maps.google.com/mapfiles/kml/pushpin/wht-blank.png</href>
            </Icon>
          </IconStyle>
        </Style>
        <Point>
          <coordinates>7.459323399999999,51.5176562</coordinates>
        </Point>
      </Placemark>
      <Placemark>
        <name>Day 1 rest spot</name>
        <description>&lt;b&gt;Team:&lt;/b&gt; Sam Denby&lt;br&gt;&lt;b&gt;Notes:&lt;/b&gt;&lt;ul&gt;&lt;li&gt;Present in Jet Lag: Tag 2 (Season 7)
Members who visited: 
1) Sam
2) Ben&lt;/li&gt;&lt;/ul&gt;</description>
        <Style>
          <IconStyle>
            <color>ff007cf5</color>
            <scale>1.2</scale>
            <Icon>
              <href>https://maps.google.com/mapfiles/kml/pushpin/wht-blank.png</href>
            </Icon>
          </IconStyle>
        </Style>
        <Point>
          <coordinates>7.459554534030939,51.51701301047245</coordinates>
        </Point>
      </Placemark>
      <Placemark>
        <name>Emden</name>
        <description>&lt;b&gt;Team:&lt;/b&gt; Sam Denby&lt;br&gt;&lt;b&gt;Notes:&lt;/b&gt;&lt;ul&gt;&lt;li&gt;Present in Jet Lag: Tag 2 (Season 7)
Members who visited: 
1) Sam
2) Adam
3) Ben&lt;/li&gt;&lt;/ul&gt;</description>
        <Style>
          <IconStyle>
            <color>ff007cf5</color>
            <scale>1.2</scale>
            <Icon>
              <href>https://maps.google.com/mapfiles/kml/pushpin/wht-blank.png</href>
            </Icon>
          </IconStyle>
        </Style>
        <Point>
          <coordinates>7.195206199999999,53.3691237</coordinates>
        </Point>
      </Placemark>
      <Placemark>
        <name>Card handover</name>
        <description>&lt;b&gt;Team:&lt;/b&gt; Sam Denby&lt;br&gt;&lt;b&gt;Notes:&lt;/b&gt;&lt;ul&gt;&lt;li&gt;Present in Jet Lag: Tag 2 (Season 7)
Members who visited: 
1) Sam
2) Adam
3) Ben&lt;/li&gt;&lt;/ul&gt;</description>
        <Style>
          <IconStyle>
            <color>ff007cf5</color>
            <scale>1.2</scale>
            <Icon>
              <href>https://maps.google.com/mapfiles/kml/pushpin/wht-blank.png</href>
            </Icon>
          </IconStyle>
        </Style>
        <Point>
          <coordinates>7.209602460763682,53.36513100959817</coordinates>
        </Point>
      </Placemark>
      <Placemark>
        <name>Salzbergen</name>
        <description>&lt;b&gt;Team:&lt;/b&gt; Sam Denby&lt;br&gt;&lt;b&gt;Notes:&lt;/b&gt;&lt;ul&gt;&lt;li&gt;Present in Jet Lag: Tag 2 (Season 7)
Members who visited: 
1) Sam
2) Adam
3) Ben
Curse: Ratatouille (Sam)&lt;/li&gt;&lt;/ul&gt;</description>
        <Style>
          <IconStyle>
            <color>ff007cf5</color>
            <scale>1.2</scale>
            <Icon>
              <href>https://maps.google.com/mapfiles/kml/pushpin/wht-blank.png</href>
            </Icon>
          </IconStyle>
        </Style>
        <Point>
          <coordinates>7.3503052,52.3229209</coordinates>
        </Point>
      </Placemark>
      <Placemark>
        <name>Old Train</name>
        <description>&lt;b&gt;Team:&lt;/b&gt; Sam Denby&lt;br&gt;&lt;b&gt;Notes:&lt;/b&gt;&lt;ul&gt;&lt;li&gt;Present in Jet Lag: Tag 2 (Season 7)
Members who visited: 
1) Sam&lt;/li&gt;&lt;/ul&gt;</description>
        <Style>
          <IconStyle>
            <color>ff007cf5</color>
            <scale>1.2</scale>
            <Icon>
              <href>https://maps.google.com/mapfiles/kml/pushpin/wht-blank.png</href>
            </Icon>
          </IconStyle>
        </Style>
        <Point>
          <coordinates>7.3501582,52.32310809999999</coordinates>
        </Point>
      </Placemark>
      <Placemark>
        <name>Historic Church</name>
        <description>&lt;b&gt;Team:&lt;/b&gt; Sam Denby&lt;br&gt;&lt;b&gt;Notes:&lt;/b&gt;&lt;ul&gt;&lt;li&gt;Present in Jet Lag: Tag 2 (Season 7)
Members who visited: 
1) Sam&lt;/li&gt;&lt;/ul&gt;</description>
        <Style>
          <IconStyle>
            <color>ff007cf5</color>
            <scale>1.2</scale>
            <Icon>
              <href>https://maps.google.com/mapfiles/kml/pushpin/wht-blank.png</href>
            </Icon>
          </IconStyle>
        </Style>
        <Point>
          <coordinates>7.347816537869949,52.32329094050096</coordinates>
        </Point>
      </Placemark>
      <Placemark>
        <name>Hengelo</name>
        <description>&lt;b&gt;Team:&lt;/b&gt; Sam Denby&lt;br&gt;&lt;b&gt;Notes:&lt;/b&gt;&lt;ul&gt;&lt;li&gt;Present in Jet Lag: Tag 2 (Season 7)
Members who visited: 
1) Sam
2) Adam
3) Ben
Challenge: Find the town hall (Sam)&lt;/li&gt;&lt;/ul&gt;</description>
        <Style>
          <IconStyle>
            <color>ff007cf5</color>
            <scale>1.2</scale>
            <Icon>
              <href>https://maps.google.com/mapfiles/kml/pushpin/wht-blank.png</href>
            </Icon>
          </IconStyle>
        </Style>
        <Point>
          <coordinates>6.794052506474393,52.26178581353736</coordinates>
        </Point>
      </Placemark>
      <Placemark>
        <name>Hengelo Town Hall</name>
        <description>&lt;b&gt;Team:&lt;/b&gt; Sam Denby&lt;br&gt;&lt;b&gt;Notes:&lt;/b&gt;&lt;ul&gt;&lt;li&gt;Present in Jet Lag: Tag 2 (Season 7)
Members who visited: 
1) Sam
Challenge: Find the town hall&lt;/li&gt;&lt;/ul&gt;</description>
        <Style>
          <IconStyle>
            <color>ff007cf5</color>
            <scale>1.2</scale>
            <Icon>
              <href>https://maps.google.com/mapfiles/kml/pushpin/wht-blank.png</href>
            </Icon>
          </IconStyle>
        </Style>
        <Point>
          <coordinates>6.791860643688641,52.26585069513449</coordinates>
        </Point>
      </Placemark>
      <Placemark>
        <name>Zutphen</name>
        <description>&lt;b&gt;Team:&lt;/b&gt; Sam Denby&lt;br&gt;&lt;b&gt;Notes:&lt;/b&gt;&lt;ul&gt;&lt;li&gt;Present in Jet Lag: Tag 2 (Season 7)
Members who visited: 
1) Sam
2) Adam
3) Ben&lt;/li&gt;&lt;/ul&gt;</description>
        <Style>
          <IconStyle>
            <color>ff007cf5</color>
            <scale>1.2</scale>
            <Icon>
              <href>https://maps.google.com/mapfiles/kml/pushpin/wht-blank.png</href>
            </Icon>
          </IconStyle>
        </Style>
        <Point>
          <coordinates>6.194119584546096,52.14486618047006</coordinates>
        </Point>
      </Placemark>
      <Placemark>
        <name>Broederenkerk</name>
        <description>&lt;b&gt;Team:&lt;/b&gt; Sam Denby&lt;br&gt;&lt;b&gt;Notes:&lt;/b&gt;&lt;ul&gt;&lt;li&gt;Present in Jet Lag: Tag 2 (Season 7)
Members who visited: 
1) Sam
Challenge: See something old&lt;/li&gt;&lt;/ul&gt;</description>
        <Style>
          <IconStyle>
            <color>ff007cf5</color>
            <scale>1.2</scale>
            <Icon>
              <href>https://maps.google.com/mapfiles/kml/pushpin/wht-blank.png</href>
            </Icon>
          </IconStyle>
        </Style>
        <Point>
          <coordinates>6.1946353,52.1425741</coordinates>
        </Point>
      </Placemark>
      <Placemark>
        <name>'s-Hertogenbosch</name>
        <description>&lt;b&gt;Team:&lt;/b&gt; Sam Denby&lt;br&gt;&lt;b&gt;Notes:&lt;/b&gt;&lt;ul&gt;&lt;li&gt;Present in Jet Lag: Tag 2 (Season 7)
Members who visited: 
1) Sam
2) Adam
3) Ben&lt;/li&gt;&lt;/ul&gt;</description>
        <Style>
          <IconStyle>
            <color>ff007cf5</color>
            <scale>1.2</scale>
            <Icon>
              <href>https://maps.google.com/mapfiles/kml/pushpin/wht-blank.png</href>
            </Icon>
          </IconStyle>
        </Style>
        <Point>
          <coordinates>5.293695489070577,51.69076453140786</coordinates>
        </Point>
      </Placemark>
      <Placemark>
        <name>Eindhoven Centraal</name>
        <description>&lt;b&gt;Team:&lt;/b&gt; Sam Denby&lt;br&gt;&lt;b&gt;Notes:&lt;/b&gt;&lt;ul&gt;&lt;li&gt;Present in Jet Lag: Tag 2 (Season 7)
Members who visited: 
1) Sam
2) Adam
3) Ben
Challenge: Choose your own adventure, 50 burpees (Ben)&lt;/li&gt;&lt;/ul&gt;</description>
        <Style>
          <IconStyle>
            <color>ff007cf5</color>
            <scale>1.2</scale>
            <Icon>
              <href>https://maps.google.com/mapfiles/kml/pushpin/wht-blank.png</href>
            </Icon>
          </IconStyle>
        </Style>
        <Point>
          <coordinates>5.4805389,51.4431348</coordinates>
        </Point>
      </Placemark>
      <Placemark>
        <name>Breda Centraal</name>
        <description>&lt;b&gt;Team:&lt;/b&gt; Sam Denby&lt;br&gt;&lt;b&gt;Notes:&lt;/b&gt;&lt;ul&gt;&lt;li&gt;Present in Jet Lag: Tag 2 (Season 7)
Members who visited: 
1) Sam
2) Adam
3) Ben
Challenge: Choose your own adventure, 50 burpees (Ben)&lt;/li&gt;&lt;/ul&gt;</description>
        <Style>
          <IconStyle>
            <color>ff007cf5</color>
            <scale>1.2</scale>
            <Icon>
              <href>https://maps.google.com/mapfiles/kml/pushpin/wht-blank.png</href>
            </Icon>
          </IconStyle>
        </Style>
        <Point>
          <coordinates>4.779524308784222,51.59553436684932</coordinates>
        </Point>
      </Placemark>
      <Placemark>
        <name>Noorderkempen (Brecht)</name>
        <description>&lt;b&gt;Team:&lt;/b&gt; Sam Denby&lt;br&gt;&lt;b&gt;Notes:&lt;/b&gt;&lt;ul&gt;&lt;li&gt;Present in Jet Lag: Tag 2 (Season 7)
Members who visited: 
1) Sam
2) Adam&lt;/li&gt;&lt;/ul&gt;</description>
        <Style>
          <IconStyle>
            <color>ff007cf5</color>
            <scale>1.2</scale>
            <Icon>
              <href>https://maps.google.com/mapfiles/kml/pushpin/wht-blank.png</href>
            </Icon>
          </IconStyle>
        </Style>
        <Point>
          <coordinates>4.632696399999999,51.357161</coordinates>
        </Point>
      </Placemark>
      <Placemark>
        <name>Antwerp </name>
        <description>&lt;b&gt;Team:&lt;/b&gt; Sam Denby&lt;br&gt;&lt;b&gt;Notes:&lt;/b&gt;&lt;ul&gt;&lt;li&gt;Present in Jet Lag: Tag 2 (Season 7)
Members who visited: 
1) Sam
2) Adam&lt;/li&gt;&lt;/ul&gt;</description>
        <Style>
          <IconStyle>
            <color>ff007cf5</color>
            <scale>1.2</scale>
            <Icon>
              <href>https://maps.google.com/mapfiles/kml/pushpin/wht-blank.png</href>
            </Icon>
          </IconStyle>
        </Style>
        <Point>
          <coordinates>4.421241999999999,51.21686</coordinates>
        </Point>
      </Placemark>
      <Placemark>
        <name>Charleroi Central</name>
        <description>&lt;b&gt;Team:&lt;/b&gt; Sam Denby&lt;br&gt;&lt;b&gt;Notes:&lt;/b&gt;&lt;ul&gt;&lt;li&gt;Present in Jet Lag: Tag 2 (Season 7)
Members who visited: 
1) Sam
2) Adam
3) Ben&lt;/li&gt;&lt;/ul&gt;</description>
        <Style>
          <IconStyle>
            <color>ff007cf5</color>
            <scale>1.2</scale>
            <Icon>
              <href>https://maps.google.com/mapfiles/kml/pushpin/wht-blank.png</href>
            </Icon>
          </IconStyle>
        </Style>
        <Point>
          <coordinates>4.438732478418917,50.40465415197521</coordinates>
        </Point>
      </Placemark>
      <Placemark>
        <name>Namur</name>
        <description>&lt;b&gt;Team:&lt;/b&gt; Sam Denby&lt;br&gt;&lt;b&gt;Notes:&lt;/b&gt;&lt;ul&gt;&lt;li&gt;Present in Jet Lag: Tag 2 (Season 7)
Members who visited: 
1) Sam
2) Adam
2) Ben
Challenge: Become a French chef (Ben)&lt;/li&gt;&lt;/ul&gt;</description>
        <Style>
          <IconStyle>
            <color>ff007cf5</color>
            <scale>1.2</scale>
            <Icon>
              <href>https://maps.google.com/mapfiles/kml/pushpin/wht-blank.png</href>
            </Icon>
          </IconStyle>
        </Style>
        <Point>
          <coordinates>4.862490102224362,50.46913092651058</coordinates>
        </Point>
      </Placemark>
      <Placemark>
        <name>Luxembourg</name>
        <description>&lt;b&gt;Team:&lt;/b&gt; Sam Denby&lt;br&gt;&lt;b&gt;Notes:&lt;/b&gt;&lt;ul&gt;&lt;li&gt;Present in Jet Lag: Tag 2 (Season 7)
Members who visited: 
1) Sam
2) Adam
3) Ben
Curse: Ratatouille (Ben)&lt;/li&gt;&lt;/ul&gt;</description>
        <Style>
          <IconStyle>
            <color>ff007cf5</color>
            <scale>1.2</scale>
            <Icon>
              <href>https://maps.google.com/mapfiles/kml/pushpin/wht-blank.png</href>
            </Icon>
          </IconStyle>
        </Style>
        <Point>
          <coordinates>6.134396323934328,49.59955755059351</coordinates>
        </Point>
      </Placemark>
      <Placemark>
        <name>Howald</name>
        <description>&lt;b&gt;Team:&lt;/b&gt; Sam Denby&lt;br&gt;&lt;b&gt;Notes:&lt;/b&gt;&lt;ul&gt;&lt;li&gt;Present in Jet Lag: Tag 2 (Season 7)
Members who visited: 
1) Sam
2) Adam
3) Ben&lt;/li&gt;&lt;/ul&gt;</description>
        <Style>
          <IconStyle>
            <color>ff007cf5</color>
            <scale>1.2</scale>
            <Icon>
              <href>https://maps.google.com/mapfiles/kml/pushpin/wht-blank.png</href>
            </Icon>
          </IconStyle>
        </Style>
        <Point>
          <coordinates>6.132179381684031,49.58067274336568</coordinates>
        </Point>
      </Placemark>
      <Placemark>
        <name>Metz</name>
        <description>&lt;b&gt;Team:&lt;/b&gt; Sam Denby&lt;br&gt;&lt;b&gt;Notes:&lt;/b&gt;&lt;ul&gt;&lt;li&gt;Present in Jet Lag: Tag 2 (Season 7)
Members who visited: 
1) Sam
2) Adam
3) Ben
Curse: Triple veto time (Ben)&lt;/li&gt;&lt;/ul&gt;</description>
        <Style>
          <IconStyle>
            <color>ff007cf5</color>
            <scale>1.2</scale>
            <Icon>
              <href>https://maps.google.com/mapfiles/kml/pushpin/wht-blank.png</href>
            </Icon>
          </IconStyle>
        </Style>
        <Point>
          <coordinates>6.177268385970127,49.10908775292114</coordinates>
        </Point>
      </Placemark>
      <Placemark>
        <name>Bar-le-Duc</name>
        <description>&lt;b&gt;Team:&lt;/b&gt; Sam Denby&lt;br&gt;&lt;b&gt;Notes:&lt;/b&gt;&lt;ul&gt;&lt;li&gt;Present in Jet Lag: Tag 2 (Season 7)
Members who visited: 
1) Sam
2) Adam
3) Ben&lt;/li&gt;&lt;/ul&gt;</description>
        <Style>
          <IconStyle>
            <color>ff007cf5</color>
            <scale>1.2</scale>
            <Icon>
              <href>https://maps.google.com/mapfiles/kml/pushpin/wht-blank.png</href>
            </Icon>
          </IconStyle>
        </Style>
        <Point>
          <coordinates>5.167233579229416,48.77369788907227</coordinates>
        </Point>
      </Placemark>
      <Placemark>
        <name>Nancy</name>
        <description>&lt;b&gt;Team:&lt;/b&gt; Sam Denby&lt;br&gt;&lt;b&gt;Notes:&lt;/b&gt;&lt;ul&gt;&lt;li&gt;Present in Jet Lag: Tag 2 (Season 7)
Members who visited: 
1) Sam
2) Adam&lt;/li&gt;&lt;/ul&gt;</description>
        <Style>
          <IconStyle>
            <color>ff007cf5</color>
            <scale>1.2</scale>
            <Icon>
              <href>https://maps.google.com/mapfiles/kml/pushpin/wht-blank.png</href>
            </Icon>
          </IconStyle>
        </Style>
        <Point>
          <coordinates>6.174036523273925,48.68966314872433</coordinates>
        </Point>
      </Placemark>
      <Placemark>
        <name>Look at that</name>
        <description>&lt;b&gt;Team:&lt;/b&gt; Sam Denby&lt;br&gt;&lt;b&gt;Notes:&lt;/b&gt;&lt;ul&gt;&lt;li&gt;Present in Jet Lag: Tag 2 (Season 7)
Members who visited: 
1) Sam
2) Adam&lt;/li&gt;&lt;/ul&gt;</description>
        <Style>
          <IconStyle>
            <color>ff007cf5</color>
            <scale>1.2</scale>
            <Icon>
              <href>https://maps.google.com/mapfiles/kml/pushpin/wht-blank.png</href>
            </Icon>
          </IconStyle>
        </Style>
        <Point>
          <coordinates>6.1832796,48.693545</coordinates>
        </Point>
      </Placemark>
      <Placemark>
        <name>Look at that</name>
        <description>&lt;b&gt;Team:&lt;/b&gt; Sam Denby&lt;br&gt;&lt;b&gt;Notes:&lt;/b&gt;&lt;ul&gt;&lt;li&gt;Present in Jet Lag: Tag 2 (Season 7)
Members who visited: 
1) Sam
2) Adam&lt;/li&gt;&lt;/ul&gt;</description>
        <Style>
          <IconStyle>
            <color>ff007cf5</color>
            <scale>1.2</scale>
            <Icon>
              <href>https://maps.google.com/mapfiles/kml/pushpin/wht-blank.png</href>
            </Icon>
          </IconStyle>
        </Style>
        <Point>
          <coordinates>6.182269499999999,48.695037</coordinates>
        </Point>
      </Placemark>
      <Placemark>
        <name>Look at that</name>
        <description>&lt;b&gt;Team:&lt;/b&gt; Sam Denby&lt;br&gt;&lt;b&gt;Notes:&lt;/b&gt;&lt;ul&gt;&lt;li&gt;Present in Jet Lag: Tag 2 (Season 7)
Members who visited: 
1) Sam
2) Adam&lt;/li&gt;&lt;/ul&gt;</description>
        <Style>
          <IconStyle>
            <color>ff007cf5</color>
            <scale>1.2</scale>
            <Icon>
              <href>https://maps.google.com/mapfiles/kml/pushpin/wht-blank.png</href>
            </Icon>
          </IconStyle>
        </Style>
        <Point>
          <coordinates>6.1802637,48.69653899999999</coordinates>
        </Point>
      </Placemark>
      <Placemark>
        <name>Look at that</name>
        <description>&lt;b&gt;Team:&lt;/b&gt; Sam Denby&lt;br&gt;&lt;b&gt;Notes:&lt;/b&gt;&lt;ul&gt;&lt;li&gt;Present in Jet Lag: Tag 2 (Season 7)
Members who visited: 
1) Sam
2) Adam&lt;/li&gt;&lt;/ul&gt;</description>
        <Style>
          <IconStyle>
            <color>ff007cf5</color>
            <scale>1.2</scale>
            <Icon>
              <href>https://maps.google.com/mapfiles/kml/pushpin/wht-blank.png</href>
            </Icon>
          </IconStyle>
        </Style>
        <Point>
          <coordinates>6.179247799999999,48.6962131</coordinates>
        </Point>
      </Placemark>
      <Placemark>
        <name>Look at that</name>
        <description>&lt;b&gt;Team:&lt;/b&gt; Sam Denby&lt;br&gt;&lt;b&gt;Notes:&lt;/b&gt;&lt;ul&gt;&lt;li&gt;Present in Jet Lag: Tag 2 (Season 7)
Members who visited: 
1) Sam
2) Adam&lt;/li&gt;&lt;/ul&gt;</description>
        <Style>
          <IconStyle>
            <color>ff007cf5</color>
            <scale>1.2</scale>
            <Icon>
              <href>https://maps.google.com/mapfiles/kml/pushpin/wht-blank.png</href>
            </Icon>
          </IconStyle>
        </Style>
        <Point>
          <coordinates>6.1768757,48.69421029999999</coordinates>
        </Point>
      </Placemark>
      <Placemark>
        <name>Look at that</name>
        <description>&lt;b&gt;Team:&lt;/b&gt; Sam Denby&lt;br&gt;&lt;b&gt;Notes:&lt;/b&gt;&lt;ul&gt;&lt;li&gt;Present in Jet Lag: Tag 2 (Season 7)
Members who visited: 
1) Sam
2) Adam&lt;/li&gt;&lt;/ul&gt;</description>
        <Style>
          <IconStyle>
            <color>ff007cf5</color>
            <scale>1.2</scale>
            <Icon>
              <href>https://maps.google.com/mapfiles/kml/pushpin/wht-blank.png</href>
            </Icon>
          </IconStyle>
        </Style>
        <Point>
          <coordinates>6.176858999999999,48.6929469</coordinates>
        </Point>
      </Placemark>
      <Placemark>
        <name>Ben tag spot</name>
        <description>&lt;b&gt;Team:&lt;/b&gt; Sam Denby&lt;br&gt;&lt;b&gt;Notes:&lt;/b&gt;&lt;ul&gt;&lt;li&gt;Present in Jet Lag: Tag 2 (Season 7)
Members who visited: 
1) Sam
2) Adam
3) Ben
The final location for Season 7 (Ben is victorious)&lt;/li&gt;&lt;/ul&gt;</description>
        <Style>
          <IconStyle>
            <color>ff007cf5</color>
            <scale>1.2</scale>
            <Icon>
              <href>https://maps.google.com/mapfiles/kml/pushpin/wht-blank.png</href>
            </Icon>
          </IconStyle>
        </Style>
        <Point>
          <coordinates>5.165405199999999,48.7720432</coordinates>
        </Point>
      </Placemark>
    </Folder>
  </Document>
</kml>