<?xml version='1.0' encoding='utf-8'?>
<kml xmlns="http://www.opengis.net/kml/2.2">
  <Document>
    <name>Season 4: Battle America</name>
    <Folder>
      <name>Sam Denby &amp; Brian McManus</name>
      <Placemark>
        <name>Times Square</name>
        <description>&lt;b&gt;Team:&lt;/b&gt; Sam Denby &amp; Brian McManus&lt;br&gt;&lt;b&gt;Notes:&lt;/b&gt;&lt;ul&gt;&lt;li&gt;The starting point of Jet Lag: Battle for America (Season 4)
Members who visited:
1) Sam
2) Brian
3) Adam
4) Ben&lt;/li&gt;&lt;/ul&gt;</description>
        <Style>
          <IconStyle>
            <color>ffd27619</color>
            <scale>1.2</scale>
            <Icon>
              <href>https://maps.google.com/mapfiles/kml/pushpin/wht-blank.png</href>
            </Icon>
          </IconStyle>
        </Style>
        <Point>
          <coordinates>-73.9858626248464,40.7576019169274</coordinates>
        </Point>
      </Placemark>
      <Placemark>
        <name>Moynihan Train Hall</name>
        <description>&lt;b&gt;Team:&lt;/b&gt; Sam Denby &amp; Brian McManus&lt;br&gt;&lt;b&gt;Notes:&lt;/b&gt;&lt;ul&gt;&lt;li&gt;Present in Jet Lag: Battle for America (Season 4) 
Members who visited:
1) Sam
2) Brian
3) Adam
4) Ben&lt;/li&gt;&lt;/ul&gt;</description>
        <Style>
          <IconStyle>
            <color>ffd27619</color>
            <scale>1.2</scale>
            <Icon>
              <href>https://maps.google.com/mapfiles/kml/pushpin/wht-blank.png</href>
            </Icon>
          </IconStyle>
        </Style>
        <Point>
          <coordinates>-73.9957489,40.7517137</coordinates>
        </Point>
      </Placemark>
      <Placemark>
        <name>Newark - Pennsylvania Station</name>
        <description>&lt;b&gt;Team:&lt;/b&gt; Sam Denby &amp; Brian McManus&lt;br&gt;&lt;b&gt;Notes:&lt;/b&gt;&lt;ul&gt;&lt;li&gt;Present in Jet Lag: Battle for America (Season 4) 
Members who visited:
1) Sam
2) Brian
3) Adam
4) Ben&lt;/li&gt;&lt;/ul&gt;</description>
        <Style>
          <IconStyle>
            <color>ffd27619</color>
            <scale>1.2</scale>
            <Icon>
              <href>https://maps.google.com/mapfiles/kml/pushpin/wht-blank.png</href>
            </Icon>
          </IconStyle>
        </Style>
        <Point>
          <coordinates>-74.1639867,40.7345989</coordinates>
        </Point>
      </Placemark>
      <Placemark>
        <name>William H. Gray III 30th Street</name>
        <description>&lt;b&gt;Team:&lt;/b&gt; Sam Denby &amp; Brian McManus&lt;br&gt;&lt;b&gt;Notes:&lt;/b&gt;&lt;ul&gt;&lt;li&gt;Present in Jet Lag: Battle for America (Season 4) 
Members who visited:
1) Sam
2) Brian
3) Adam
4) Ben&lt;/li&gt;&lt;/ul&gt;</description>
        <Style>
          <IconStyle>
            <color>ffd27619</color>
            <scale>1.2</scale>
            <Icon>
              <href>https://maps.google.com/mapfiles/kml/pushpin/wht-blank.png</href>
            </Icon>
          </IconStyle>
        </Style>
        <Point>
          <coordinates>-75.1822703,39.9567993</coordinates>
        </Point>
      </Placemark>
      <Placemark>
        <name>Washington Union Station</name>
        <description>&lt;b&gt;Team:&lt;/b&gt; Sam Denby &amp; Brian McManus&lt;br&gt;&lt;b&gt;Notes:&lt;/b&gt;&lt;ul&gt;&lt;li&gt;Present in Jet Lag: Battle for America (Season 4) 
Members who visited:
1) Sam
2) Brian
Challenge: Visit every Spirit Halloween in the state&lt;/li&gt;&lt;/ul&gt;</description>
        <Style>
          <IconStyle>
            <color>ffd27619</color>
            <scale>1.2</scale>
            <Icon>
              <href>https://maps.google.com/mapfiles/kml/pushpin/wht-blank.png</href>
            </Icon>
          </IconStyle>
        </Style>
        <Point>
          <coordinates>-77.006795,38.899036</coordinates>
        </Point>
      </Placemark>
      <Placemark>
        <name>Union Station</name>
        <description>&lt;b&gt;Team:&lt;/b&gt; Sam Denby &amp; Brian McManus&lt;br&gt;&lt;b&gt;Notes:&lt;/b&gt;&lt;ul&gt;&lt;li&gt;Present in Jet Lag: Battle for America (Season 4) 
Members who visited:
1) Sam
2) Brian
Challenge: Visit every Spirit Halloween in the state&lt;/li&gt;&lt;/ul&gt;</description>
        <Style>
          <IconStyle>
            <color>ffd27619</color>
            <scale>1.2</scale>
            <Icon>
              <href>https://maps.google.com/mapfiles/kml/pushpin/wht-blank.png</href>
            </Icon>
          </IconStyle>
        </Style>
        <Point>
          <coordinates>-77.0070797,38.8978452</coordinates>
        </Point>
      </Placemark>
      <Placemark>
        <name>Friendship Heights</name>
        <description>&lt;b&gt;Team:&lt;/b&gt; Sam Denby &amp; Brian McManus&lt;br&gt;&lt;b&gt;Notes:&lt;/b&gt;&lt;ul&gt;&lt;li&gt;Present in Jet Lag: Battle for America (Season 4) 
Members who visited:
1) Sam
2) Brian
Challenge: Visit every Spirit Halloween in the state&lt;/li&gt;&lt;/ul&gt;</description>
        <Style>
          <IconStyle>
            <color>ffd27619</color>
            <scale>1.2</scale>
            <Icon>
              <href>https://maps.google.com/mapfiles/kml/pushpin/wht-blank.png</href>
            </Icon>
          </IconStyle>
        </Style>
        <Point>
          <coordinates>-77.0860717,38.9609331</coordinates>
        </Point>
      </Placemark>
      <Placemark>
        <name>Spirit Halloween Washington D.C.</name>
        <description>&lt;b&gt;Team:&lt;/b&gt; Sam Denby &amp; Brian McManus&lt;br&gt;&lt;b&gt;Notes:&lt;/b&gt;&lt;ul&gt;&lt;li&gt;Present in Jet Lag: Battle for America (Season 4) 
Members who visited:
1) Sam
2) Brian
Challenge: Visit every Spirit Halloween in the state&lt;/li&gt;&lt;/ul&gt;</description>
        <Style>
          <IconStyle>
            <color>ffd27619</color>
            <scale>1.2</scale>
            <Icon>
              <href>https://maps.google.com/mapfiles/kml/pushpin/wht-blank.png</href>
            </Icon>
          </IconStyle>
        </Style>
        <Point>
          <coordinates>-77.0851428,38.9601635</coordinates>
        </Point>
      </Placemark>
      <Placemark>
        <name>Embassy Suites by Hilton Washington DC Chevy Chase Pavilion</name>
        <description>&lt;b&gt;Team:&lt;/b&gt; Sam Denby &amp; Brian McManus&lt;br&gt;&lt;b&gt;Notes:&lt;/b&gt;&lt;ul&gt;&lt;li&gt;Present in Jet Lag: Battle for America (Season 4) 
Members who visited:
1) Sam
2) Brian
Challenge: File a geodetic mark recovery form&lt;/li&gt;&lt;/ul&gt;</description>
        <Style>
          <IconStyle>
            <color>ffd27619</color>
            <scale>1.2</scale>
            <Icon>
              <href>https://maps.google.com/mapfiles/kml/pushpin/wht-blank.png</href>
            </Icon>
          </IconStyle>
        </Style>
        <Point>
          <coordinates>-77.0847465,38.960533</coordinates>
        </Point>
      </Placemark>
      <Placemark>
        <name>1st Failed Geodetic Marker Spot</name>
        <description>&lt;b&gt;Team:&lt;/b&gt; Sam Denby &amp; Brian McManus&lt;br&gt;&lt;b&gt;Notes:&lt;/b&gt;&lt;ul&gt;&lt;li&gt;Present in Jet Lag: Battle for America (Season 4) 
Members who visited:
1) Sam
2) Brian
Challenge: File a geodetic mark recovery form&lt;/li&gt;&lt;/ul&gt;</description>
        <Style>
          <IconStyle>
            <color>ffd27619</color>
            <scale>1.2</scale>
            <Icon>
              <href>https://maps.google.com/mapfiles/kml/pushpin/wht-blank.png</href>
            </Icon>
          </IconStyle>
        </Style>
        <Point>
          <coordinates>-77.0824519719297,38.9635061752003</coordinates>
        </Point>
      </Placemark>
      <Placemark>
        <name>2nd Failed Geodetic Marker Spot</name>
        <description>&lt;b&gt;Team:&lt;/b&gt; Sam Denby &amp; Brian McManus&lt;br&gt;&lt;b&gt;Notes:&lt;/b&gt;&lt;ul&gt;&lt;li&gt;Present in Jet Lag: Battle for America (Season 4) 
Members who visited:
1) Sam
2) Brian
Challenge: File a geodetic mark recovery form&lt;/li&gt;&lt;/ul&gt;</description>
        <Style>
          <IconStyle>
            <color>ffd27619</color>
            <scale>1.2</scale>
            <Icon>
              <href>https://maps.google.com/mapfiles/kml/pushpin/wht-blank.png</href>
            </Icon>
          </IconStyle>
        </Style>
        <Point>
          <coordinates>-77.0885944122238,38.9587125334101</coordinates>
        </Point>
      </Placemark>
      <Placemark>
        <name>Bethesda Station</name>
        <description>&lt;b&gt;Team:&lt;/b&gt; Sam Denby &amp; Brian McManus&lt;br&gt;&lt;b&gt;Notes:&lt;/b&gt;&lt;ul&gt;&lt;li&gt;Present in Jet Lag: Battle for America (Season 4) 
Members who visited:
1) Sam
2) Brian
Challenge: File a geodetic mark recovery form&lt;/li&gt;&lt;/ul&gt;</description>
        <Style>
          <IconStyle>
            <color>ffd27619</color>
            <scale>1.2</scale>
            <Icon>
              <href>https://maps.google.com/mapfiles/kml/pushpin/wht-blank.png</href>
            </Icon>
          </IconStyle>
        </Style>
        <Point>
          <coordinates>-77.0940873639699,38.9841504193518</coordinates>
        </Point>
      </Placemark>
      <Placemark>
        <name>Successful Bethesda Geodetic Marker Spot</name>
        <description>&lt;b&gt;Team:&lt;/b&gt; Sam Denby &amp; Brian McManus&lt;br&gt;&lt;b&gt;Notes:&lt;/b&gt;&lt;ul&gt;&lt;li&gt;Present in Jet Lag: Battle for America (Season 4) 
Members who visited:
1) Sam
2) Brian
Challenge: File a geodetic mark recovery form&lt;/li&gt;&lt;/ul&gt;</description>
        <Style>
          <IconStyle>
            <color>ffd27619</color>
            <scale>1.2</scale>
            <Icon>
              <href>https://maps.google.com/mapfiles/kml/pushpin/wht-blank.png</href>
            </Icon>
          </IconStyle>
        </Style>
        <Point>
          <coordinates>-77.0941228451399,38.9837527698766</coordinates>
        </Point>
      </Placemark>
      <Placemark>
        <name>Rosslyn Station</name>
        <description>&lt;b&gt;Team:&lt;/b&gt; Sam Denby &amp; Brian McManus&lt;br&gt;&lt;b&gt;Notes:&lt;/b&gt;&lt;ul&gt;&lt;li&gt;Present in Jet Lag: Battle for America (Season 4) 
Members who visited:
1) Sam
2) Brian
Challenge: Photograph your partner from far away&lt;/li&gt;&lt;/ul&gt;</description>
        <Style>
          <IconStyle>
            <color>ffd27619</color>
            <scale>1.2</scale>
            <Icon>
              <href>https://maps.google.com/mapfiles/kml/pushpin/wht-blank.png</href>
            </Icon>
          </IconStyle>
        </Style>
        <Point>
          <coordinates>-77.0719092,38.8958032</coordinates>
        </Point>
      </Placemark>
      <Placemark>
        <name>The View of DC</name>
        <description>&lt;b&gt;Team:&lt;/b&gt; Sam Denby &amp; Brian McManus&lt;br&gt;&lt;b&gt;Notes:&lt;/b&gt;&lt;ul&gt;&lt;li&gt;Present in Jet Lag: Battle for America (Season 4) 
Members who visited:
1) Brian
Challenge: Photograph your partner from far away&lt;/li&gt;&lt;/ul&gt;</description>
        <Style>
          <IconStyle>
            <color>ffd27619</color>
            <scale>1.2</scale>
            <Icon>
              <href>https://maps.google.com/mapfiles/kml/pushpin/wht-blank.png</href>
            </Icon>
          </IconStyle>
        </Style>
        <Point>
          <coordinates>-77.0712076,38.895595</coordinates>
        </Point>
      </Placemark>
      <Placemark>
        <name>Sam Standing Spot</name>
        <description>&lt;b&gt;Team:&lt;/b&gt; Sam Denby &amp; Brian McManus&lt;br&gt;&lt;b&gt;Notes:&lt;/b&gt;&lt;ul&gt;&lt;li&gt;Present in Jet Lag: Battle for America (Season 4) 
Members who visited:
1) Sam
Challenge: Photograph your partner from far away&lt;/li&gt;&lt;/ul&gt;</description>
        <Style>
          <IconStyle>
            <color>ffd27619</color>
            <scale>1.2</scale>
            <Icon>
              <href>https://maps.google.com/mapfiles/kml/pushpin/wht-blank.png</href>
            </Icon>
          </IconStyle>
        </Style>
        <Point>
          <coordinates>-77.0700609422044,38.888889703842</coordinates>
        </Point>
      </Placemark>
      <Placemark>
        <name>McDonald's Rosslyn</name>
        <description>&lt;b&gt;Team:&lt;/b&gt; Sam Denby &amp; Brian McManus&lt;br&gt;&lt;b&gt;Notes:&lt;/b&gt;&lt;ul&gt;&lt;li&gt;Present in Jet Lag: Battle for America (Season 4) 
Members who visited:
1) Sam
2) Brian&lt;/li&gt;&lt;/ul&gt;</description>
        <Style>
          <IconStyle>
            <color>ffd27619</color>
            <scale>1.2</scale>
            <Icon>
              <href>https://maps.google.com/mapfiles/kml/pushpin/wht-blank.png</href>
            </Icon>
          </IconStyle>
        </Style>
        <Point>
          <coordinates>-77.0713801,38.896312</coordinates>
        </Point>
      </Placemark>
      <Placemark>
        <name>Pentagon City Metro Station</name>
        <description>&lt;b&gt;Team:&lt;/b&gt; Sam Denby &amp; Brian McManus&lt;br&gt;&lt;b&gt;Notes:&lt;/b&gt;&lt;ul&gt;&lt;li&gt;Present in Jet Lag: Battle for America (Season 4) 
Members who visited:
1) Sam
2) Brian&lt;/li&gt;&lt;/ul&gt;</description>
        <Style>
          <IconStyle>
            <color>ffd27619</color>
            <scale>1.2</scale>
            <Icon>
              <href>https://maps.google.com/mapfiles/kml/pushpin/wht-blank.png</href>
            </Icon>
          </IconStyle>
        </Style>
        <Point>
          <coordinates>-77.0598784861856,38.8626651567439</coordinates>
        </Point>
      </Placemark>
      <Placemark>
        <name>Sam and Brian Battle Challenge Waiting Bench</name>
        <description>&lt;b&gt;Team:&lt;/b&gt; Sam Denby &amp; Brian McManus&lt;br&gt;&lt;b&gt;Notes:&lt;/b&gt;&lt;ul&gt;&lt;li&gt;Present in Jet Lag: Battle for America (Season 4) 
Members who visited:
1) Sam
2) Brian
The bench where Sam and Brian await the imminent battle challenge from Adam and Ben&lt;/li&gt;&lt;/ul&gt;</description>
        <Style>
          <IconStyle>
            <color>ffd27619</color>
            <scale>1.2</scale>
            <Icon>
              <href>https://maps.google.com/mapfiles/kml/pushpin/wht-blank.png</href>
            </Icon>
          </IconStyle>
        </Style>
        <Point>
          <coordinates>-77.0592810972291,38.8623742513894</coordinates>
        </Point>
      </Placemark>
      <Placemark>
        <name>Pentagon Centre</name>
        <description>&lt;b&gt;Team:&lt;/b&gt; Sam Denby &amp; Brian McManus&lt;br&gt;&lt;b&gt;Notes:&lt;/b&gt;&lt;ul&gt;&lt;li&gt;Present in Jet Lag: Battle for America (Season 4) 
Members who visited:
1) Sam
2) Brian
Battle Challenge: Find the most foreign license plate&lt;/li&gt;&lt;/ul&gt;</description>
        <Style>
          <IconStyle>
            <color>ffd27619</color>
            <scale>1.2</scale>
            <Icon>
              <href>https://maps.google.com/mapfiles/kml/pushpin/wht-blank.png</href>
            </Icon>
          </IconStyle>
        </Style>
        <Point>
          <coordinates>-77.0585454,38.8610967</coordinates>
        </Point>
      </Placemark>
      <Placemark>
        <name>Ronald Reagan Washington National Airport Station</name>
        <description>&lt;b&gt;Team:&lt;/b&gt; Sam Denby &amp; Brian McManus&lt;br&gt;&lt;b&gt;Notes:&lt;/b&gt;&lt;ul&gt;&lt;li&gt;Present in Jet Lag: Battle for America (Season 4) 
Members who visited:
1) Sam
2) Brian&lt;/li&gt;&lt;/ul&gt;</description>
        <Style>
          <IconStyle>
            <color>ffd27619</color>
            <scale>1.2</scale>
            <Icon>
              <href>https://maps.google.com/mapfiles/kml/pushpin/wht-blank.png</href>
            </Icon>
          </IconStyle>
        </Style>
        <Point>
          <coordinates>-77.0439868,38.8533825</coordinates>
        </Point>
      </Placemark>
      <Placemark>
        <name>BWI Thurgood Marshall</name>
        <description>&lt;b&gt;Team:&lt;/b&gt; Sam Denby &amp; Brian McManus&lt;br&gt;&lt;b&gt;Notes:&lt;/b&gt;&lt;ul&gt;&lt;li&gt;Present in Jet Lag: Battle for America (Season 4) 
Members who visited:
1) Sam
2) Brian&lt;/li&gt;&lt;/ul&gt;</description>
        <Style>
          <IconStyle>
            <color>ffd27619</color>
            <scale>1.2</scale>
            <Icon>
              <href>https://maps.google.com/mapfiles/kml/pushpin/wht-blank.png</href>
            </Icon>
          </IconStyle>
        </Style>
        <Point>
          <coordinates>-76.6943881,39.1924679</coordinates>
        </Point>
      </Placemark>
      <Placemark>
        <name>Baltimore/Washington International Thurgood Marshall Airport</name>
        <description>&lt;b&gt;Team:&lt;/b&gt; Sam Denby &amp; Brian McManus&lt;br&gt;&lt;b&gt;Notes:&lt;/b&gt;&lt;ul&gt;&lt;li&gt;Present in Jet Lag: Battle for America (Season 4) 
Members who visited:
1) Sam
2) Brian&lt;/li&gt;&lt;/ul&gt;</description>
        <Style>
          <IconStyle>
            <color>ffd27619</color>
            <scale>1.2</scale>
            <Icon>
              <href>https://maps.google.com/mapfiles/kml/pushpin/wht-blank.png</href>
            </Icon>
          </IconStyle>
        </Style>
        <Point>
          <coordinates>-76.6683889,39.1775715</coordinates>
        </Point>
      </Placemark>
      <Placemark>
        <name>Hartford–Brainard Airport</name>
        <description>&lt;b&gt;Team:&lt;/b&gt; Sam Denby &amp; Brian McManus&lt;br&gt;&lt;b&gt;Notes:&lt;/b&gt;&lt;ul&gt;&lt;li&gt;Present in Jet Lag: Battle for America (Season 4) 
Members who visited:
1) Sam
2) Brian&lt;/li&gt;&lt;/ul&gt;</description>
        <Style>
          <IconStyle>
            <color>ffd27619</color>
            <scale>1.2</scale>
            <Icon>
              <href>https://maps.google.com/mapfiles/kml/pushpin/wht-blank.png</href>
            </Icon>
          </IconStyle>
        </Style>
        <Point>
          <coordinates>-72.6510162,41.7427978</coordinates>
        </Point>
      </Placemark>
      <Placemark>
        <name>Hartford Union Station</name>
        <description>&lt;b&gt;Team:&lt;/b&gt; Sam Denby &amp; Brian McManus&lt;br&gt;&lt;b&gt;Notes:&lt;/b&gt;&lt;ul&gt;&lt;li&gt;Present in Jet Lag: Battle for America (Season 4)
Members who visited:
1) Sam
2) Brian&lt;/li&gt;&lt;/ul&gt;</description>
        <Style>
          <IconStyle>
            <color>ffd27619</color>
            <scale>1.2</scale>
            <Icon>
              <href>https://maps.google.com/mapfiles/kml/pushpin/wht-blank.png</href>
            </Icon>
          </IconStyle>
        </Style>
        <Point>
          <coordinates>-72.6815714,41.7688191</coordinates>
        </Point>
      </Placemark>
      <Placemark>
        <name>Springfield Union Station</name>
        <description>&lt;b&gt;Team:&lt;/b&gt; Sam Denby &amp; Brian McManus&lt;br&gt;&lt;b&gt;Notes:&lt;/b&gt;&lt;ul&gt;&lt;li&gt;Present in Jet Lag: Battle for America (Season 4)
Members who visited:
1) Sam
2) Brian&lt;/li&gt;&lt;/ul&gt;</description>
        <Style>
          <IconStyle>
            <color>ffd27619</color>
            <scale>1.2</scale>
            <Icon>
              <href>https://maps.google.com/mapfiles/kml/pushpin/wht-blank.png</href>
            </Icon>
          </IconStyle>
        </Style>
        <Point>
          <coordinates>-72.593643,42.1065267</coordinates>
        </Point>
      </Placemark>
      <Placemark>
        <name>Holyoke Mall</name>
        <description>&lt;b&gt;Team:&lt;/b&gt; Sam Denby &amp; Brian McManus&lt;br&gt;&lt;b&gt;Notes:&lt;/b&gt;&lt;ul&gt;&lt;li&gt;Present in Jet Lag: Battle for America (Season 4) 
Members who visited:
1) Sam
2) Brian
Challenge: Win a prize from a claw machine&lt;/li&gt;&lt;/ul&gt;</description>
        <Style>
          <IconStyle>
            <color>ffd27619</color>
            <scale>1.2</scale>
            <Icon>
              <href>https://maps.google.com/mapfiles/kml/pushpin/wht-blank.png</href>
            </Icon>
          </IconStyle>
        </Style>
        <Point>
          <coordinates>-72.6412903,42.1675334</coordinates>
        </Point>
      </Placemark>
      <Placemark>
        <name>Round1</name>
        <description>&lt;b&gt;Team:&lt;/b&gt; Sam Denby &amp; Brian McManus&lt;br&gt;&lt;b&gt;Notes:&lt;/b&gt;&lt;ul&gt;&lt;li&gt;Present in Jet Lag: Battle for America (Season 4) 
Members who visited:
1) Sam
2) Brian
Challenge: Win a prize from a claw machine&lt;/li&gt;&lt;/ul&gt;</description>
        <Style>
          <IconStyle>
            <color>ffd27619</color>
            <scale>1.2</scale>
            <Icon>
              <href>https://maps.google.com/mapfiles/kml/pushpin/wht-blank.png</href>
            </Icon>
          </IconStyle>
        </Style>
        <Point>
          <coordinates>-72.6413569,42.1676302</coordinates>
        </Point>
      </Placemark>
      <Placemark>
        <name>Windsor Locks</name>
        <description>&lt;b&gt;Team:&lt;/b&gt; Sam Denby &amp; Brian McManus&lt;br&gt;&lt;b&gt;Notes:&lt;/b&gt;&lt;ul&gt;&lt;li&gt;Present in Jet Lag: Battle for America (Season 4) 
Members who visited:
1) Sam
2) Brian&lt;/li&gt;&lt;/ul&gt;</description>
        <Style>
          <IconStyle>
            <color>ffd27619</color>
            <scale>1.2</scale>
            <Icon>
              <href>https://maps.google.com/mapfiles/kml/pushpin/wht-blank.png</href>
            </Icon>
          </IconStyle>
        </Style>
        <Point>
          <coordinates>-72.6260298,41.9139542</coordinates>
        </Point>
      </Placemark>
      <Placemark>
        <name>Sam and Brian 2nd Battle Challenge Waiting Spot</name>
        <description>&lt;b&gt;Team:&lt;/b&gt; Sam Denby &amp; Brian McManus&lt;br&gt;&lt;b&gt;Notes:&lt;/b&gt;&lt;ul&gt;&lt;li&gt;Present in Jet Lag: Battle for America (Season 4) 
Members who visited:
1) Sam
2) Brian
The spot where Sam and Brian await the imminent 2nd battle challenge from Adam and Ben
Battle Challenge: Photograph the most birds&lt;/li&gt;&lt;/ul&gt;</description>
        <Style>
          <IconStyle>
            <color>ffd27619</color>
            <scale>1.2</scale>
            <Icon>
              <href>https://maps.google.com/mapfiles/kml/pushpin/wht-blank.png</href>
            </Icon>
          </IconStyle>
        </Style>
        <Point>
          <coordinates>-72.626173321536,41.9145445818721</coordinates>
        </Point>
      </Placemark>
      <Placemark>
        <name>Sam and Brian Bird Spot #2</name>
        <description>&lt;b&gt;Team:&lt;/b&gt; Sam Denby &amp; Brian McManus&lt;br&gt;&lt;b&gt;Notes:&lt;/b&gt;&lt;ul&gt;&lt;li&gt;Present in Jet Lag: Battle for America (Season 4) 
Members who visited:
1) Sam
2) Brian
Battle Challenge: Photograph the most birds
Birds Found: 1
Total Bird Count: 2&lt;/li&gt;&lt;/ul&gt;</description>
        <Style>
          <IconStyle>
            <color>ffd27619</color>
            <scale>1.2</scale>
            <Icon>
              <href>https://maps.google.com/mapfiles/kml/pushpin/wht-blank.png</href>
            </Icon>
          </IconStyle>
        </Style>
        <Point>
          <coordinates>-72.625319875496,41.9108698659679</coordinates>
        </Point>
      </Placemark>
      <Placemark>
        <name>Sam and Brian Bird Spot #3</name>
        <description>&lt;b&gt;Team:&lt;/b&gt; Sam Denby &amp; Brian McManus&lt;br&gt;&lt;b&gt;Notes:&lt;/b&gt;&lt;ul&gt;&lt;li&gt;Present in Jet Lag: Battle for America (Season 4) 
Members who visited:
1) Sam
2) Brian
Battle Challenge: Photograph the most birds
Birds Found: 1
Total Bird Count: 3&lt;/li&gt;&lt;/ul&gt;</description>
        <Style>
          <IconStyle>
            <color>ffd27619</color>
            <scale>1.2</scale>
            <Icon>
              <href>https://maps.google.com/mapfiles/kml/pushpin/wht-blank.png</href>
            </Icon>
          </IconStyle>
        </Style>
        <Point>
          <coordinates>-72.625428901365,41.910449314079</coordinates>
        </Point>
      </Placemark>
      <Placemark>
        <name>Sam and Brian Bird Spot #4</name>
        <description>&lt;b&gt;Team:&lt;/b&gt; Sam Denby &amp; Brian McManus&lt;br&gt;&lt;b&gt;Notes:&lt;/b&gt;&lt;ul&gt;&lt;li&gt;Present in Jet Lag: Battle for America (Season 4) 
Members who visited:
1) Sam
2) Brian
Battle Challenge: Photograph the most birds
Birds Found: 147-197
Total Bird Count: 150-200 (According to Sam)&lt;/li&gt;&lt;/ul&gt;</description>
        <Style>
          <IconStyle>
            <color>ffd27619</color>
            <scale>1.2</scale>
            <Icon>
              <href>https://maps.google.com/mapfiles/kml/pushpin/wht-blank.png</href>
            </Icon>
          </IconStyle>
        </Style>
        <Point>
          <coordinates>-72.6252017874092,41.9082031922052</coordinates>
        </Point>
      </Placemark>
      <Placemark>
        <name>Bradley International Airport</name>
        <description>&lt;b&gt;Team:&lt;/b&gt; Sam Denby &amp; Brian McManus&lt;br&gt;&lt;b&gt;Notes:&lt;/b&gt;&lt;ul&gt;&lt;li&gt;Present in Jet Lag: Battle for America (Season 4) 
Members who visited:
1) Sam
2) Brian&lt;/li&gt;&lt;/ul&gt;</description>
        <Style>
          <IconStyle>
            <color>ffd27619</color>
            <scale>1.2</scale>
            <Icon>
              <href>https://maps.google.com/mapfiles/kml/pushpin/wht-blank.png</href>
            </Icon>
          </IconStyle>
        </Style>
        <Point>
          <coordinates>-72.6860314,41.9388735</coordinates>
        </Point>
      </Placemark>
      <Placemark>
        <name>Nashville International Airport</name>
        <description>&lt;b&gt;Team:&lt;/b&gt; Sam Denby &amp; Brian McManus&lt;br&gt;&lt;b&gt;Notes:&lt;/b&gt;&lt;ul&gt;&lt;li&gt;Present in Jet Lag: Battle for America (Season 4) 
Members who visited:
1) Sam
2) Brian
Challenge: Spend $100 at Buc-ee&amp;#x27;s&lt;/li&gt;&lt;/ul&gt;</description>
        <Style>
          <IconStyle>
            <color>ffd27619</color>
            <scale>1.2</scale>
            <Icon>
              <href>https://maps.google.com/mapfiles/kml/pushpin/wht-blank.png</href>
            </Icon>
          </IconStyle>
        </Style>
        <Point>
          <coordinates>-86.6762176,36.1248851</coordinates>
        </Point>
      </Placemark>
      <Placemark>
        <name>Buc-ee's</name>
        <description>&lt;b&gt;Team:&lt;/b&gt; Sam Denby &amp; Brian McManus&lt;br&gt;&lt;b&gt;Notes:&lt;/b&gt;&lt;ul&gt;&lt;li&gt;Present in Jet Lag: Battle for America (Season 4) 
Members who visited:
1) Sam
2) Brian
Challenge: Spend $100 at Buc-ee&amp;#x27;s&lt;/li&gt;&lt;/ul&gt;</description>
        <Style>
          <IconStyle>
            <color>ffd27619</color>
            <scale>1.2</scale>
            <Icon>
              <href>https://maps.google.com/mapfiles/kml/pushpin/wht-blank.png</href>
            </Icon>
          </IconStyle>
        </Style>
        <Point>
          <coordinates>-85.0150056,35.9801198</coordinates>
        </Point>
      </Placemark>
      <Placemark>
        <name>Septic Solutions</name>
        <description>&lt;b&gt;Team:&lt;/b&gt; Sam Denby &amp; Brian McManus&lt;br&gt;&lt;b&gt;Notes:&lt;/b&gt;&lt;ul&gt;&lt;li&gt;Present in Jet Lag: Battle for America (Season 4) 
Members who visited:
1) Sam
2) Brian
The ending spot for Ben and Adam for Day 2 of Season 4&lt;/li&gt;&lt;/ul&gt;</description>
        <Style>
          <IconStyle>
            <color>ffd27619</color>
            <scale>1.2</scale>
            <Icon>
              <href>https://maps.google.com/mapfiles/kml/pushpin/wht-blank.png</href>
            </Icon>
          </IconStyle>
        </Style>
        <Point>
          <coordinates>-85.1467561,36.0506317</coordinates>
        </Point>
      </Placemark>
      <Placemark>
        <name>Austin-Bergstrom International Airport</name>
        <description>&lt;b&gt;Team:&lt;/b&gt; Sam Denby &amp; Brian McManus&lt;br&gt;&lt;b&gt;Notes:&lt;/b&gt;&lt;ul&gt;&lt;li&gt;Present in Jet Lag: Battle for America (Season 4) 
Members who visited:
1) Sam
2) Brian
Challenge: Eat at In-N-Out&lt;/li&gt;&lt;/ul&gt;</description>
        <Style>
          <IconStyle>
            <color>ffd27619</color>
            <scale>1.2</scale>
            <Icon>
              <href>https://maps.google.com/mapfiles/kml/pushpin/wht-blank.png</href>
            </Icon>
          </IconStyle>
        </Style>
        <Point>
          <coordinates>-97.6663529,30.1974711</coordinates>
        </Point>
      </Placemark>
      <Placemark>
        <name>In-N-Out Burger</name>
        <description>&lt;b&gt;Team:&lt;/b&gt; Sam Denby &amp; Brian McManus&lt;br&gt;&lt;b&gt;Notes:&lt;/b&gt;&lt;ul&gt;&lt;li&gt;Present in Jet Lag: Battle for America (Season 4) 
Members who visited:
1) Sam
2) Brian
Challenge: Eat at In-N-Out&lt;/li&gt;&lt;/ul&gt;</description>
        <Style>
          <IconStyle>
            <color>ffd27619</color>
            <scale>1.2</scale>
            <Icon>
              <href>https://maps.google.com/mapfiles/kml/pushpin/wht-blank.png</href>
            </Icon>
          </IconStyle>
        </Style>
        <Point>
          <coordinates>-97.7888317655059,30.2386469887822</coordinates>
        </Point>
      </Placemark>
      <Placemark>
        <name>Sam and Brian Scooter Pick Up Spot</name>
        <description>&lt;b&gt;Team:&lt;/b&gt; Sam Denby &amp; Brian McManus&lt;br&gt;&lt;b&gt;Notes:&lt;/b&gt;&lt;ul&gt;&lt;li&gt;Present in Jet Lag: Battle for America (Season 4)
Members who visited:
1) Sam
2) Brian
Challenge: Find a four leaf clover as a leprechaun&lt;/li&gt;&lt;/ul&gt;</description>
        <Style>
          <IconStyle>
            <color>ffd27619</color>
            <scale>1.2</scale>
            <Icon>
              <href>https://maps.google.com/mapfiles/kml/pushpin/wht-blank.png</href>
            </Icon>
          </IconStyle>
        </Style>
        <Point>
          <coordinates>-118.395892189589,33.945890744506</coordinates>
        </Point>
      </Placemark>
      <Placemark>
        <name>Spirit Halloween</name>
        <description>&lt;b&gt;Team:&lt;/b&gt; Sam Denby &amp; Brian McManus&lt;br&gt;&lt;b&gt;Notes:&lt;/b&gt;&lt;ul&gt;&lt;li&gt;Present in Jet Lag: Battle for America (Season 4)
Members who visited:
1) Sam
Challenge: Find a four leaf clover as a leprechaun&lt;/li&gt;&lt;/ul&gt;</description>
        <Style>
          <IconStyle>
            <color>ffd27619</color>
            <scale>1.2</scale>
            <Icon>
              <href>https://maps.google.com/mapfiles/kml/pushpin/wht-blank.png</href>
            </Icon>
          </IconStyle>
        </Style>
        <Point>
          <coordinates>-118.3957717,33.9562202</coordinates>
        </Point>
      </Placemark>
      <Placemark>
        <name>Sam Leprechaun Changing Spot</name>
        <description>&lt;b&gt;Team:&lt;/b&gt; Sam Denby &amp; Brian McManus&lt;br&gt;&lt;b&gt;Notes:&lt;/b&gt;&lt;ul&gt;&lt;li&gt;Present in Jet Lag: Battle for America (Season 4)
Members who visited:
1) Sam
2) Brian
Challenge: Find a four leaf clover as a leprechaun&lt;/li&gt;&lt;/ul&gt;</description>
        <Style>
          <IconStyle>
            <color>ffd27619</color>
            <scale>1.2</scale>
            <Icon>
              <href>https://maps.google.com/mapfiles/kml/pushpin/wht-blank.png</href>
            </Icon>
          </IconStyle>
        </Style>
        <Point>
          <coordinates>-118.396009906161,33.9564213323223</coordinates>
        </Point>
      </Placemark>
      <Placemark>
        <name>Sam and Brian Four Leaf Clover Spot</name>
        <description>&lt;b&gt;Team:&lt;/b&gt; Sam Denby &amp; Brian McManus&lt;br&gt;&lt;b&gt;Notes:&lt;/b&gt;&lt;ul&gt;&lt;li&gt;Present in Jet Lag: Battle for America (Season 4)
Members who visited:
1) Sam
2) Brian
Challenge: Find a four leaf clover as a leprechaun&lt;/li&gt;&lt;/ul&gt;</description>
        <Style>
          <IconStyle>
            <color>ffd27619</color>
            <scale>1.2</scale>
            <Icon>
              <href>https://maps.google.com/mapfiles/kml/pushpin/wht-blank.png</href>
            </Icon>
          </IconStyle>
        </Style>
        <Point>
          <coordinates>-118.394545568676,33.9544903698402</coordinates>
        </Point>
      </Placemark>
      <Placemark>
        <name>Harry Reid International Airport</name>
        <description>&lt;b&gt;Team:&lt;/b&gt; Sam Denby &amp; Brian McManus&lt;br&gt;&lt;b&gt;Notes:&lt;/b&gt;&lt;ul&gt;&lt;li&gt;Present in Jet Lag: Battle for America (Season 4) 
Members who visited:
1) Sam
2) Brian
3) Adam
4) Ben
Battle Challenge: Draw George Washington (S4)&lt;/li&gt;&lt;/ul&gt;</description>
        <Style>
          <IconStyle>
            <color>ffd27619</color>
            <scale>1.2</scale>
            <Icon>
              <href>https://maps.google.com/mapfiles/kml/pushpin/wht-blank.png</href>
            </Icon>
          </IconStyle>
        </Style>
        <Point>
          <coordinates>-115.1537389,36.0839998</coordinates>
        </Point>
      </Placemark>
      <Placemark>
        <name>Concourse D Station</name>
        <description>&lt;b&gt;Team:&lt;/b&gt; Sam Denby &amp; Brian McManus&lt;br&gt;&lt;b&gt;Notes:&lt;/b&gt;&lt;ul&gt;&lt;li&gt;Present in Jet Lag: Battle for America (Season 4) 
Members who visited:
1) Sam
2) Brian
3) Adam
4) Ben
Challenge: Forge great American art&lt;/li&gt;&lt;/ul&gt;</description>
        <Style>
          <IconStyle>
            <color>ffd27619</color>
            <scale>1.2</scale>
            <Icon>
              <href>https://maps.google.com/mapfiles/kml/pushpin/wht-blank.png</href>
            </Icon>
          </IconStyle>
        </Style>
        <Point>
          <coordinates>-115.137675269429,36.082061884807</coordinates>
        </Point>
      </Placemark>
      <Placemark>
        <name>LAS Terminal 3 Station</name>
        <description>&lt;b&gt;Team:&lt;/b&gt; Sam Denby &amp; Brian McManus&lt;br&gt;&lt;b&gt;Notes:&lt;/b&gt;&lt;ul&gt;&lt;li&gt;Present in Jet Lag: Battle for America (Season 4) 
Members who visited:
1) Sam
2) Brian
3) Adam
4) Ben
Challenge: Forge great American art&lt;/li&gt;&lt;/ul&gt;</description>
        <Style>
          <IconStyle>
            <color>ffd27619</color>
            <scale>1.2</scale>
            <Icon>
              <href>https://maps.google.com/mapfiles/kml/pushpin/wht-blank.png</href>
            </Icon>
          </IconStyle>
        </Style>
        <Point>
          <coordinates>-115.137089681561,36.0859760195855</coordinates>
        </Point>
      </Placemark>
      <Placemark>
        <name>Las Vegas International Airport Terminal 3</name>
        <description>&lt;b&gt;Team:&lt;/b&gt; Sam Denby &amp; Brian McManus&lt;br&gt;&lt;b&gt;Notes:&lt;/b&gt;&lt;ul&gt;&lt;li&gt;Present in Jet Lag: Battle for America (Season 4) 
Members who visited:
1) Sam
2) Brian
3) Adam
4) Ben
Challenge: Forge great American art&lt;/li&gt;&lt;/ul&gt;</description>
        <Style>
          <IconStyle>
            <color>ffd27619</color>
            <scale>1.2</scale>
            <Icon>
              <href>https://maps.google.com/mapfiles/kml/pushpin/wht-blank.png</href>
            </Icon>
          </IconStyle>
        </Style>
        <Point>
          <coordinates>-115.1369489,36.086125</coordinates>
        </Point>
      </Placemark>
      <Placemark>
        <name>Jay's Market On Flamingo</name>
        <description>&lt;b&gt;Team:&lt;/b&gt; Sam Denby &amp; Brian McManus&lt;br&gt;&lt;b&gt;Notes:&lt;/b&gt;&lt;ul&gt;&lt;li&gt;Present in Jet Lag: Battle for America (Season 4)
Members who visited:
1) Sam
2) Brian
Challenge: Eat soup in a helicopter&lt;/li&gt;&lt;/ul&gt;</description>
        <Style>
          <IconStyle>
            <color>ffd27619</color>
            <scale>1.2</scale>
            <Icon>
              <href>https://maps.google.com/mapfiles/kml/pushpin/wht-blank.png</href>
            </Icon>
          </IconStyle>
        </Style>
        <Point>
          <coordinates>-115.164549,36.114974</coordinates>
        </Point>
      </Placemark>
      <Placemark>
        <name>Papillon Helicopters</name>
        <description>&lt;b&gt;Team:&lt;/b&gt; Sam Denby &amp; Brian McManus&lt;br&gt;&lt;b&gt;Notes:&lt;/b&gt;&lt;ul&gt;&lt;li&gt;Present in Jet Lag: Battle for America (Season 4) 
Members who visited:
1) Sam
2) Brian
Challenge: Eat soup in a helicopter&lt;/li&gt;&lt;/ul&gt;</description>
        <Style>
          <IconStyle>
            <color>ffd27619</color>
            <scale>1.2</scale>
            <Icon>
              <href>https://maps.google.com/mapfiles/kml/pushpin/wht-blank.png</href>
            </Icon>
          </IconStyle>
        </Style>
        <Point>
          <coordinates>-115.1627526,36.0973288</coordinates>
        </Point>
      </Placemark>
      <Placemark>
        <name>Papillon Grand Canyon Helicopters</name>
        <description>&lt;b&gt;Team:&lt;/b&gt; Sam Denby &amp; Brian McManus&lt;br&gt;&lt;b&gt;Notes:&lt;/b&gt;&lt;ul&gt;&lt;li&gt;Present in Jet Lag: Battle for America (Season 4) 
Members who visited:
1) Sam
2) Brian
Challenge: Eat soup in a helicopter&lt;/li&gt;&lt;/ul&gt;</description>
        <Style>
          <IconStyle>
            <color>ffd27619</color>
            <scale>1.2</scale>
            <Icon>
              <href>https://maps.google.com/mapfiles/kml/pushpin/wht-blank.png</href>
            </Icon>
          </IconStyle>
        </Style>
        <Point>
          <coordinates>-114.8557745,35.9486579</coordinates>
        </Point>
      </Placemark>
      <Placemark>
        <name>Papillon Helicopters Picnic Area</name>
        <description>&lt;b&gt;Team:&lt;/b&gt; Sam Denby &amp; Brian McManus&lt;br&gt;&lt;b&gt;Notes:&lt;/b&gt;&lt;ul&gt;&lt;li&gt;Present in Jet Lag: Battle for America (Season 4) 
Members who visited:
1) Sam
2) Brian
Challenge: Eat soup in a helicopter&lt;/li&gt;&lt;/ul&gt;</description>
        <Style>
          <IconStyle>
            <color>ffd27619</color>
            <scale>1.2</scale>
            <Icon>
              <href>https://maps.google.com/mapfiles/kml/pushpin/wht-blank.png</href>
            </Icon>
          </IconStyle>
        </Style>
        <Point>
          <coordinates>-113.7554181,35.9643342</coordinates>
        </Point>
      </Placemark>
      <Placemark>
        <name>3rd Battle Challenge Initiation Spot</name>
        <description>&lt;b&gt;Team:&lt;/b&gt; Sam Denby &amp; Brian McManus&lt;br&gt;&lt;b&gt;Notes:&lt;/b&gt;&lt;ul&gt;&lt;li&gt;Present in Jet Lag: Battle for America (Season 4) 
Members who visited:
1) Sam
2) Brian
The spot where Sam and Brian triggers the 3rd battle challenge of S4
Battle Challenge: Draw George Washington&lt;/li&gt;&lt;/ul&gt;</description>
        <Style>
          <IconStyle>
            <color>ffd27619</color>
            <scale>1.2</scale>
            <Icon>
              <href>https://maps.google.com/mapfiles/kml/pushpin/wht-blank.png</href>
            </Icon>
          </IconStyle>
        </Style>
        <Point>
          <coordinates>-114.836219820118,35.9782161725556</coordinates>
        </Point>
      </Placemark>
      <Placemark>
        <name>Ace Shopper Stopper</name>
        <description>&lt;b&gt;Team:&lt;/b&gt; Sam Denby &amp; Brian McManus&lt;br&gt;&lt;b&gt;Notes:&lt;/b&gt;&lt;ul&gt;&lt;li&gt;Present in Jet Lag: Battle for America (Season 4) 
Members who visited:
1) Sam
2) Brian
Battle Challenge: Draw George Washington&lt;/li&gt;&lt;/ul&gt;</description>
        <Style>
          <IconStyle>
            <color>ffd27619</color>
            <scale>1.2</scale>
            <Icon>
              <href>https://maps.google.com/mapfiles/kml/pushpin/wht-blank.png</href>
            </Icon>
          </IconStyle>
        </Style>
        <Point>
          <coordinates>-114.8379079,35.9770427</coordinates>
        </Point>
      </Placemark>
      <Placemark>
        <name>Brian Drawing Spot</name>
        <description>&lt;b&gt;Team:&lt;/b&gt; Sam Denby &amp; Brian McManus&lt;br&gt;&lt;b&gt;Notes:&lt;/b&gt;&lt;ul&gt;&lt;li&gt;Present in Jet Lag: Battle for America (Season 4) 
Members who visited:
1) Sam
2) Brian
Battle Challenge: Draw George Washington&lt;/li&gt;&lt;/ul&gt;</description>
        <Style>
          <IconStyle>
            <color>ffd27619</color>
            <scale>1.2</scale>
            <Icon>
              <href>https://maps.google.com/mapfiles/kml/pushpin/wht-blank.png</href>
            </Icon>
          </IconStyle>
        </Style>
        <Point>
          <coordinates>-114.836212835904,35.9780649733891</coordinates>
        </Point>
      </Placemark>
      <Placemark>
        <name>Denver International Airport Terminal B Station</name>
        <description>&lt;b&gt;Team:&lt;/b&gt; Sam Denby &amp; Brian McManus&lt;br&gt;&lt;b&gt;Notes:&lt;/b&gt;&lt;ul&gt;&lt;li&gt;Present in Jet Lag: Battle for America (Season 4) 
Members who visited:
1) Sam
2) Brian&lt;/li&gt;&lt;/ul&gt;</description>
        <Style>
          <IconStyle>
            <color>ffd27619</color>
            <scale>1.2</scale>
            <Icon>
              <href>https://maps.google.com/mapfiles/kml/pushpin/wht-blank.png</href>
            </Icon>
          </IconStyle>
        </Style>
        <Point>
          <coordinates>-104.673755181503,39.8587080061796</coordinates>
        </Point>
      </Placemark>
      <Placemark>
        <name>Hertz Car Rental - Denver International Airport</name>
        <description>&lt;b&gt;Team:&lt;/b&gt; Sam Denby &amp; Brian McManus&lt;br&gt;&lt;b&gt;Notes:&lt;/b&gt;&lt;ul&gt;&lt;li&gt;Present in Jet Lag: Battle for America (Season 4) 
Members who visited:
1) Sam
2) Brian&lt;/li&gt;&lt;/ul&gt;</description>
        <Style>
          <IconStyle>
            <color>ffd27619</color>
            <scale>1.2</scale>
            <Icon>
              <href>https://maps.google.com/mapfiles/kml/pushpin/wht-blank.png</href>
            </Icon>
          </IconStyle>
        </Style>
        <Point>
          <coordinates>-104.6983169,39.8368069</coordinates>
        </Point>
      </Placemark>
      <Placemark>
        <name>GlowGolf</name>
        <description>&lt;b&gt;Team:&lt;/b&gt; Sam Denby &amp; Brian McManus&lt;br&gt;&lt;b&gt;Notes:&lt;/b&gt;&lt;ul&gt;&lt;li&gt;Present in Jet Lag: Battle for America (Season 4) 
Members who visited:
1) Sam
2) Brian
Challenge: Make a hole in one at mini golf&lt;/li&gt;&lt;/ul&gt;</description>
        <Style>
          <IconStyle>
            <color>ffd27619</color>
            <scale>1.2</scale>
            <Icon>
              <href>https://maps.google.com/mapfiles/kml/pushpin/wht-blank.png</href>
            </Icon>
          </IconStyle>
        </Style>
        <Point>
          <coordinates>-104.9892488,40.4192949</coordinates>
        </Point>
      </Placemark>
      <Placemark>
        <name>Sam and Brian Advertising Pole</name>
        <description>&lt;b&gt;Team:&lt;/b&gt; Sam Denby &amp; Brian McManus&lt;br&gt;&lt;b&gt;Notes:&lt;/b&gt;&lt;ul&gt;&lt;li&gt;Present in Jet Lag: Battle for America (Season 4) 
Members who visited:
1) Sam
2) Brian
The final location of Season 4 for Sam and Brian (Adam and Ben are victorious) 
Challenge: Ineffectively advertise Jet Lag: The Game&lt;/li&gt;&lt;/ul&gt;</description>
        <Style>
          <IconStyle>
            <color>ffd27619</color>
            <scale>1.2</scale>
            <Icon>
              <href>https://maps.google.com/mapfiles/kml/pushpin/wht-blank.png</href>
            </Icon>
          </IconStyle>
        </Style>
        <Point>
          <coordinates>-105.304969804476,41.1252931627616</coordinates>
        </Point>
      </Placemark>
    </Folder>
    <Folder>
      <name>Adam Chase &amp; Ben Doyle</name>
      <Placemark>
        <name>Times Square</name>
        <description>&lt;b&gt;Team:&lt;/b&gt; Adam Chase &amp; Ben Doyle&lt;br&gt;&lt;b&gt;Notes:&lt;/b&gt;&lt;ul&gt;&lt;li&gt;The starting point of Jet Lag: Battle for America (Season 4)
Members who visited:
1) Sam
2) Brian
3) Adam
4) Ben&lt;/li&gt;&lt;/ul&gt;</description>
        <Style>
          <IconStyle>
            <color>ff2f2fd3</color>
            <scale>1.2</scale>
            <Icon>
              <href>https://maps.google.com/mapfiles/kml/pushpin/wht-blank.png</href>
            </Icon>
          </IconStyle>
        </Style>
        <Point>
          <coordinates>-73.9858626248464,40.7576019169274</coordinates>
        </Point>
      </Placemark>
      <Placemark>
        <name>432 Park Avenue</name>
        <description>&lt;b&gt;Team:&lt;/b&gt; Adam Chase &amp; Ben Doyle&lt;br&gt;&lt;b&gt;Notes:&lt;/b&gt;&lt;ul&gt;&lt;li&gt;Present in Jet Lag: Battle for America (Season 4) 
Members who visited:
1) Adam
2) Ben
Challenge: Praise the ugliest building&lt;/li&gt;&lt;/ul&gt;</description>
        <Style>
          <IconStyle>
            <color>ff2f2fd3</color>
            <scale>1.2</scale>
            <Icon>
              <href>https://maps.google.com/mapfiles/kml/pushpin/wht-blank.png</href>
            </Icon>
          </IconStyle>
        </Style>
        <Point>
          <coordinates>-73.9719035,40.7617561</coordinates>
        </Point>
      </Placemark>
      <Placemark>
        <name>5 Avenue-53 St Station</name>
        <description>&lt;b&gt;Team:&lt;/b&gt; Adam Chase &amp; Ben Doyle&lt;br&gt;&lt;b&gt;Notes:&lt;/b&gt;&lt;ul&gt;&lt;li&gt;Present in Jet Lag: Battle for America (Season 4) 
Members who visited:
1) Adam
2) Ben&lt;/li&gt;&lt;/ul&gt;</description>
        <Style>
          <IconStyle>
            <color>ff2f2fd3</color>
            <scale>1.2</scale>
            <Icon>
              <href>https://maps.google.com/mapfiles/kml/pushpin/wht-blank.png</href>
            </Icon>
          </IconStyle>
        </Style>
        <Point>
          <coordinates>-73.9754177,40.7602633</coordinates>
        </Point>
      </Placemark>
      <Placemark>
        <name>Moynihan Train Hall</name>
        <description>&lt;b&gt;Team:&lt;/b&gt; Adam Chase &amp; Ben Doyle&lt;br&gt;&lt;b&gt;Notes:&lt;/b&gt;&lt;ul&gt;&lt;li&gt;Present in Jet Lag: Battle for America (Season 4) 
Members who visited:
1) Sam
2) Brian
3) Adam
4) Ben&lt;/li&gt;&lt;/ul&gt;</description>
        <Style>
          <IconStyle>
            <color>ff2f2fd3</color>
            <scale>1.2</scale>
            <Icon>
              <href>https://maps.google.com/mapfiles/kml/pushpin/wht-blank.png</href>
            </Icon>
          </IconStyle>
        </Style>
        <Point>
          <coordinates>-73.9957489,40.7517137</coordinates>
        </Point>
      </Placemark>
      <Placemark>
        <name>34 St - Penn Station</name>
        <description>&lt;b&gt;Team:&lt;/b&gt; Adam Chase &amp; Ben Doyle&lt;br&gt;&lt;b&gt;Notes:&lt;/b&gt;&lt;ul&gt;&lt;li&gt;Present in Jet Lag: Battle for America (Season 4) 
Members who visited:
1) Adam
2) Ben&lt;/li&gt;&lt;/ul&gt;</description>
        <Style>
          <IconStyle>
            <color>ff2f2fd3</color>
            <scale>1.2</scale>
            <Icon>
              <href>https://maps.google.com/mapfiles/kml/pushpin/wht-blank.png</href>
            </Icon>
          </IconStyle>
        </Style>
        <Point>
          <coordinates>-73.993393,40.752289</coordinates>
        </Point>
      </Placemark>
      <Placemark>
        <name>Newark - Pennsylvania Station</name>
        <description>&lt;b&gt;Team:&lt;/b&gt; Adam Chase &amp; Ben Doyle&lt;br&gt;&lt;b&gt;Notes:&lt;/b&gt;&lt;ul&gt;&lt;li&gt;Present in Jet Lag: Battle for America (Season 4) 
Members who visited:
1) Sam
2) Brian
3) Adam
4) Ben&lt;/li&gt;&lt;/ul&gt;</description>
        <Style>
          <IconStyle>
            <color>ff2f2fd3</color>
            <scale>1.2</scale>
            <Icon>
              <href>https://maps.google.com/mapfiles/kml/pushpin/wht-blank.png</href>
            </Icon>
          </IconStyle>
        </Style>
        <Point>
          <coordinates>-74.1639867,40.7345989</coordinates>
        </Point>
      </Placemark>
      <Placemark>
        <name>William H. Gray III 30th Street</name>
        <description>&lt;b&gt;Team:&lt;/b&gt; Adam Chase &amp; Ben Doyle&lt;br&gt;&lt;b&gt;Notes:&lt;/b&gt;&lt;ul&gt;&lt;li&gt;Present in Jet Lag: Battle for America (Season 4) 
Members who visited:
1) Sam
2) Brian
3) Adam
4) Ben&lt;/li&gt;&lt;/ul&gt;</description>
        <Style>
          <IconStyle>
            <color>ff2f2fd3</color>
            <scale>1.2</scale>
            <Icon>
              <href>https://maps.google.com/mapfiles/kml/pushpin/wht-blank.png</href>
            </Icon>
          </IconStyle>
        </Style>
        <Point>
          <coordinates>-75.1822703,39.9567993</coordinates>
        </Point>
      </Placemark>
      <Placemark>
        <name>Cash Express Pawn Shop</name>
        <description>&lt;b&gt;Team:&lt;/b&gt; Adam Chase &amp; Ben Doyle&lt;br&gt;&lt;b&gt;Notes:&lt;/b&gt;&lt;ul&gt;&lt;li&gt;Present in Jet Lag: Battle for America (Season 4) 
Members who visited:
1) Adam
2) Ben
Challenge: Sell something from a pawn shop at a pawn shop&lt;/li&gt;&lt;/ul&gt;</description>
        <Style>
          <IconStyle>
            <color>ff2f2fd3</color>
            <scale>1.2</scale>
            <Icon>
              <href>https://maps.google.com/mapfiles/kml/pushpin/wht-blank.png</href>
            </Icon>
          </IconStyle>
        </Style>
        <Point>
          <coordinates>-75.1535294,39.949664</coordinates>
        </Point>
      </Placemark>
      <Placemark>
        <name>Philadelphia Bike Pick-Up Zone</name>
        <description>&lt;b&gt;Team:&lt;/b&gt; Adam Chase &amp; Ben Doyle&lt;br&gt;&lt;b&gt;Notes:&lt;/b&gt;&lt;ul&gt;&lt;li&gt;Present in Jet Lag: Battle for America (Season 4) 
Members who visited:
1) Adam
2) Ben
Challenge: Sell something from a pawn shop at a pawn shop&lt;/li&gt;&lt;/ul&gt;</description>
        <Style>
          <IconStyle>
            <color>ff2f2fd3</color>
            <scale>1.2</scale>
            <Icon>
              <href>https://maps.google.com/mapfiles/kml/pushpin/wht-blank.png</href>
            </Icon>
          </IconStyle>
        </Style>
        <Point>
          <coordinates>-75.1832891758156,39.9546948570502</coordinates>
        </Point>
      </Placemark>
      <Placemark>
        <name>Philadelphia Bike Drop-Off Zone</name>
        <description>&lt;b&gt;Team:&lt;/b&gt; Adam Chase &amp; Ben Doyle&lt;br&gt;&lt;b&gt;Notes:&lt;/b&gt;&lt;ul&gt;&lt;li&gt;Present in Jet Lag: Battle for America (Season 4) 
Members who visited:
1) Adam
2) Ben
Challenge: Sell something from a pawn shop at a pawn shop&lt;/li&gt;&lt;/ul&gt;</description>
        <Style>
          <IconStyle>
            <color>ff2f2fd3</color>
            <scale>1.2</scale>
            <Icon>
              <href>https://maps.google.com/mapfiles/kml/pushpin/wht-blank.png</href>
            </Icon>
          </IconStyle>
        </Style>
        <Point>
          <coordinates>-75.1562812988488,39.9500239365382</coordinates>
        </Point>
      </Placemark>
      <Placemark>
        <name>8th &amp; Market Street Station</name>
        <description>&lt;b&gt;Team:&lt;/b&gt; Adam Chase &amp; Ben Doyle&lt;br&gt;&lt;b&gt;Notes:&lt;/b&gt;&lt;ul&gt;&lt;li&gt;Present in Jet Lag: Battle for America (Season 4) 
Members who visited:
1) Adam
2) Ben
Challenge: Sell something from a pawn shop at a pawn shop&lt;/li&gt;&lt;/ul&gt;</description>
        <Style>
          <IconStyle>
            <color>ff2f2fd3</color>
            <scale>1.2</scale>
            <Icon>
              <href>https://maps.google.com/mapfiles/kml/pushpin/wht-blank.png</href>
            </Icon>
          </IconStyle>
        </Style>
        <Point>
          <coordinates>-75.153494,39.9509652</coordinates>
        </Point>
      </Placemark>
      <Placemark>
        <name>Ferry Avenue</name>
        <description>&lt;b&gt;Team:&lt;/b&gt; Adam Chase &amp; Ben Doyle&lt;br&gt;&lt;b&gt;Notes:&lt;/b&gt;&lt;ul&gt;&lt;li&gt;Present in Jet Lag: Battle for America (Season 4) 
Members who visited:
1) Adam
2) Ben
Challenge: Sell something from a pawn shop at a pawn shop&lt;/li&gt;&lt;/ul&gt;</description>
        <Style>
          <IconStyle>
            <color>ff2f2fd3</color>
            <scale>1.2</scale>
            <Icon>
              <href>https://maps.google.com/mapfiles/kml/pushpin/wht-blank.png</href>
            </Icon>
          </IconStyle>
        </Style>
        <Point>
          <coordinates>-75.0917842,39.9225682</coordinates>
        </Point>
      </Placemark>
      <Placemark>
        <name>E and B Pawnbroker</name>
        <description>&lt;b&gt;Team:&lt;/b&gt; Adam Chase &amp; Ben Doyle&lt;br&gt;&lt;b&gt;Notes:&lt;/b&gt;&lt;ul&gt;&lt;li&gt;Present in Jet Lag: Battle for America (Season 4) 
Members who visited:
1) Adam
2) Ben
Challenge: Sell something from a pawn shop at a pawn shop&lt;/li&gt;&lt;/ul&gt;</description>
        <Style>
          <IconStyle>
            <color>ff2f2fd3</color>
            <scale>1.2</scale>
            <Icon>
              <href>https://maps.google.com/mapfiles/kml/pushpin/wht-blank.png</href>
            </Icon>
          </IconStyle>
        </Style>
        <Point>
          <coordinates>-74.980924,39.9571799</coordinates>
        </Point>
      </Placemark>
      <Placemark>
        <name>Wilmington Station</name>
        <description>&lt;b&gt;Team:&lt;/b&gt; Adam Chase &amp; Ben Doyle&lt;br&gt;&lt;b&gt;Notes:&lt;/b&gt;&lt;ul&gt;&lt;li&gt;Present in Jet Lag: Battle for America (Season 4) 
Members who visited:
1) Adam
2) Ben&lt;/li&gt;&lt;/ul&gt;</description>
        <Style>
          <IconStyle>
            <color>ff2f2fd3</color>
            <scale>1.2</scale>
            <Icon>
              <href>https://maps.google.com/mapfiles/kml/pushpin/wht-blank.png</href>
            </Icon>
          </IconStyle>
        </Style>
        <Point>
          <coordinates>-75.5508874,39.7370826</coordinates>
        </Point>
      </Placemark>
      <Placemark>
        <name>Ebright Azimuth Marker</name>
        <description>&lt;b&gt;Team:&lt;/b&gt; Adam Chase &amp; Ben Doyle&lt;br&gt;&lt;b&gt;Notes:&lt;/b&gt;&lt;ul&gt;&lt;li&gt;Present in Jet Lag: Battle for America (Season 4) 
Members who visited:
1) Adam
2) Ben
Challenge: High five at the highest point&lt;/li&gt;&lt;/ul&gt;</description>
        <Style>
          <IconStyle>
            <color>ff2f2fd3</color>
            <scale>1.2</scale>
            <Icon>
              <href>https://maps.google.com/mapfiles/kml/pushpin/wht-blank.png</href>
            </Icon>
          </IconStyle>
        </Style>
        <Point>
          <coordinates>-75.519103,39.8360424</coordinates>
        </Point>
      </Placemark>
      <Placemark>
        <name>Baltimore Penn Station</name>
        <description>&lt;b&gt;Team:&lt;/b&gt; Adam Chase &amp; Ben Doyle&lt;br&gt;&lt;b&gt;Notes:&lt;/b&gt;&lt;ul&gt;&lt;li&gt;Present in Jet Lag: Battle for America (Season 4) 
Members who visited:
1) Adam
2) Ben&lt;/li&gt;&lt;/ul&gt;</description>
        <Style>
          <IconStyle>
            <color>ff2f2fd3</color>
            <scale>1.2</scale>
            <Icon>
              <href>https://maps.google.com/mapfiles/kml/pushpin/wht-blank.png</href>
            </Icon>
          </IconStyle>
        </Style>
        <Point>
          <coordinates>-76.6156952,39.3073174</coordinates>
        </Point>
      </Placemark>
      <Placemark>
        <name>Penn Station Garage</name>
        <description>&lt;b&gt;Team:&lt;/b&gt; Adam Chase &amp; Ben Doyle&lt;br&gt;&lt;b&gt;Notes:&lt;/b&gt;&lt;ul&gt;&lt;li&gt;Present in Jet Lag: Battle for America (Season 4) 
Members who visited:
1) Adam
2) Ben
Battle Challenge: Find the most foreign license plate&lt;/li&gt;&lt;/ul&gt;</description>
        <Style>
          <IconStyle>
            <color>ff2f2fd3</color>
            <scale>1.2</scale>
            <Icon>
              <href>https://maps.google.com/mapfiles/kml/pushpin/wht-blank.png</href>
            </Icon>
          </IconStyle>
        </Style>
        <Point>
          <coordinates>-76.614507,39.3066904</coordinates>
        </Point>
      </Placemark>
      <Placemark>
        <name>Grand Central - 42 St Station</name>
        <description>&lt;b&gt;Team:&lt;/b&gt; Adam Chase &amp; Ben Doyle&lt;br&gt;&lt;b&gt;Notes:&lt;/b&gt;&lt;ul&gt;&lt;li&gt;Present in Jet Lag: Battle for America (Season 4) 
Members who visited:
1) Adam
2) Ben&lt;/li&gt;&lt;/ul&gt;</description>
        <Style>
          <IconStyle>
            <color>ff2f2fd3</color>
            <scale>1.2</scale>
            <Icon>
              <href>https://maps.google.com/mapfiles/kml/pushpin/wht-blank.png</href>
            </Icon>
          </IconStyle>
        </Style>
        <Point>
          <coordinates>-73.9774869,40.7524688</coordinates>
        </Point>
      </Placemark>
      <Placemark>
        <name>Grand Central Terminal</name>
        <description>&lt;b&gt;Team:&lt;/b&gt; Adam Chase &amp; Ben Doyle&lt;br&gt;&lt;b&gt;Notes:&lt;/b&gt;&lt;ul&gt;&lt;li&gt;Present in Jet Lag: Battle for America (Season 4) 
Members who visited:
1) Adam
2) Ben&lt;/li&gt;&lt;/ul&gt;</description>
        <Style>
          <IconStyle>
            <color>ff2f2fd3</color>
            <scale>1.2</scale>
            <Icon>
              <href>https://maps.google.com/mapfiles/kml/pushpin/wht-blank.png</href>
            </Icon>
          </IconStyle>
        </Style>
        <Point>
          <coordinates>-73.9772294,40.7527262</coordinates>
        </Point>
      </Placemark>
      <Placemark>
        <name>New Haven Union Station</name>
        <description>&lt;b&gt;Team:&lt;/b&gt; Adam Chase &amp; Ben Doyle&lt;br&gt;&lt;b&gt;Notes:&lt;/b&gt;&lt;ul&gt;&lt;li&gt;Present in Jet Lag: Battle for America (Season 4) 
Members who visited:
1) Adam
2) Ben
Challenge: Respect the weirdest roadside attraction&lt;/li&gt;&lt;/ul&gt;</description>
        <Style>
          <IconStyle>
            <color>ff2f2fd3</color>
            <scale>1.2</scale>
            <Icon>
              <href>https://maps.google.com/mapfiles/kml/pushpin/wht-blank.png</href>
            </Icon>
          </IconStyle>
        </Style>
        <Point>
          <coordinates>-72.9267039,41.2976508</coordinates>
        </Point>
      </Placemark>
      <Placemark>
        <name>PEZ Visitor Center</name>
        <description>&lt;b&gt;Team:&lt;/b&gt; Adam Chase &amp; Ben Doyle&lt;br&gt;&lt;b&gt;Notes:&lt;/b&gt;&lt;ul&gt;&lt;li&gt;Present in Jet Lag: Battle for America (Season 4) 
Members who visited:
1) Adam
2) Ben&lt;/li&gt;&lt;/ul&gt;</description>
        <Style>
          <IconStyle>
            <color>ff2f2fd3</color>
            <scale>1.2</scale>
            <Icon>
              <href>https://maps.google.com/mapfiles/kml/pushpin/wht-blank.png</href>
            </Icon>
          </IconStyle>
        </Style>
        <Point>
          <coordinates>-72.9970315,41.2636461</coordinates>
        </Point>
      </Placemark>
      <Placemark>
        <name>Providence Station</name>
        <description>&lt;b&gt;Team:&lt;/b&gt; Adam Chase &amp; Ben Doyle&lt;br&gt;&lt;b&gt;Notes:&lt;/b&gt;&lt;ul&gt;&lt;li&gt;Present in Jet Lag: Battle for America (Season 4) 
Members who visited:
1) Adam
2) Ben
Challenge: Get one team member intoxicated&lt;/li&gt;&lt;/ul&gt;</description>
        <Style>
          <IconStyle>
            <color>ff2f2fd3</color>
            <scale>1.2</scale>
            <Icon>
              <href>https://maps.google.com/mapfiles/kml/pushpin/wht-blank.png</href>
            </Icon>
          </IconStyle>
        </Style>
        <Point>
          <coordinates>-71.4132827,41.8292499</coordinates>
        </Point>
      </Placemark>
      <Placemark>
        <name>Harry's Bar &amp; Burger</name>
        <description>&lt;b&gt;Team:&lt;/b&gt; Adam Chase &amp; Ben Doyle&lt;br&gt;&lt;b&gt;Notes:&lt;/b&gt;&lt;ul&gt;&lt;li&gt;Present in Jet Lag: Battle for America (Season 4) 
Members who visited:
1) Adam
2) Ben
Challenge: Get one team member intoxicated&lt;/li&gt;&lt;/ul&gt;</description>
        <Style>
          <IconStyle>
            <color>ff2f2fd3</color>
            <scale>1.2</scale>
            <Icon>
              <href>https://maps.google.com/mapfiles/kml/pushpin/wht-blank.png</href>
            </Icon>
          </IconStyle>
        </Style>
        <Point>
          <coordinates>-71.4093895,41.8283046</coordinates>
        </Point>
      </Placemark>
      <Placemark>
        <name>South Station (Train Terminal)</name>
        <description>&lt;b&gt;Team:&lt;/b&gt; Adam Chase &amp; Ben Doyle&lt;br&gt;&lt;b&gt;Notes:&lt;/b&gt;&lt;ul&gt;&lt;li&gt;Present in Jet Lag: Battle for America (Season 4) 
Members who visited:
1) Adam
2) Ben&lt;/li&gt;&lt;/ul&gt;</description>
        <Style>
          <IconStyle>
            <color>ff2f2fd3</color>
            <scale>1.2</scale>
            <Icon>
              <href>https://maps.google.com/mapfiles/kml/pushpin/wht-blank.png</href>
            </Icon>
          </IconStyle>
        </Style>
        <Point>
          <coordinates>-71.0552286,42.3522322</coordinates>
        </Point>
      </Placemark>
      <Placemark>
        <name>2nd Battle Challenge Initiation Spot</name>
        <description>&lt;b&gt;Team:&lt;/b&gt; Adam Chase &amp; Ben Doyle&lt;br&gt;&lt;b&gt;Notes:&lt;/b&gt;&lt;ul&gt;&lt;li&gt;Present in Jet Lag: Battle for America (Season 4) 
Members who visited:
1) Adam
2) Ben
The spot where Adam and Ben triggers the 2nd battle challenge of S4
Battle Challenge: Photograph the most birds&lt;/li&gt;&lt;/ul&gt;</description>
        <Style>
          <IconStyle>
            <color>ff2f2fd3</color>
            <scale>1.2</scale>
            <Icon>
              <href>https://maps.google.com/mapfiles/kml/pushpin/wht-blank.png</href>
            </Icon>
          </IconStyle>
        </Style>
        <Point>
          <coordinates>-71.0563690222332,42.3527825611058</coordinates>
        </Point>
      </Placemark>
      <Placemark>
        <name>Adam and Ben Bird Spot #1</name>
        <description>&lt;b&gt;Team:&lt;/b&gt; Adam Chase &amp; Ben Doyle&lt;br&gt;&lt;b&gt;Notes:&lt;/b&gt;&lt;ul&gt;&lt;li&gt;Present in Jet Lag: Battle for America (Season 4) 
Members who visited:
1) Adam
2) Ben
Battle Challenge: Photograph the most birds
Birds Found: 1
Total Bird Counter: 1&lt;/li&gt;&lt;/ul&gt;</description>
        <Style>
          <IconStyle>
            <color>ff2f2fd3</color>
            <scale>1.2</scale>
            <Icon>
              <href>https://maps.google.com/mapfiles/kml/pushpin/wht-blank.png</href>
            </Icon>
          </IconStyle>
        </Style>
        <Point>
          <coordinates>-71.0557890498199,42.3526105956536</coordinates>
        </Point>
      </Placemark>
      <Placemark>
        <name>Adam and Ben Bird Spot #2</name>
        <description>&lt;b&gt;Team:&lt;/b&gt; Adam Chase &amp; Ben Doyle&lt;br&gt;&lt;b&gt;Notes:&lt;/b&gt;&lt;ul&gt;&lt;li&gt;Present in Jet Lag: Battle for America (Season 4) 
Members who visited:
1) Adam
2) Ben
Battle Challenge: Photograph the most birds
Birds Found: 1
Total Bird Count: 2&lt;/li&gt;&lt;/ul&gt;</description>
        <Style>
          <IconStyle>
            <color>ff2f2fd3</color>
            <scale>1.2</scale>
            <Icon>
              <href>https://maps.google.com/mapfiles/kml/pushpin/wht-blank.png</href>
            </Icon>
          </IconStyle>
        </Style>
        <Point>
          <coordinates>-71.0571808177964,42.3521648618856</coordinates>
        </Point>
      </Placemark>
      <Placemark>
        <name>Adam and Ben Bird Spot #3</name>
        <description>&lt;b&gt;Team:&lt;/b&gt; Adam Chase &amp; Ben Doyle&lt;br&gt;&lt;b&gt;Notes:&lt;/b&gt;&lt;ul&gt;&lt;li&gt;Present in Jet Lag: Battle for America (Season 4) 
Members who visited:
1) Adam
2) Ben
Battle Challenge: Photograph the most birds
Birds Found: 1
Total Bird Count: 4&lt;/li&gt;&lt;/ul&gt;</description>
        <Style>
          <IconStyle>
            <color>ff2f2fd3</color>
            <scale>1.2</scale>
            <Icon>
              <href>https://maps.google.com/mapfiles/kml/pushpin/wht-blank.png</href>
            </Icon>
          </IconStyle>
        </Style>
        <Point>
          <coordinates>-71.0576240208956,42.3523504325943</coordinates>
        </Point>
      </Placemark>
      <Placemark>
        <name>Sam and Brian Bird Spot #1</name>
        <description>&lt;b&gt;Team:&lt;/b&gt; Adam Chase &amp; Ben Doyle&lt;br&gt;&lt;b&gt;Notes:&lt;/b&gt;&lt;ul&gt;&lt;li&gt;Present in Jet Lag: Battle for America (Season 4) 
Members who visited:
1) Adam
2) Ben
Battle Challenge: Photograph the most birds
Birds Found: 1
Total Bird Count: 1&lt;/li&gt;&lt;/ul&gt;</description>
        <Style>
          <IconStyle>
            <color>ff2f2fd3</color>
            <scale>1.2</scale>
            <Icon>
              <href>https://maps.google.com/mapfiles/kml/pushpin/wht-blank.png</href>
            </Icon>
          </IconStyle>
        </Style>
        <Point>
          <coordinates>-72.6255220652217,41.9120801625805</coordinates>
        </Point>
      </Placemark>
      <Placemark>
        <name>Adam and Ben Bird Spot #4</name>
        <description>&lt;b&gt;Team:&lt;/b&gt; Adam Chase &amp; Ben Doyle&lt;br&gt;&lt;b&gt;Notes:&lt;/b&gt;&lt;ul&gt;&lt;li&gt;Present in Jet Lag: Battle for America (Season 4) 
Members who visited:
1) Adam
2) Ben
Battle Challenge: Photograph the most birds
Birds Found: 1
Total Bird Count: 10&lt;/li&gt;&lt;/ul&gt;</description>
        <Style>
          <IconStyle>
            <color>ff2f2fd3</color>
            <scale>1.2</scale>
            <Icon>
              <href>https://maps.google.com/mapfiles/kml/pushpin/wht-blank.png</href>
            </Icon>
          </IconStyle>
        </Style>
        <Point>
          <coordinates>-71.0574507376181,42.3522343671313</coordinates>
        </Point>
      </Placemark>
      <Placemark>
        <name>Adam and Ben Bird Spot #5</name>
        <description>&lt;b&gt;Team:&lt;/b&gt; Adam Chase &amp; Ben Doyle&lt;br&gt;&lt;b&gt;Notes:&lt;/b&gt;&lt;ul&gt;&lt;li&gt;Present in Jet Lag: Battle for America (Season 4) 
Members who visited:
1) Adam
2) Ben
Battle Challenge: Photograph the most birds
Birds Found: 1
Total Bird Count: 16&lt;/li&gt;&lt;/ul&gt;</description>
        <Style>
          <IconStyle>
            <color>ff2f2fd3</color>
            <scale>1.2</scale>
            <Icon>
              <href>https://maps.google.com/mapfiles/kml/pushpin/wht-blank.png</href>
            </Icon>
          </IconStyle>
        </Style>
        <Point>
          <coordinates>-71.0563489457364,42.3526827267167</coordinates>
        </Point>
      </Placemark>
      <Placemark>
        <name>Adam and Ben Bird Spot #6</name>
        <description>&lt;b&gt;Team:&lt;/b&gt; Adam Chase &amp; Ben Doyle&lt;br&gt;&lt;b&gt;Notes:&lt;/b&gt;&lt;ul&gt;&lt;li&gt;Present in Jet Lag: Battle for America (Season 4) 
Members who visited:
1) Adam
2) Ben
Battle Challenge: Photograph the most birds
Birds Found: 9
Total Bird Count: 26&lt;/li&gt;&lt;/ul&gt;</description>
        <Style>
          <IconStyle>
            <color>ff2f2fd3</color>
            <scale>1.2</scale>
            <Icon>
              <href>https://maps.google.com/mapfiles/kml/pushpin/wht-blank.png</href>
            </Icon>
          </IconStyle>
        </Style>
        <Point>
          <coordinates>-71.0562367999892,42.3528161185958</coordinates>
        </Point>
      </Placemark>
      <Placemark>
        <name>Adam and Ben Bird Spot #7</name>
        <description>&lt;b&gt;Team:&lt;/b&gt; Adam Chase &amp; Ben Doyle&lt;br&gt;&lt;b&gt;Notes:&lt;/b&gt;&lt;ul&gt;&lt;li&gt;Present in Jet Lag: Battle for America (Season 4) 
Members who visited:
1) Adam
2) Ben
Battle Challenge: Photograph the most birds
Birds Found: 2
Total Bird Counter: 29&lt;/li&gt;&lt;/ul&gt;</description>
        <Style>
          <IconStyle>
            <color>ff2f2fd3</color>
            <scale>1.2</scale>
            <Icon>
              <href>https://maps.google.com/mapfiles/kml/pushpin/wht-blank.png</href>
            </Icon>
          </IconStyle>
        </Style>
        <Point>
          <coordinates>-71.0556112427482,42.3525237159399</coordinates>
        </Point>
      </Placemark>
      <Placemark>
        <name>Boston Logan Internation Airport Terminal C</name>
        <description>&lt;b&gt;Team:&lt;/b&gt; Adam Chase &amp; Ben Doyle&lt;br&gt;&lt;b&gt;Notes:&lt;/b&gt;&lt;ul&gt;&lt;li&gt;Present in Jet Lag: Battle for America (Season 4) 
Members who visited:
1) Adam
2) Ben&lt;/li&gt;&lt;/ul&gt;</description>
        <Style>
          <IconStyle>
            <color>ff2f2fd3</color>
            <scale>1.2</scale>
            <Icon>
              <href>https://maps.google.com/mapfiles/kml/pushpin/wht-blank.png</href>
            </Icon>
          </IconStyle>
        </Style>
        <Point>
          <coordinates>-71.0164437,42.3666337</coordinates>
        </Point>
      </Placemark>
      <Placemark>
        <name>Legal Sea Foods - Logan Airport Terminal C</name>
        <description>&lt;b&gt;Team:&lt;/b&gt; Adam Chase &amp; Ben Doyle&lt;br&gt;&lt;b&gt;Notes:&lt;/b&gt;&lt;ul&gt;&lt;li&gt;Present in Jet Lag: Battle for America (Season 4) 
Members who visited:
1) Adam
2) Ben
Challenge: Drive a Chevy to a levee and eat pie&lt;/li&gt;&lt;/ul&gt;</description>
        <Style>
          <IconStyle>
            <color>ff2f2fd3</color>
            <scale>1.2</scale>
            <Icon>
              <href>https://maps.google.com/mapfiles/kml/pushpin/wht-blank.png</href>
            </Icon>
          </IconStyle>
        </Style>
        <Point>
          <coordinates>-71.0156196,42.3668021</coordinates>
        </Point>
      </Placemark>
      <Placemark>
        <name>Terminal 1 Station</name>
        <description>&lt;b&gt;Team:&lt;/b&gt; Adam Chase &amp; Ben Doyle&lt;br&gt;&lt;b&gt;Notes:&lt;/b&gt;&lt;ul&gt;&lt;li&gt;Present in Jet Lag: Battle for America (Season 4) 
Members who visited:
1) Adam
2) Ben
Challenge: Drive a Chevy to a levee and eat pie&lt;/li&gt;&lt;/ul&gt;</description>
        <Style>
          <IconStyle>
            <color>ff2f2fd3</color>
            <scale>1.2</scale>
            <Icon>
              <href>https://maps.google.com/mapfiles/kml/pushpin/wht-blank.png</href>
            </Icon>
          </IconStyle>
        </Style>
        <Point>
          <coordinates>-87.90559,41.97925</coordinates>
        </Point>
      </Placemark>
      <Placemark>
        <name>MMF</name>
        <description>&lt;b&gt;Team:&lt;/b&gt; Adam Chase &amp; Ben Doyle&lt;br&gt;&lt;b&gt;Notes:&lt;/b&gt;&lt;ul&gt;&lt;li&gt;Present in Jet Lag: Battle for America (Season 4) 
Members who visited:
1) Adam
2) Ben
Challenge: Drive a Chevy to a levee and eat pie&lt;/li&gt;&lt;/ul&gt;</description>
        <Style>
          <IconStyle>
            <color>ff2f2fd3</color>
            <scale>1.2</scale>
            <Icon>
              <href>https://maps.google.com/mapfiles/kml/pushpin/wht-blank.png</href>
            </Icon>
          </IconStyle>
        </Style>
        <Point>
          <coordinates>-87.88226,41.99283</coordinates>
        </Point>
      </Placemark>
      <Placemark>
        <name>Avis Car Rental</name>
        <description>&lt;b&gt;Team:&lt;/b&gt; Adam Chase &amp; Ben Doyle&lt;br&gt;&lt;b&gt;Notes:&lt;/b&gt;&lt;ul&gt;&lt;li&gt;Present in Jet Lag: Battle for America (Season 4) 
Members who visited:
1) Adam
2) Ben
Challenge: Drive a Chevy to a levee and eat pie&lt;/li&gt;&lt;/ul&gt;</description>
        <Style>
          <IconStyle>
            <color>ff2f2fd3</color>
            <scale>1.2</scale>
            <Icon>
              <href>https://maps.google.com/mapfiles/kml/pushpin/wht-blank.png</href>
            </Icon>
          </IconStyle>
        </Style>
        <Point>
          <coordinates>-87.8822809,41.9928947</coordinates>
        </Point>
      </Placemark>
      <Placemark>
        <name>O’Hare Multi Modal Facility (MMF)</name>
        <description>&lt;b&gt;Team:&lt;/b&gt; Adam Chase &amp; Ben Doyle&lt;br&gt;&lt;b&gt;Notes:&lt;/b&gt;&lt;ul&gt;&lt;li&gt;Present in Jet Lag: Battle for America (Season 4) 
Members who visited:
1) Adam
2) Ben
Challenge: Drive a Chevy to a levee and eat pie&lt;/li&gt;&lt;/ul&gt;</description>
        <Style>
          <IconStyle>
            <color>ff2f2fd3</color>
            <scale>1.2</scale>
            <Icon>
              <href>https://maps.google.com/mapfiles/kml/pushpin/wht-blank.png</href>
            </Icon>
          </IconStyle>
        </Style>
        <Point>
          <coordinates>-87.8811914,41.9931662</coordinates>
        </Point>
      </Placemark>
      <Placemark>
        <name>Adam and Ben Day 2 Ending Spot</name>
        <description>&lt;b&gt;Team:&lt;/b&gt; Adam Chase &amp; Ben Doyle&lt;br&gt;&lt;b&gt;Notes:&lt;/b&gt;&lt;ul&gt;&lt;li&gt;Present in Jet Lag: Battle for America (Season 4) 
Members who visited:
1) Adam
2) Ben
Challenge: Drive a Chevy to a levee and eat pie
The ending spot for Ben and Adam for Day 2 of Season 4&lt;/li&gt;&lt;/ul&gt;&lt;br&gt;&lt;b&gt;End of day 2&lt;/b&gt;</description>
        <Style>
          <IconStyle>
            <color>ff2f2fd3</color>
            <scale>1.2</scale>
            <Icon>
              <href>https://maps.google.com/mapfiles/kml/pushpin/wht-blank.png</href>
            </Icon>
          </IconStyle>
        </Style>
        <Point>
          <coordinates>-87.8843663578933,41.997943092712</coordinates>
        </Point>
      </Placemark>
      <Placemark>
        <name>Adam and Ben Levee Challenge Spot</name>
        <description>&lt;b&gt;Team:&lt;/b&gt; Adam Chase &amp; Ben Doyle&lt;br&gt;&lt;b&gt;Notes:&lt;/b&gt;&lt;ul&gt;&lt;li&gt;Present in Jet Lag: Battle for America (Season 4) 
Members who visited:
1) Adam
2) Ben
Challenge: Drive a Chevy to a levee and eat pie&lt;/li&gt;&lt;/ul&gt;</description>
        <Style>
          <IconStyle>
            <color>ff2f2fd3</color>
            <scale>1.2</scale>
            <Icon>
              <href>https://maps.google.com/mapfiles/kml/pushpin/wht-blank.png</href>
            </Icon>
          </IconStyle>
        </Style>
        <Point>
          <coordinates>-87.8880569750806,42.1084355884932</coordinates>
        </Point>
      </Placemark>
      <Placemark>
        <name>Indiana Dunes Visitor Center</name>
        <description>&lt;b&gt;Team:&lt;/b&gt; Adam Chase &amp; Ben Doyle&lt;br&gt;&lt;b&gt;Notes:&lt;/b&gt;&lt;ul&gt;&lt;li&gt;Present in Jet Lag: Battle for America (Season 4) 
Members who visited:
1) Adam
2) Ben
Challenge: Criticize the most beautiful place&lt;/li&gt;&lt;/ul&gt;</description>
        <Style>
          <IconStyle>
            <color>ff2f2fd3</color>
            <scale>1.2</scale>
            <Icon>
              <href>https://maps.google.com/mapfiles/kml/pushpin/wht-blank.png</href>
            </Icon>
          </IconStyle>
        </Style>
        <Point>
          <coordinates>-87.054429,41.6337924</coordinates>
        </Point>
      </Placemark>
      <Placemark>
        <name>Adam and Ben Criticizing Spot</name>
        <description>&lt;b&gt;Team:&lt;/b&gt; Adam Chase &amp; Ben Doyle&lt;br&gt;&lt;b&gt;Notes:&lt;/b&gt;&lt;ul&gt;&lt;li&gt;Present in Jet Lag: Battle for America (Season 4) 
Members who visited:
1) Adam
2) Ben
Challenge: Criticize the most beautiful place&lt;/li&gt;&lt;/ul&gt;</description>
        <Style>
          <IconStyle>
            <color>ff2f2fd3</color>
            <scale>1.2</scale>
            <Icon>
              <href>https://maps.google.com/mapfiles/kml/pushpin/wht-blank.png</href>
            </Icon>
          </IconStyle>
        </Style>
        <Point>
          <coordinates>-86.9332446474333,41.7088137306646</coordinates>
        </Point>
      </Placemark>
      <Placemark>
        <name>Jackie's Cafe</name>
        <description>&lt;b&gt;Team:&lt;/b&gt; Adam Chase &amp; Ben Doyle&lt;br&gt;&lt;b&gt;Notes:&lt;/b&gt;&lt;ul&gt;&lt;li&gt;Present in Jet Lag: Battle for America (Season 4) 
Members who visited:
1) Adam
2) Ben
Challenge: Seduce and debauch an unmarried woman&lt;/li&gt;&lt;/ul&gt;</description>
        <Style>
          <IconStyle>
            <color>ff2f2fd3</color>
            <scale>1.2</scale>
            <Icon>
              <href>https://maps.google.com/mapfiles/kml/pushpin/wht-blank.png</href>
            </Icon>
          </IconStyle>
        </Style>
        <Point>
          <coordinates>-86.7520755,41.7901505</coordinates>
        </Point>
      </Placemark>
      <Placemark>
        <name>Adam and Ben S&amp;D Spot</name>
        <description>&lt;b&gt;Team:&lt;/b&gt; Adam Chase &amp; Ben Doyle&lt;br&gt;&lt;b&gt;Notes:&lt;/b&gt;&lt;ul&gt;&lt;li&gt;Present in Jet Lag: Battle for America (Season 4) 
Members who visited:
1) Adam
2) Ben
Challenge: Seduce and debauch an unmarried woman&lt;/li&gt;&lt;/ul&gt;</description>
        <Style>
          <IconStyle>
            <color>ff2f2fd3</color>
            <scale>1.2</scale>
            <Icon>
              <href>https://maps.google.com/mapfiles/kml/pushpin/wht-blank.png</href>
            </Icon>
          </IconStyle>
        </Style>
        <Point>
          <coordinates>-86.7520776351154,41.7900578243236</coordinates>
        </Point>
      </Placemark>
      <Placemark>
        <name>Harry Reid International Airport</name>
        <description>&lt;b&gt;Team:&lt;/b&gt; Adam Chase &amp; Ben Doyle&lt;br&gt;&lt;b&gt;Notes:&lt;/b&gt;&lt;ul&gt;&lt;li&gt;Present in Jet Lag: Battle for America (Season 4) 
Members who visited:
1) Sam
2) Brian
3) Adam
4) Ben
Battle Challenge: Draw George Washington (S4)&lt;/li&gt;&lt;/ul&gt;</description>
        <Style>
          <IconStyle>
            <color>ff2f2fd3</color>
            <scale>1.2</scale>
            <Icon>
              <href>https://maps.google.com/mapfiles/kml/pushpin/wht-blank.png</href>
            </Icon>
          </IconStyle>
        </Style>
        <Point>
          <coordinates>-115.1537389,36.0839998</coordinates>
        </Point>
      </Placemark>
      <Placemark>
        <name>Hudson News</name>
        <description>&lt;b&gt;Team:&lt;/b&gt; Adam Chase &amp; Ben Doyle&lt;br&gt;&lt;b&gt;Notes:&lt;/b&gt;&lt;ul&gt;&lt;li&gt;Present in Jet Lag: Battle for America (Season 4) 
Members who visited:
1) Adam
2) Ben
Challenge: Forge great American art&lt;/li&gt;&lt;/ul&gt;</description>
        <Style>
          <IconStyle>
            <color>ff2f2fd3</color>
            <scale>1.2</scale>
            <Icon>
              <href>https://maps.google.com/mapfiles/kml/pushpin/wht-blank.png</href>
            </Icon>
          </IconStyle>
        </Style>
        <Point>
          <coordinates>-115.138874817824,36.0824573058093</coordinates>
        </Point>
      </Placemark>
      <Placemark>
        <name>The BLVD</name>
        <description>&lt;b&gt;Team:&lt;/b&gt; Adam Chase &amp; Ben Doyle&lt;br&gt;&lt;b&gt;Notes:&lt;/b&gt;&lt;ul&gt;&lt;li&gt;Present in Jet Lag: Battle for America (Season 4) 
Members who visited:
1) Adam
2) Ben
Challenge: Forge great American art&lt;/li&gt;&lt;/ul&gt;</description>
        <Style>
          <IconStyle>
            <color>ff2f2fd3</color>
            <scale>1.2</scale>
            <Icon>
              <href>https://maps.google.com/mapfiles/kml/pushpin/wht-blank.png</href>
            </Icon>
          </IconStyle>
        </Style>
        <Point>
          <coordinates>-115.138861338324,36.0821535738373</coordinates>
        </Point>
      </Placemark>
      <Placemark>
        <name>Hudson News</name>
        <description>&lt;b&gt;Team:&lt;/b&gt; Adam Chase &amp; Ben Doyle&lt;br&gt;&lt;b&gt;Notes:&lt;/b&gt;&lt;ul&gt;&lt;li&gt;Present in Jet Lag: Battle for America (Season 4) 
Members who visited:
1) Adam
2) Ben
Challenge: Forge great American art
Note: This is a separate Hudson News store compared to the one near Gate D51&lt;/li&gt;&lt;/ul&gt;</description>
        <Style>
          <IconStyle>
            <color>ff2f2fd3</color>
            <scale>1.2</scale>
            <Icon>
              <href>https://maps.google.com/mapfiles/kml/pushpin/wht-blank.png</href>
            </Icon>
          </IconStyle>
        </Style>
        <Point>
          <coordinates>-115.138573197748,36.0817600903926</coordinates>
        </Point>
      </Placemark>
      <Placemark>
        <name>Concourse D Station</name>
        <description>&lt;b&gt;Team:&lt;/b&gt; Adam Chase &amp; Ben Doyle&lt;br&gt;&lt;b&gt;Notes:&lt;/b&gt;&lt;ul&gt;&lt;li&gt;Present in Jet Lag: Battle for America (Season 4) 
Members who visited:
1) Sam
2) Brian
3) Adam
4) Ben
Challenge: Forge great American art&lt;/li&gt;&lt;/ul&gt;</description>
        <Style>
          <IconStyle>
            <color>ff2f2fd3</color>
            <scale>1.2</scale>
            <Icon>
              <href>https://maps.google.com/mapfiles/kml/pushpin/wht-blank.png</href>
            </Icon>
          </IconStyle>
        </Style>
        <Point>
          <coordinates>-115.137675269429,36.082061884807</coordinates>
        </Point>
      </Placemark>
      <Placemark>
        <name>LAS Terminal 3 Station</name>
        <description>&lt;b&gt;Team:&lt;/b&gt; Adam Chase &amp; Ben Doyle&lt;br&gt;&lt;b&gt;Notes:&lt;/b&gt;&lt;ul&gt;&lt;li&gt;Present in Jet Lag: Battle for America (Season 4) 
Members who visited:
1) Sam
2) Brian
3) Adam
4) Ben
Challenge: Forge great American art&lt;/li&gt;&lt;/ul&gt;</description>
        <Style>
          <IconStyle>
            <color>ff2f2fd3</color>
            <scale>1.2</scale>
            <Icon>
              <href>https://maps.google.com/mapfiles/kml/pushpin/wht-blank.png</href>
            </Icon>
          </IconStyle>
        </Style>
        <Point>
          <coordinates>-115.137089681561,36.0859760195855</coordinates>
        </Point>
      </Placemark>
      <Placemark>
        <name>Las Vegas International Airport Terminal 3</name>
        <description>&lt;b&gt;Team:&lt;/b&gt; Adam Chase &amp; Ben Doyle&lt;br&gt;&lt;b&gt;Notes:&lt;/b&gt;&lt;ul&gt;&lt;li&gt;Present in Jet Lag: Battle for America (Season 4) 
Members who visited:
1) Sam
2) Brian
3) Adam
4) Ben
Challenge: Forge great American art&lt;/li&gt;&lt;/ul&gt;</description>
        <Style>
          <IconStyle>
            <color>ff2f2fd3</color>
            <scale>1.2</scale>
            <Icon>
              <href>https://maps.google.com/mapfiles/kml/pushpin/wht-blank.png</href>
            </Icon>
          </IconStyle>
        </Style>
        <Point>
          <coordinates>-115.1369489,36.086125</coordinates>
        </Point>
      </Placemark>
      <Placemark>
        <name>Reid Terminal 3 Uber/Lyft Pick-Up Area</name>
        <description>&lt;b&gt;Team:&lt;/b&gt; Adam Chase &amp; Ben Doyle&lt;br&gt;&lt;b&gt;Notes:&lt;/b&gt;&lt;ul&gt;&lt;li&gt;Present in Jet Lag: Battle for America (Season 4) 
Members who visited:
1) Adam
2) Ben
Challenge: Forge great American art&lt;/li&gt;&lt;/ul&gt;</description>
        <Style>
          <IconStyle>
            <color>ff2f2fd3</color>
            <scale>1.2</scale>
            <Icon>
              <href>https://maps.google.com/mapfiles/kml/pushpin/wht-blank.png</href>
            </Icon>
          </IconStyle>
        </Style>
        <Point>
          <coordinates>-115.1385644,36.087508</coordinates>
        </Point>
      </Placemark>
      <Placemark>
        <name>Caesars Palace</name>
        <description>&lt;b&gt;Team:&lt;/b&gt; Adam Chase &amp; Ben Doyle&lt;br&gt;&lt;b&gt;Notes:&lt;/b&gt;&lt;ul&gt;&lt;li&gt;Present in Jet Lag: Battle for America (Season 4) 
Members who visited:
1) Adam
2) Ben
Challenge: Forge great American art&lt;/li&gt;&lt;/ul&gt;</description>
        <Style>
          <IconStyle>
            <color>ff2f2fd3</color>
            <scale>1.2</scale>
            <Icon>
              <href>https://maps.google.com/mapfiles/kml/pushpin/wht-blank.png</href>
            </Icon>
          </IconStyle>
        </Style>
        <Point>
          <coordinates>-115.174499,36.1161685</coordinates>
        </Point>
      </Placemark>
      <Placemark>
        <name>Martin Lawrence Galleries</name>
        <description>&lt;b&gt;Team:&lt;/b&gt; Adam Chase &amp; Ben Doyle&lt;br&gt;&lt;b&gt;Notes:&lt;/b&gt;&lt;ul&gt;&lt;li&gt;Present in Jet Lag: Battle for America (Season 4) 
Members who visited:
1) Adam
2) Ben
Challenge: Forge great American art&lt;/li&gt;&lt;/ul&gt;</description>
        <Style>
          <IconStyle>
            <color>ff2f2fd3</color>
            <scale>1.2</scale>
            <Icon>
              <href>https://maps.google.com/mapfiles/kml/pushpin/wht-blank.png</href>
            </Icon>
          </IconStyle>
        </Style>
        <Point>
          <coordinates>-115.1780187,36.1195579</coordinates>
        </Point>
      </Placemark>
      <Placemark>
        <name>Adam and Ben Parking Spot</name>
        <description>&lt;b&gt;Team:&lt;/b&gt; Adam Chase &amp; Ben Doyle&lt;br&gt;&lt;b&gt;Notes:&lt;/b&gt;&lt;ul&gt;&lt;li&gt;Present in Jet Lag: Battle for America (Season 4) 
Members who visited:
1) Adam
2) Ben
Challenge: Forge great American art&lt;/li&gt;&lt;/ul&gt;</description>
        <Style>
          <IconStyle>
            <color>ff2f2fd3</color>
            <scale>1.2</scale>
            <Icon>
              <href>https://maps.google.com/mapfiles/kml/pushpin/wht-blank.png</href>
            </Icon>
          </IconStyle>
        </Style>
        <Point>
          <coordinates>-113.820671428292,35.9872645936093</coordinates>
        </Point>
      </Placemark>
      <Placemark>
        <name>Adam and Ben Drawing Spot #1</name>
        <description>&lt;b&gt;Team:&lt;/b&gt; Adam Chase &amp; Ben Doyle&lt;br&gt;&lt;b&gt;Notes:&lt;/b&gt;&lt;ul&gt;&lt;li&gt;Present in Jet Lag: Battle for America (Season 4) 
Members who visited:
1) Adam
2) Ben
Battle Challenge: Draw George Washington&lt;/li&gt;&lt;/ul&gt;</description>
        <Style>
          <IconStyle>
            <color>ff2f2fd3</color>
            <scale>1.2</scale>
            <Icon>
              <href>https://maps.google.com/mapfiles/kml/pushpin/wht-blank.png</href>
            </Icon>
          </IconStyle>
        </Style>
        <Point>
          <coordinates>-115.137540982536,36.0858678932611</coordinates>
        </Point>
      </Placemark>
      <Placemark>
        <name>Hudson News Terminal 3</name>
        <description>&lt;b&gt;Team:&lt;/b&gt; Adam Chase &amp; Ben Doyle&lt;br&gt;&lt;b&gt;Notes:&lt;/b&gt;&lt;ul&gt;&lt;li&gt;Present in Jet Lag: Battle for America (Season 4) 
Members who visited:
1) Adam
2) Ben
Battle Challenge: Draw George Washington&lt;/li&gt;&lt;/ul&gt;</description>
        <Style>
          <IconStyle>
            <color>ff2f2fd3</color>
            <scale>1.2</scale>
            <Icon>
              <href>https://maps.google.com/mapfiles/kml/pushpin/wht-blank.png</href>
            </Icon>
          </IconStyle>
        </Style>
        <Point>
          <coordinates>-115.13785315127,36.0858648234869</coordinates>
        </Point>
      </Placemark>
      <Placemark>
        <name>Seattle-Tacoma International Airport</name>
        <description>&lt;b&gt;Team:&lt;/b&gt; Adam Chase &amp; Ben Doyle&lt;br&gt;&lt;b&gt;Notes:&lt;/b&gt;&lt;ul&gt;&lt;li&gt;Present in Jet Lag: Battle for America (Season 4) 
Members who visited:
1) Adam
2) Ben&lt;/li&gt;&lt;/ul&gt;</description>
        <Style>
          <IconStyle>
            <color>ff2f2fd3</color>
            <scale>1.2</scale>
            <Icon>
              <href>https://maps.google.com/mapfiles/kml/pushpin/wht-blank.png</href>
            </Icon>
          </IconStyle>
        </Style>
        <Point>
          <coordinates>-122.3086127,47.4483943</coordinates>
        </Point>
      </Placemark>
      <Placemark>
        <name>Ketchikan International Airport</name>
        <description>&lt;b&gt;Team:&lt;/b&gt; Adam Chase &amp; Ben Doyle&lt;br&gt;&lt;b&gt;Notes:&lt;/b&gt;&lt;ul&gt;&lt;li&gt;Present in Jet Lag: Battle for America (Season 4) 
Members who visited:
1) Adam
2) Ben&lt;/li&gt;&lt;/ul&gt;</description>
        <Style>
          <IconStyle>
            <color>ff2f2fd3</color>
            <scale>1.2</scale>
            <Icon>
              <href>https://maps.google.com/mapfiles/kml/pushpin/wht-blank.png</href>
            </Icon>
          </IconStyle>
        </Style>
        <Point>
          <coordinates>-131.7105604,55.3554106</coordinates>
        </Point>
      </Placemark>
      <Placemark>
        <name>Adam and Ben Help Spot</name>
        <description>&lt;b&gt;Team:&lt;/b&gt; Adam Chase &amp; Ben Doyle&lt;br&gt;&lt;b&gt;Notes:&lt;/b&gt;&lt;ul&gt;&lt;li&gt;Present in Jet Lag: Battle for America (Season 4) 
Members who visited:
1) Adam
2) Ben
The final location of Season 4 for Adam and Ben (Adam and Ben are victorious)
Challenge: Spell help in rocks on an island&lt;/li&gt;&lt;/ul&gt;</description>
        <Style>
          <IconStyle>
            <color>ff2f2fd3</color>
            <scale>1.2</scale>
            <Icon>
              <href>https://maps.google.com/mapfiles/kml/pushpin/wht-blank.png</href>
            </Icon>
          </IconStyle>
        </Style>
        <Point>
          <coordinates>-131.709801729683,55.3575187774455</coordinates>
        </Point>
      </Placemark>
    </Folder>
  </Document>
</kml>